<?xml version="1.0" encoding="UTF-8"?>
<gpx version="1.1" creator="bike_setup_tracker sample generator"
     xmlns="http://www.topografix.com/GPX/1/1"
     xmlns:xsi="http://www.w3.org/2001/XMLSchema-instance"
     xsi:schemaLocation="http://www.topografix.com/GPX/1/1 http://www.topografix.com/GPX/1/1/gpx.xsd">
  <metadata>
    <name>Saalbach - Hacklberg &amp; Pro Line</name>
    <time>2026-05-10T05:00:00Z</time>
  </metadata>
  <trk>
    <name>Saalbach - Hacklberg &amp; Pro Line</name>
    <trkseg>
      <trkpt lat="47.365000" lon="12.644000"><ele>1870.0</ele><time>2026-05-10T05:00:00Z</time></trkpt>
      <trkpt lat="47.367318" lon="12.644000"><ele>1889.2</ele><time>2026-05-10T05:01:01Z</time></trkpt>
      <trkpt lat="47.369636" lon="12.644000"><ele>1908.5</ele><time>2026-05-10T05:02:02Z</time></trkpt>
      <trkpt lat="47.371954" lon="12.644000"><ele>1927.7</ele><time>2026-05-10T05:03:03Z</time></trkpt>
      <trkpt lat="47.374271" lon="12.644000"><ele>1947.0</ele><time>2026-05-10T05:04:04Z</time></trkpt>
      <trkpt lat="47.376589" lon="12.644000"><ele>1966.2</ele><time>2026-05-10T05:05:06Z</time></trkpt>
      <trkpt lat="47.378907" lon="12.644000"><ele>1985.4</ele><time>2026-05-10T05:06:07Z</time></trkpt>
      <trkpt lat="47.381225" lon="12.644000"><ele>2004.7</ele><time>2026-05-10T05:07:08Z</time></trkpt>
      <trkpt lat="47.383543" lon="12.644000"><ele>2023.9</ele><time>2026-05-10T05:08:09Z</time></trkpt>
      <trkpt lat="47.385861" lon="12.644000"><ele>2043.1</ele><time>2026-05-10T05:09:10Z</time></trkpt>
      <trkpt lat="47.388179" lon="12.644000"><ele>2062.4</ele><time>2026-05-10T05:10:11Z</time></trkpt>
      <trkpt lat="47.390497" lon="12.644000"><ele>2081.6</ele><time>2026-05-10T05:11:12Z</time></trkpt>
      <trkpt lat="47.392814" lon="12.644000"><ele>2100.9</ele><time>2026-05-10T05:12:13Z</time></trkpt>
      <trkpt lat="47.395132" lon="12.644000"><ele>2120.1</ele><time>2026-05-10T05:13:14Z</time></trkpt>
      <trkpt lat="47.397450" lon="12.644000"><ele>2139.3</ele><time>2026-05-10T05:14:16Z</time></trkpt>
      <trkpt lat="47.399768" lon="12.644000"><ele>2158.6</ele><time>2026-05-10T05:15:17Z</time></trkpt>
      <trkpt lat="47.402086" lon="12.644000"><ele>2177.8</ele><time>2026-05-10T05:16:18Z</time></trkpt>
      <trkpt lat="47.404404" lon="12.644000"><ele>2197.1</ele><time>2026-05-10T05:17:19Z</time></trkpt>
      <trkpt lat="47.406722" lon="12.644000"><ele>2216.3</ele><time>2026-05-10T05:18:20Z</time></trkpt>
      <trkpt lat="47.409039" lon="12.644000"><ele>2235.5</ele><time>2026-05-10T05:19:21Z</time></trkpt>
      <trkpt lat="47.411357" lon="12.644000"><ele>2254.8</ele><time>2026-05-10T05:20:22Z</time></trkpt>
      <trkpt lat="47.413675" lon="12.644000"><ele>2274.0</ele><time>2026-05-10T05:21:23Z</time></trkpt>
      <trkpt lat="47.415993" lon="12.644000"><ele>2293.3</ele><time>2026-05-10T05:22:24Z</time></trkpt>
      <trkpt lat="47.418311" lon="12.644000"><ele>2312.5</ele><time>2026-05-10T05:23:26Z</time></trkpt>
      <trkpt lat="47.420629" lon="12.644000"><ele>2331.7</ele><time>2026-05-10T05:24:27Z</time></trkpt>
      <trkpt lat="47.422947" lon="12.644000"><ele>2351.0</ele><time>2026-05-10T05:25:28Z</time></trkpt>
      <trkpt lat="47.425264" lon="12.644000"><ele>2370.2</ele><time>2026-05-10T05:26:29Z</time></trkpt>
      <trkpt lat="47.427582" lon="12.644000"><ele>2389.4</ele><time>2026-05-10T05:27:30Z</time></trkpt>
      <trkpt lat="47.429900" lon="12.644000"><ele>2408.7</ele><time>2026-05-10T05:28:31Z</time></trkpt>
      <trkpt lat="47.432218" lon="12.644000"><ele>2427.9</ele><time>2026-05-10T05:29:32Z</time></trkpt>
      <trkpt lat="47.434536" lon="12.644000"><ele>2447.2</ele><time>2026-05-10T05:30:33Z</time></trkpt>
      <trkpt lat="47.436854" lon="12.644000"><ele>2466.4</ele><time>2026-05-10T05:31:34Z</time></trkpt>
      <trkpt lat="47.439172" lon="12.644000"><ele>2485.6</ele><time>2026-05-10T05:32:36Z</time></trkpt>
      <trkpt lat="47.441490" lon="12.644000"><ele>2504.9</ele><time>2026-05-10T05:33:37Z</time></trkpt>
      <trkpt lat="47.443807" lon="12.644000"><ele>2524.1</ele><time>2026-05-10T05:34:38Z</time></trkpt>
      <trkpt lat="47.446125" lon="12.644000"><ele>2543.4</ele><time>2026-05-10T05:35:39Z</time></trkpt>
      <trkpt lat="47.448443" lon="12.644000"><ele>2562.6</ele><time>2026-05-10T05:36:40Z</time></trkpt>
      <trkpt lat="47.450761" lon="12.644000"><ele>2581.8</ele><time>2026-05-10T05:37:41Z</time></trkpt>
      <trkpt lat="47.453079" lon="12.644000"><ele>2601.1</ele><time>2026-05-10T05:38:42Z</time></trkpt>
      <trkpt lat="47.455397" lon="12.644000"><ele>2620.3</ele><time>2026-05-10T05:39:43Z</time></trkpt>
      <trkpt lat="47.457715" lon="12.644000"><ele>2639.5</ele><time>2026-05-10T05:40:44Z</time></trkpt>
      <trkpt lat="47.460032" lon="12.644000"><ele>2658.8</ele><time>2026-05-10T05:41:46Z</time></trkpt>
      <trkpt lat="47.462350" lon="12.644000"><ele>2678.0</ele><time>2026-05-10T05:42:47Z</time></trkpt>
      <trkpt lat="47.464668" lon="12.644000"><ele>2697.3</ele><time>2026-05-10T05:43:48Z</time></trkpt>
      <trkpt lat="47.466986" lon="12.644000"><ele>2716.5</ele><time>2026-05-10T05:44:49Z</time></trkpt>
      <trkpt lat="47.469304" lon="12.644000"><ele>2735.7</ele><time>2026-05-10T05:45:50Z</time></trkpt>
      <trkpt lat="47.471622" lon="12.644000"><ele>2755.0</ele><time>2026-05-10T05:46:51Z</time></trkpt>
      <trkpt lat="47.473940" lon="12.644000"><ele>2774.2</ele><time>2026-05-10T05:47:52Z</time></trkpt>
      <trkpt lat="47.476258" lon="12.644000"><ele>2793.5</ele><time>2026-05-10T05:48:53Z</time></trkpt>
      <trkpt lat="47.478575" lon="12.644000"><ele>2812.7</ele><time>2026-05-10T05:49:54Z</time></trkpt>
      <trkpt lat="47.480893" lon="12.644000"><ele>2831.9</ele><time>2026-05-10T05:50:56Z</time></trkpt>
      <trkpt lat="47.483211" lon="12.644000"><ele>2851.2</ele><time>2026-05-10T05:51:57Z</time></trkpt>
      <trkpt lat="47.485529" lon="12.644000"><ele>2870.4</ele><time>2026-05-10T05:52:58Z</time></trkpt>
      <trkpt lat="47.487847" lon="12.644000"><ele>2889.7</ele><time>2026-05-10T05:53:59Z</time></trkpt>
      <trkpt lat="47.490165" lon="12.644000"><ele>2908.9</ele><time>2026-05-10T05:55:00Z</time></trkpt>
      <trkpt lat="47.492483" lon="12.644000"><ele>2928.1</ele><time>2026-05-10T05:56:01Z</time></trkpt>
      <trkpt lat="47.494800" lon="12.644000"><ele>2947.4</ele><time>2026-05-10T05:57:02Z</time></trkpt>
      <trkpt lat="47.497118" lon="12.644000"><ele>2966.6</ele><time>2026-05-10T05:58:03Z</time></trkpt>
      <trkpt lat="47.499436" lon="12.644000"><ele>2985.8</ele><time>2026-05-10T05:59:04Z</time></trkpt>
      <trkpt lat="47.501754" lon="12.644000"><ele>3005.1</ele><time>2026-05-10T06:00:06Z</time></trkpt>
      <trkpt lat="47.504072" lon="12.644000"><ele>3024.3</ele><time>2026-05-10T06:01:07Z</time></trkpt>
      <trkpt lat="47.506390" lon="12.644000"><ele>3043.6</ele><time>2026-05-10T06:02:08Z</time></trkpt>
      <trkpt lat="47.508708" lon="12.644000"><ele>3062.8</ele><time>2026-05-10T06:03:09Z</time></trkpt>
      <trkpt lat="47.511025" lon="12.644000"><ele>3082.0</ele><time>2026-05-10T06:04:10Z</time></trkpt>
      <trkpt lat="47.513343" lon="12.644000"><ele>3101.3</ele><time>2026-05-10T06:05:11Z</time></trkpt>
      <trkpt lat="47.515661" lon="12.644000"><ele>3120.5</ele><time>2026-05-10T06:06:12Z</time></trkpt>
      <trkpt lat="47.517979" lon="12.644000"><ele>3139.8</ele><time>2026-05-10T06:07:13Z</time></trkpt>
      <trkpt lat="47.520297" lon="12.644000"><ele>3159.0</ele><time>2026-05-10T06:08:14Z</time></trkpt>
      <trkpt lat="47.522615" lon="12.644000"><ele>3178.2</ele><time>2026-05-10T06:09:16Z</time></trkpt>
      <trkpt lat="47.524933" lon="12.644000"><ele>3197.5</ele><time>2026-05-10T06:10:17Z</time></trkpt>
      <trkpt lat="47.527251" lon="12.644000"><ele>3216.7</ele><time>2026-05-10T06:11:18Z</time></trkpt>
      <trkpt lat="47.529568" lon="12.644000"><ele>3235.9</ele><time>2026-05-10T06:12:19Z</time></trkpt>
      <trkpt lat="47.531886" lon="12.644000"><ele>3255.2</ele><time>2026-05-10T06:13:20Z</time></trkpt>
      <trkpt lat="47.534204" lon="12.644000"><ele>3274.4</ele><time>2026-05-10T06:14:21Z</time></trkpt>
      <trkpt lat="47.536522" lon="12.644000"><ele>3293.7</ele><time>2026-05-10T06:15:22Z</time></trkpt>
      <trkpt lat="47.538840" lon="12.644000"><ele>3312.9</ele><time>2026-05-10T06:16:23Z</time></trkpt>
      <trkpt lat="47.541158" lon="12.644000"><ele>3332.1</ele><time>2026-05-10T06:17:24Z</time></trkpt>
      <trkpt lat="47.543476" lon="12.644000"><ele>3351.4</ele><time>2026-05-10T06:18:26Z</time></trkpt>
      <trkpt lat="47.545793" lon="12.644000"><ele>3370.6</ele><time>2026-05-10T06:19:27Z</time></trkpt>
      <trkpt lat="47.548111" lon="12.644000"><ele>3389.9</ele><time>2026-05-10T06:20:28Z</time></trkpt>
      <trkpt lat="47.550429" lon="12.644000"><ele>3409.1</ele><time>2026-05-10T06:21:29Z</time></trkpt>
      <trkpt lat="47.552747" lon="12.644000"><ele>3428.3</ele><time>2026-05-10T06:22:30Z</time></trkpt>
      <trkpt lat="47.552747" lon="12.644000"><ele>3428.3</ele><time>2026-05-10T06:24:30Z</time></trkpt>
      <trkpt lat="47.552747" lon="12.644000"><ele>3428.3</ele><time>2026-05-10T06:26:30Z</time></trkpt>
      <trkpt lat="47.552747" lon="12.644000"><ele>3428.3</ele><time>2026-05-10T06:28:30Z</time></trkpt>
      <trkpt lat="47.552747" lon="12.644000"><ele>3428.3</ele><time>2026-05-10T06:30:30Z</time></trkpt>
      <trkpt lat="47.552747" lon="12.644000"><ele>3428.3</ele><time>2026-05-10T06:32:30Z</time></trkpt>
      <trkpt lat="47.552747" lon="12.644000"><ele>3428.3</ele><time>2026-05-10T06:34:30Z</time></trkpt>
      <trkpt lat="47.552747" lon="12.644000"><ele>3428.3</ele><time>2026-05-10T06:36:30Z</time></trkpt>
      <trkpt lat="47.552747" lon="12.644000"><ele>3428.3</ele><time>2026-05-10T06:38:30Z</time></trkpt>
      <trkpt lat="47.552747" lon="12.644000"><ele>3428.3</ele><time>2026-05-10T06:40:30Z</time></trkpt>
      <trkpt lat="47.552747" lon="12.644000"><ele>3428.3</ele><time>2026-05-10T06:42:30Z</time></trkpt>
      <trkpt lat="47.552747" lon="12.644000"><ele>3428.3</ele><time>2026-05-10T06:44:30Z</time></trkpt>
      <trkpt lat="47.552747" lon="12.644000"><ele>3428.3</ele><time>2026-05-10T06:46:30Z</time></trkpt>
      <trkpt lat="47.552747" lon="12.644000"><ele>3428.3</ele><time>2026-05-10T06:48:30Z</time></trkpt>
      <trkpt lat="47.552747" lon="12.644000"><ele>3428.3</ele><time>2026-05-10T06:50:30Z</time></trkpt>
      <trkpt lat="47.552747" lon="12.644000"><ele>3428.3</ele><time>2026-05-10T06:52:30Z</time></trkpt>
      <trkpt lat="47.552747" lon="12.644000"><ele>3428.3</ele><time>2026-05-10T06:54:30Z</time></trkpt>
      <trkpt lat="47.552747" lon="12.644000"><ele>3428.3</ele><time>2026-05-10T06:56:30Z</time></trkpt>
      <trkpt lat="47.552747" lon="12.644000"><ele>3428.3</ele><time>2026-05-10T06:58:30Z</time></trkpt>
      <trkpt lat="47.552747" lon="12.644000"><ele>3428.3</ele><time>2026-05-10T07:00:30Z</time></trkpt>
      <trkpt lat="47.552747" lon="12.644000"><ele>3428.3</ele><time>2026-05-10T07:02:30Z</time></trkpt>
      <trkpt lat="47.552747" lon="12.644000"><ele>3428.3</ele><time>2026-05-10T07:04:30Z</time></trkpt>
      <trkpt lat="47.552747" lon="12.644000"><ele>3428.3</ele><time>2026-05-10T07:06:30Z</time></trkpt>
      <trkpt lat="47.552747" lon="12.644000"><ele>3428.3</ele><time>2026-05-10T07:08:30Z</time></trkpt>
      <trkpt lat="47.552747" lon="12.644000"><ele>3428.3</ele><time>2026-05-10T07:10:30Z</time></trkpt>
      <trkpt lat="47.552747" lon="12.644000"><ele>3428.3</ele><time>2026-05-10T07:12:30Z</time></trkpt>
      <trkpt lat="47.552747" lon="12.644000"><ele>3428.3</ele><time>2026-05-10T07:14:30Z</time></trkpt>
      <trkpt lat="47.552747" lon="12.644000"><ele>3428.3</ele><time>2026-05-10T07:16:30Z</time></trkpt>
      <trkpt lat="47.552747" lon="12.644000"><ele>3428.3</ele><time>2026-05-10T07:18:30Z</time></trkpt>
      <trkpt lat="47.552747" lon="12.644000"><ele>3428.3</ele><time>2026-05-10T07:20:30Z</time></trkpt>
      <trkpt lat="47.552747" lon="12.644000"><ele>3428.3</ele><time>2026-05-10T07:22:30Z</time></trkpt>
      <trkpt lat="47.552747" lon="12.644000"><ele>3428.3</ele><time>2026-05-10T07:24:30Z</time></trkpt>
      <trkpt lat="47.552747" lon="12.644000"><ele>3428.3</ele><time>2026-05-10T07:26:30Z</time></trkpt>
      <trkpt lat="47.552747" lon="12.644000"><ele>3428.3</ele><time>2026-05-10T07:28:30Z</time></trkpt>
      <trkpt lat="47.552747" lon="12.644000"><ele>3428.3</ele><time>2026-05-10T07:30:30Z</time></trkpt>
      <trkpt lat="47.552747" lon="12.644000"><ele>3428.3</ele><time>2026-05-10T07:32:30Z</time></trkpt>
      <trkpt lat="47.552747" lon="12.644000"><ele>3428.3</ele><time>2026-05-10T07:34:30Z</time></trkpt>
      <trkpt lat="47.552747" lon="12.644000"><ele>3428.3</ele><time>2026-05-10T07:36:30Z</time></trkpt>
      <trkpt lat="47.552747" lon="12.644000"><ele>3428.3</ele><time>2026-05-10T07:38:30Z</time></trkpt>
      <trkpt lat="47.552747" lon="12.644000"><ele>3428.3</ele><time>2026-05-10T07:40:30Z</time></trkpt>
      <trkpt lat="47.552747" lon="12.644000"><ele>3428.3</ele><time>2026-05-10T07:42:30Z</time></trkpt>
      <trkpt lat="47.552747" lon="12.644000"><ele>3428.3</ele><time>2026-05-10T07:44:30Z</time></trkpt>
      <trkpt lat="47.552747" lon="12.644000"><ele>3428.3</ele><time>2026-05-10T07:46:30Z</time></trkpt>
      <trkpt lat="47.552747" lon="12.644000"><ele>3428.3</ele><time>2026-05-10T07:48:30Z</time></trkpt>
      <trkpt lat="47.552747" lon="12.644000"><ele>3428.3</ele><time>2026-05-10T07:50:30Z</time></trkpt>
      <trkpt lat="47.552747" lon="12.644000"><ele>3428.3</ele><time>2026-05-10T07:52:30Z</time></trkpt>
      <trkpt lat="47.555040" lon="12.644000"><ele>3447.4</ele><time>2026-05-10T07:53:30Z</time></trkpt>
      <trkpt lat="47.557332" lon="12.644000"><ele>3466.4</ele><time>2026-05-10T07:54:31Z</time></trkpt>
      <trkpt lat="47.559625" lon="12.644000"><ele>3485.4</ele><time>2026-05-10T07:55:31Z</time></trkpt>
      <trkpt lat="47.561918" lon="12.644000"><ele>3504.5</ele><time>2026-05-10T07:56:32Z</time></trkpt>
      <trkpt lat="47.564211" lon="12.644000"><ele>3523.5</ele><time>2026-05-10T07:57:32Z</time></trkpt>
      <trkpt lat="47.566503" lon="12.644000"><ele>3542.5</ele><time>2026-05-10T07:58:33Z</time></trkpt>
      <trkpt lat="47.568796" lon="12.644000"><ele>3561.5</ele><time>2026-05-10T07:59:33Z</time></trkpt>
      <trkpt lat="47.571089" lon="12.644000"><ele>3554.1</ele><time>2026-05-10T08:00:34Z</time></trkpt>
      <trkpt lat="47.573381" lon="12.644000"><ele>3525.6</ele><time>2026-05-10T08:01:34Z</time></trkpt>
      <trkpt lat="47.575674" lon="12.644000"><ele>3497.1</ele><time>2026-05-10T08:02:34Z</time></trkpt>
      <trkpt lat="47.577967" lon="12.644000"><ele>3468.5</ele><time>2026-05-10T08:03:35Z</time></trkpt>
      <trkpt lat="47.580259" lon="12.644000"><ele>3440.0</ele><time>2026-05-10T08:04:35Z</time></trkpt>
      <trkpt lat="47.582552" lon="12.644000"><ele>3411.4</ele><time>2026-05-10T08:05:36Z</time></trkpt>
      <trkpt lat="47.584845" lon="12.644000"><ele>3382.9</ele><time>2026-05-10T08:06:36Z</time></trkpt>
      <trkpt lat="47.587138" lon="12.644000"><ele>3354.3</ele><time>2026-05-10T08:07:37Z</time></trkpt>
      <trkpt lat="47.589430" lon="12.644000"><ele>3325.8</ele><time>2026-05-10T08:08:37Z</time></trkpt>
      <trkpt lat="47.591723" lon="12.644000"><ele>3297.2</ele><time>2026-05-10T08:09:38Z</time></trkpt>
      <trkpt lat="47.594016" lon="12.644000"><ele>3268.7</ele><time>2026-05-10T08:10:38Z</time></trkpt>
      <trkpt lat="47.596308" lon="12.644000"><ele>3240.1</ele><time>2026-05-10T08:11:39Z</time></trkpt>
      <trkpt lat="47.598601" lon="12.644000"><ele>3211.6</ele><time>2026-05-10T08:12:39Z</time></trkpt>
      <trkpt lat="47.600894" lon="12.644000"><ele>3183.1</ele><time>2026-05-10T08:13:39Z</time></trkpt>
      <trkpt lat="47.603187" lon="12.644000"><ele>3154.5</ele><time>2026-05-10T08:14:40Z</time></trkpt>
      <trkpt lat="47.605479" lon="12.644000"><ele>3126.0</ele><time>2026-05-10T08:15:40Z</time></trkpt>
      <trkpt lat="47.607772" lon="12.644000"><ele>3097.4</ele><time>2026-05-10T08:16:41Z</time></trkpt>
      <trkpt lat="47.610065" lon="12.644000"><ele>3068.9</ele><time>2026-05-10T08:17:41Z</time></trkpt>
      <trkpt lat="47.612357" lon="12.644000"><ele>3040.3</ele><time>2026-05-10T08:18:42Z</time></trkpt>
      <trkpt lat="47.614650" lon="12.644000"><ele>3011.8</ele><time>2026-05-10T08:19:42Z</time></trkpt>
      <trkpt lat="47.616943" lon="12.644000"><ele>2983.2</ele><time>2026-05-10T08:20:43Z</time></trkpt>
      <trkpt lat="47.619235" lon="12.644000"><ele>2954.7</ele><time>2026-05-10T08:21:43Z</time></trkpt>
      <trkpt lat="47.621528" lon="12.644000"><ele>2926.2</ele><time>2026-05-10T08:22:43Z</time></trkpt>
      <trkpt lat="47.623821" lon="12.644000"><ele>2897.6</ele><time>2026-05-10T08:23:44Z</time></trkpt>
      <trkpt lat="47.626114" lon="12.644000"><ele>2869.1</ele><time>2026-05-10T08:24:44Z</time></trkpt>
      <trkpt lat="47.628406" lon="12.644000"><ele>2840.5</ele><time>2026-05-10T08:25:45Z</time></trkpt>
      <trkpt lat="47.630699" lon="12.644000"><ele>2812.0</ele><time>2026-05-10T08:26:45Z</time></trkpt>
      <trkpt lat="47.632992" lon="12.644000"><ele>2783.4</ele><time>2026-05-10T08:27:46Z</time></trkpt>
      <trkpt lat="47.635284" lon="12.644000"><ele>2754.9</ele><time>2026-05-10T08:28:46Z</time></trkpt>
      <trkpt lat="47.637577" lon="12.644000"><ele>2726.3</ele><time>2026-05-10T08:29:47Z</time></trkpt>
      <trkpt lat="47.639870" lon="12.644000"><ele>2697.8</ele><time>2026-05-10T08:30:47Z</time></trkpt>
      <trkpt lat="47.642163" lon="12.644000"><ele>2669.3</ele><time>2026-05-10T08:31:47Z</time></trkpt>
      <trkpt lat="47.644455" lon="12.644000"><ele>2640.7</ele><time>2026-05-10T08:32:48Z</time></trkpt>
      <trkpt lat="47.646748" lon="12.644000"><ele>2612.2</ele><time>2026-05-10T08:33:48Z</time></trkpt>
      <trkpt lat="47.649041" lon="12.644000"><ele>2583.6</ele><time>2026-05-10T08:34:49Z</time></trkpt>
      <trkpt lat="47.651333" lon="12.644000"><ele>2555.1</ele><time>2026-05-10T08:35:49Z</time></trkpt>
      <trkpt lat="47.653626" lon="12.644000"><ele>2526.5</ele><time>2026-05-10T08:36:50Z</time></trkpt>
      <trkpt lat="47.655919" lon="12.644000"><ele>2498.0</ele><time>2026-05-10T08:37:50Z</time></trkpt>
      <trkpt lat="47.658211" lon="12.644000"><ele>2469.4</ele><time>2026-05-10T08:38:51Z</time></trkpt>
      <trkpt lat="47.660504" lon="12.644000"><ele>2440.9</ele><time>2026-05-10T08:39:51Z</time></trkpt>
      <trkpt lat="47.662797" lon="12.644000"><ele>2412.4</ele><time>2026-05-10T08:40:51Z</time></trkpt>
      <trkpt lat="47.665090" lon="12.644000"><ele>2383.8</ele><time>2026-05-10T08:41:52Z</time></trkpt>
      <trkpt lat="47.667382" lon="12.644000"><ele>2355.3</ele><time>2026-05-10T08:42:52Z</time></trkpt>
      <trkpt lat="47.669675" lon="12.644000"><ele>2326.7</ele><time>2026-05-10T08:43:53Z</time></trkpt>
      <trkpt lat="47.671968" lon="12.644000"><ele>2298.2</ele><time>2026-05-10T08:44:53Z</time></trkpt>
      <trkpt lat="47.674260" lon="12.644000"><ele>2269.6</ele><time>2026-05-10T08:45:54Z</time></trkpt>
      <trkpt lat="47.676553" lon="12.644000"><ele>2241.1</ele><time>2026-05-10T08:46:54Z</time></trkpt>
      <trkpt lat="47.678846" lon="12.644000"><ele>2212.5</ele><time>2026-05-10T08:47:55Z</time></trkpt>
      <trkpt lat="47.681138" lon="12.644000"><ele>2184.0</ele><time>2026-05-10T08:48:55Z</time></trkpt>
      <trkpt lat="47.683431" lon="12.644000"><ele>2155.4</ele><time>2026-05-10T08:49:56Z</time></trkpt>
      <trkpt lat="47.685724" lon="12.644000"><ele>2126.9</ele><time>2026-05-10T08:50:56Z</time></trkpt>
      <trkpt lat="47.688017" lon="12.644000"><ele>2098.4</ele><time>2026-05-10T08:51:56Z</time></trkpt>
      <trkpt lat="47.690309" lon="12.644000"><ele>2069.8</ele><time>2026-05-10T08:52:57Z</time></trkpt>
      <trkpt lat="47.692602" lon="12.644000"><ele>2041.3</ele><time>2026-05-10T08:53:57Z</time></trkpt>
      <trkpt lat="47.694895" lon="12.644000"><ele>2012.7</ele><time>2026-05-10T08:54:58Z</time></trkpt>
      <trkpt lat="47.697187" lon="12.644000"><ele>1984.2</ele><time>2026-05-10T08:55:58Z</time></trkpt>
      <trkpt lat="47.699480" lon="12.644000"><ele>1955.6</ele><time>2026-05-10T08:56:59Z</time></trkpt>
      <trkpt lat="47.701773" lon="12.644000"><ele>1927.1</ele><time>2026-05-10T08:57:59Z</time></trkpt>
      <trkpt lat="47.704066" lon="12.644000"><ele>1898.5</ele><time>2026-05-10T08:59:00Z</time></trkpt>
      <trkpt lat="47.706358" lon="12.644000"><ele>1870.0</ele><time>2026-05-10T09:00:00Z</time></trkpt>
    </trkseg>
  </trk>
</gpx>
