<?xml version="1.0" encoding="UTF-8"?>
<gpx version="1.1" creator="bike_setup_tracker sample generator"
     xmlns="http://www.topografix.com/GPX/1/1"
     xmlns:xsi="http://www.w3.org/2001/XMLSchema-instance"
     xsi:schemaLocation="http://www.topografix.com/GPX/1/1 http://www.topografix.com/GPX/1/1/gpx.xsd">
  <metadata>
    <name>Flowtrail Stromberg</name>
    <time>2026-05-13T13:10:00Z</time>
  </metadata>
  <trk>
    <name>Flowtrail Stromberg</name>
    <trkseg>
      <trkpt lat="49.930000" lon="8.048000"><ele>280.0</ele><time>2026-05-13T13:10:00Z</time></trkpt>
      <trkpt lat="49.932726" lon="8.048000"><ele>290.1</ele><time>2026-05-13T13:11:03Z</time></trkpt>
      <trkpt lat="49.935452" lon="8.048000"><ele>300.2</ele><time>2026-05-13T13:12:05Z</time></trkpt>
      <trkpt lat="49.938178" lon="8.048000"><ele>310.3</ele><time>2026-05-13T13:13:08Z</time></trkpt>
      <trkpt lat="49.940904" lon="8.048000"><ele>320.5</ele><time>2026-05-13T13:14:10Z</time></trkpt>
      <trkpt lat="49.943630" lon="8.048000"><ele>330.6</ele><time>2026-05-13T13:15:13Z</time></trkpt>
      <trkpt lat="49.946355" lon="8.048000"><ele>340.7</ele><time>2026-05-13T13:16:16Z</time></trkpt>
      <trkpt lat="49.949081" lon="8.048000"><ele>350.8</ele><time>2026-05-13T13:17:18Z</time></trkpt>
      <trkpt lat="49.951807" lon="8.048000"><ele>360.9</ele><time>2026-05-13T13:18:21Z</time></trkpt>
      <trkpt lat="49.954533" lon="8.048000"><ele>371.0</ele><time>2026-05-13T13:19:23Z</time></trkpt>
      <trkpt lat="49.957259" lon="8.048000"><ele>381.1</ele><time>2026-05-13T13:20:26Z</time></trkpt>
      <trkpt lat="49.959985" lon="8.048000"><ele>391.3</ele><time>2026-05-13T13:21:28Z</time></trkpt>
      <trkpt lat="49.962711" lon="8.048000"><ele>401.4</ele><time>2026-05-13T13:22:31Z</time></trkpt>
      <trkpt lat="49.965437" lon="8.048000"><ele>411.5</ele><time>2026-05-13T13:23:34Z</time></trkpt>
      <trkpt lat="49.968163" lon="8.048000"><ele>421.6</ele><time>2026-05-13T13:24:36Z</time></trkpt>
      <trkpt lat="49.970889" lon="8.048000"><ele>431.7</ele><time>2026-05-13T13:25:39Z</time></trkpt>
      <trkpt lat="49.973615" lon="8.048000"><ele>441.8</ele><time>2026-05-13T13:26:41Z</time></trkpt>
      <trkpt lat="49.976340" lon="8.048000"><ele>452.0</ele><time>2026-05-13T13:27:44Z</time></trkpt>
      <trkpt lat="49.979066" lon="8.048000"><ele>462.1</ele><time>2026-05-13T13:28:47Z</time></trkpt>
      <trkpt lat="49.981792" lon="8.048000"><ele>472.2</ele><time>2026-05-13T13:29:49Z</time></trkpt>
      <trkpt lat="49.984518" lon="8.048000"><ele>482.3</ele><time>2026-05-13T13:30:52Z</time></trkpt>
      <trkpt lat="49.987244" lon="8.048000"><ele>492.4</ele><time>2026-05-13T13:31:54Z</time></trkpt>
      <trkpt lat="49.989970" lon="8.048000"><ele>502.5</ele><time>2026-05-13T13:32:57Z</time></trkpt>
      <trkpt lat="49.992696" lon="8.048000"><ele>512.6</ele><time>2026-05-13T13:33:59Z</time></trkpt>
      <trkpt lat="49.995422" lon="8.048000"><ele>522.8</ele><time>2026-05-13T13:35:02Z</time></trkpt>
      <trkpt lat="49.998148" lon="8.048000"><ele>532.9</ele><time>2026-05-13T13:36:05Z</time></trkpt>
      <trkpt lat="50.000874" lon="8.048000"><ele>543.0</ele><time>2026-05-13T13:37:07Z</time></trkpt>
      <trkpt lat="50.003600" lon="8.048000"><ele>553.1</ele><time>2026-05-13T13:38:10Z</time></trkpt>
      <trkpt lat="50.006325" lon="8.048000"><ele>563.2</ele><time>2026-05-13T13:39:12Z</time></trkpt>
      <trkpt lat="50.009051" lon="8.048000"><ele>573.3</ele><time>2026-05-13T13:40:15Z</time></trkpt>
      <trkpt lat="50.009051" lon="8.048000"><ele>573.3</ele><time>2026-05-13T13:42:17Z</time></trkpt>
      <trkpt lat="50.009051" lon="8.048000"><ele>573.3</ele><time>2026-05-13T13:44:19Z</time></trkpt>
      <trkpt lat="50.009051" lon="8.048000"><ele>573.3</ele><time>2026-05-13T13:46:22Z</time></trkpt>
      <trkpt lat="50.009051" lon="8.048000"><ele>573.3</ele><time>2026-05-13T13:48:24Z</time></trkpt>
      <trkpt lat="50.009051" lon="8.048000"><ele>573.3</ele><time>2026-05-13T13:50:26Z</time></trkpt>
      <trkpt lat="50.009051" lon="8.048000"><ele>573.3</ele><time>2026-05-13T13:52:28Z</time></trkpt>
      <trkpt lat="50.009051" lon="8.048000"><ele>573.3</ele><time>2026-05-13T13:54:31Z</time></trkpt>
      <trkpt lat="50.009051" lon="8.048000"><ele>573.3</ele><time>2026-05-13T13:56:33Z</time></trkpt>
      <trkpt lat="50.009051" lon="8.048000"><ele>573.3</ele><time>2026-05-13T13:58:35Z</time></trkpt>
      <trkpt lat="50.009051" lon="8.048000"><ele>573.3</ele><time>2026-05-13T14:00:37Z</time></trkpt>
      <trkpt lat="50.009051" lon="8.048000"><ele>573.3</ele><time>2026-05-13T14:02:39Z</time></trkpt>
      <trkpt lat="50.009051" lon="8.048000"><ele>573.3</ele><time>2026-05-13T14:04:42Z</time></trkpt>
      <trkpt lat="50.009051" lon="8.048000"><ele>573.3</ele><time>2026-05-13T14:06:44Z</time></trkpt>
      <trkpt lat="50.009051" lon="8.048000"><ele>573.3</ele><time>2026-05-13T14:08:46Z</time></trkpt>
      <trkpt lat="50.009051" lon="8.048000"><ele>573.3</ele><time>2026-05-13T14:10:48Z</time></trkpt>
      <trkpt lat="50.009051" lon="8.048000"><ele>573.3</ele><time>2026-05-13T14:12:51Z</time></trkpt>
      <trkpt lat="50.009051" lon="8.048000"><ele>573.3</ele><time>2026-05-13T14:14:53Z</time></trkpt>
      <trkpt lat="50.009051" lon="8.048000"><ele>573.3</ele><time>2026-05-13T14:16:55Z</time></trkpt>
      <trkpt lat="50.009051" lon="8.048000"><ele>573.3</ele><time>2026-05-13T14:18:57Z</time></trkpt>
      <trkpt lat="50.009051" lon="8.048000"><ele>573.3</ele><time>2026-05-13T14:20:59Z</time></trkpt>
      <trkpt lat="50.009051" lon="8.048000"><ele>573.3</ele><time>2026-05-13T14:23:02Z</time></trkpt>
      <trkpt lat="50.009051" lon="8.048000"><ele>573.3</ele><time>2026-05-13T14:25:04Z</time></trkpt>
      <trkpt lat="50.009051" lon="8.048000"><ele>573.3</ele><time>2026-05-13T14:27:06Z</time></trkpt>
      <trkpt lat="50.009051" lon="8.048000"><ele>573.3</ele><time>2026-05-13T14:29:08Z</time></trkpt>
      <trkpt lat="50.009051" lon="8.048000"><ele>573.3</ele><time>2026-05-13T14:31:11Z</time></trkpt>
      <trkpt lat="50.009051" lon="8.048000"><ele>573.3</ele><time>2026-05-13T14:33:13Z</time></trkpt>
      <trkpt lat="50.009051" lon="8.048000"><ele>573.3</ele><time>2026-05-13T14:35:15Z</time></trkpt>
      <trkpt lat="50.011746" lon="8.048000"><ele>583.3</ele><time>2026-05-13T14:36:17Z</time></trkpt>
      <trkpt lat="50.014441" lon="8.048000"><ele>593.3</ele><time>2026-05-13T14:37:19Z</time></trkpt>
      <trkpt lat="50.017136" lon="8.048000"><ele>595.0</ele><time>2026-05-13T14:38:21Z</time></trkpt>
      <trkpt lat="50.019831" lon="8.048000"><ele>580.0</ele><time>2026-05-13T14:39:22Z</time></trkpt>
      <trkpt lat="50.022526" lon="8.048000"><ele>565.0</ele><time>2026-05-13T14:40:24Z</time></trkpt>
      <trkpt lat="50.025221" lon="8.048000"><ele>550.0</ele><time>2026-05-13T14:41:26Z</time></trkpt>
      <trkpt lat="50.027916" lon="8.048000"><ele>535.0</ele><time>2026-05-13T14:42:28Z</time></trkpt>
      <trkpt lat="50.030611" lon="8.048000"><ele>520.0</ele><time>2026-05-13T14:43:30Z</time></trkpt>
      <trkpt lat="50.033306" lon="8.048000"><ele>505.0</ele><time>2026-05-13T14:44:32Z</time></trkpt>
      <trkpt lat="50.036001" lon="8.048000"><ele>490.0</ele><time>2026-05-13T14:45:34Z</time></trkpt>
      <trkpt lat="50.038696" lon="8.048000"><ele>475.0</ele><time>2026-05-13T14:46:36Z</time></trkpt>
      <trkpt lat="50.041391" lon="8.048000"><ele>460.0</ele><time>2026-05-13T14:47:38Z</time></trkpt>
      <trkpt lat="50.044086" lon="8.048000"><ele>445.0</ele><time>2026-05-13T14:48:39Z</time></trkpt>
      <trkpt lat="50.046780" lon="8.048000"><ele>430.0</ele><time>2026-05-13T14:49:41Z</time></trkpt>
      <trkpt lat="50.049475" lon="8.048000"><ele>415.0</ele><time>2026-05-13T14:50:43Z</time></trkpt>
      <trkpt lat="50.052170" lon="8.048000"><ele>400.0</ele><time>2026-05-13T14:51:45Z</time></trkpt>
      <trkpt lat="50.054865" lon="8.048000"><ele>385.0</ele><time>2026-05-13T14:52:47Z</time></trkpt>
      <trkpt lat="50.057560" lon="8.048000"><ele>370.0</ele><time>2026-05-13T14:53:49Z</time></trkpt>
      <trkpt lat="50.060255" lon="8.048000"><ele>355.0</ele><time>2026-05-13T14:54:51Z</time></trkpt>
      <trkpt lat="50.062950" lon="8.048000"><ele>340.0</ele><time>2026-05-13T14:55:52Z</time></trkpt>
      <trkpt lat="50.065645" lon="8.048000"><ele>325.0</ele><time>2026-05-13T14:56:54Z</time></trkpt>
      <trkpt lat="50.068340" lon="8.048000"><ele>310.0</ele><time>2026-05-13T14:57:56Z</time></trkpt>
      <trkpt lat="50.071035" lon="8.048000"><ele>295.0</ele><time>2026-05-13T14:58:58Z</time></trkpt>
      <trkpt lat="50.073730" lon="8.048000"><ele>280.0</ele><time>2026-05-13T15:00:00Z</time></trkpt>
    </trkseg>
  </trk>
</gpx>
