<?xml version="1.0" encoding="UTF-8"?>
<gpx version="1.1" creator="bike_setup_tracker sample generator"
     xmlns="http://www.topografix.com/GPX/1/1"
     xmlns:xsi="http://www.w3.org/2001/XMLSchema-instance"
     xsi:schemaLocation="http://www.topografix.com/GPX/1/1 http://www.topografix.com/GPX/1/1/gpx.xsd">
  <metadata>
    <name>Bikepark Lac Blanc</name>
    <time>2026-05-21T04:25:00Z</time>
  </metadata>
  <trk>
    <name>Bikepark Lac Blanc</name>
    <trkseg>
      <trkpt lat="48.145900" lon="7.077200"><ele>1000.0</ele><time>2026-05-21T04:25:00Z</time></trkpt>
      <trkpt lat="48.148198" lon="7.077200"><ele>1011.1</ele><time>2026-05-21T04:26:01Z</time></trkpt>
      <trkpt lat="48.150496" lon="7.077200"><ele>1022.2</ele><time>2026-05-21T04:27:03Z</time></trkpt>
      <trkpt lat="48.152794" lon="7.077200"><ele>1033.3</ele><time>2026-05-21T04:28:04Z</time></trkpt>
      <trkpt lat="48.155092" lon="7.077200"><ele>1044.3</ele><time>2026-05-21T04:29:06Z</time></trkpt>
      <trkpt lat="48.157390" lon="7.077200"><ele>1055.4</ele><time>2026-05-21T04:30:07Z</time></trkpt>
      <trkpt lat="48.159688" lon="7.077200"><ele>1066.5</ele><time>2026-05-21T04:31:08Z</time></trkpt>
      <trkpt lat="48.161986" lon="7.077200"><ele>1077.6</ele><time>2026-05-21T04:32:10Z</time></trkpt>
      <trkpt lat="48.164284" lon="7.077200"><ele>1088.7</ele><time>2026-05-21T04:33:11Z</time></trkpt>
      <trkpt lat="48.166582" lon="7.077200"><ele>1099.8</ele><time>2026-05-21T04:34:13Z</time></trkpt>
      <trkpt lat="48.168880" lon="7.077200"><ele>1110.9</ele><time>2026-05-21T04:35:14Z</time></trkpt>
      <trkpt lat="48.171178" lon="7.077200"><ele>1121.9</ele><time>2026-05-21T04:36:15Z</time></trkpt>
      <trkpt lat="48.173476" lon="7.077200"><ele>1133.0</ele><time>2026-05-21T04:37:17Z</time></trkpt>
      <trkpt lat="48.175774" lon="7.077200"><ele>1144.1</ele><time>2026-05-21T04:38:18Z</time></trkpt>
      <trkpt lat="48.178072" lon="7.077200"><ele>1155.2</ele><time>2026-05-21T04:39:20Z</time></trkpt>
      <trkpt lat="48.180370" lon="7.077200"><ele>1166.3</ele><time>2026-05-21T04:40:21Z</time></trkpt>
      <trkpt lat="48.182668" lon="7.077200"><ele>1177.4</ele><time>2026-05-21T04:41:22Z</time></trkpt>
      <trkpt lat="48.184966" lon="7.077200"><ele>1188.4</ele><time>2026-05-21T04:42:24Z</time></trkpt>
      <trkpt lat="48.187264" lon="7.077200"><ele>1199.5</ele><time>2026-05-21T04:43:25Z</time></trkpt>
      <trkpt lat="48.189562" lon="7.077200"><ele>1210.6</ele><time>2026-05-21T04:44:27Z</time></trkpt>
      <trkpt lat="48.191860" lon="7.077200"><ele>1221.7</ele><time>2026-05-21T04:45:28Z</time></trkpt>
      <trkpt lat="48.194158" lon="7.077200"><ele>1232.8</ele><time>2026-05-21T04:46:29Z</time></trkpt>
      <trkpt lat="48.196456" lon="7.077200"><ele>1243.9</ele><time>2026-05-21T04:47:31Z</time></trkpt>
      <trkpt lat="48.198754" lon="7.077200"><ele>1255.0</ele><time>2026-05-21T04:48:32Z</time></trkpt>
      <trkpt lat="48.201052" lon="7.077200"><ele>1266.0</ele><time>2026-05-21T04:49:33Z</time></trkpt>
      <trkpt lat="48.203350" lon="7.077200"><ele>1277.1</ele><time>2026-05-21T04:50:35Z</time></trkpt>
      <trkpt lat="48.205648" lon="7.077200"><ele>1288.2</ele><time>2026-05-21T04:51:36Z</time></trkpt>
      <trkpt lat="48.207946" lon="7.077200"><ele>1299.3</ele><time>2026-05-21T04:52:38Z</time></trkpt>
      <trkpt lat="48.210244" lon="7.077200"><ele>1310.4</ele><time>2026-05-21T04:53:39Z</time></trkpt>
      <trkpt lat="48.212542" lon="7.077200"><ele>1321.5</ele><time>2026-05-21T04:54:40Z</time></trkpt>
      <trkpt lat="48.214840" lon="7.077200"><ele>1332.6</ele><time>2026-05-21T04:55:42Z</time></trkpt>
      <trkpt lat="48.217138" lon="7.077200"><ele>1343.6</ele><time>2026-05-21T04:56:43Z</time></trkpt>
      <trkpt lat="48.219436" lon="7.077200"><ele>1354.7</ele><time>2026-05-21T04:57:45Z</time></trkpt>
      <trkpt lat="48.221734" lon="7.077200"><ele>1365.8</ele><time>2026-05-21T04:58:46Z</time></trkpt>
      <trkpt lat="48.224032" lon="7.077200"><ele>1376.9</ele><time>2026-05-21T04:59:47Z</time></trkpt>
      <trkpt lat="48.226330" lon="7.077200"><ele>1388.0</ele><time>2026-05-21T05:00:49Z</time></trkpt>
      <trkpt lat="48.228628" lon="7.077200"><ele>1399.1</ele><time>2026-05-21T05:01:50Z</time></trkpt>
      <trkpt lat="48.230926" lon="7.077200"><ele>1410.2</ele><time>2026-05-21T05:02:52Z</time></trkpt>
      <trkpt lat="48.233224" lon="7.077200"><ele>1421.2</ele><time>2026-05-21T05:03:53Z</time></trkpt>
      <trkpt lat="48.235522" lon="7.077200"><ele>1432.3</ele><time>2026-05-21T05:04:54Z</time></trkpt>
      <trkpt lat="48.237820" lon="7.077200"><ele>1443.4</ele><time>2026-05-21T05:05:56Z</time></trkpt>
      <trkpt lat="48.240118" lon="7.077200"><ele>1454.5</ele><time>2026-05-21T05:06:57Z</time></trkpt>
      <trkpt lat="48.242416" lon="7.077200"><ele>1465.6</ele><time>2026-05-21T05:07:59Z</time></trkpt>
      <trkpt lat="48.244714" lon="7.077200"><ele>1476.7</ele><time>2026-05-21T05:09:00Z</time></trkpt>
      <trkpt lat="48.244714" lon="7.077200"><ele>1476.7</ele><time>2026-05-21T05:12:00Z</time></trkpt>
      <trkpt lat="48.244714" lon="7.077200"><ele>1476.7</ele><time>2026-05-21T05:15:00Z</time></trkpt>
      <trkpt lat="48.244714" lon="7.077200"><ele>1476.7</ele><time>2026-05-21T05:18:00Z</time></trkpt>
      <trkpt lat="48.244714" lon="7.077200"><ele>1476.7</ele><time>2026-05-21T05:21:00Z</time></trkpt>
      <trkpt lat="48.244714" lon="7.077200"><ele>1476.7</ele><time>2026-05-21T05:24:00Z</time></trkpt>
      <trkpt lat="48.244714" lon="7.077200"><ele>1476.7</ele><time>2026-05-21T05:27:00Z</time></trkpt>
      <trkpt lat="48.244714" lon="7.077200"><ele>1476.7</ele><time>2026-05-21T05:30:00Z</time></trkpt>
      <trkpt lat="48.244714" lon="7.077200"><ele>1476.7</ele><time>2026-05-21T05:33:00Z</time></trkpt>
      <trkpt lat="48.244714" lon="7.077200"><ele>1476.7</ele><time>2026-05-21T05:36:00Z</time></trkpt>
      <trkpt lat="48.244714" lon="7.077200"><ele>1476.7</ele><time>2026-05-21T05:39:00Z</time></trkpt>
      <trkpt lat="48.244714" lon="7.077200"><ele>1476.7</ele><time>2026-05-21T05:42:00Z</time></trkpt>
      <trkpt lat="48.244714" lon="7.077200"><ele>1476.7</ele><time>2026-05-21T05:45:00Z</time></trkpt>
      <trkpt lat="48.244714" lon="7.077200"><ele>1476.7</ele><time>2026-05-21T05:48:00Z</time></trkpt>
      <trkpt lat="48.244714" lon="7.077200"><ele>1476.7</ele><time>2026-05-21T05:51:00Z</time></trkpt>
      <trkpt lat="48.244714" lon="7.077200"><ele>1476.7</ele><time>2026-05-21T05:54:00Z</time></trkpt>
      <trkpt lat="48.244714" lon="7.077200"><ele>1476.7</ele><time>2026-05-21T05:57:00Z</time></trkpt>
      <trkpt lat="48.244714" lon="7.077200"><ele>1476.7</ele><time>2026-05-21T06:00:00Z</time></trkpt>
      <trkpt lat="48.244714" lon="7.077200"><ele>1476.7</ele><time>2026-05-21T06:03:00Z</time></trkpt>
      <trkpt lat="48.244714" lon="7.077200"><ele>1476.7</ele><time>2026-05-21T06:06:00Z</time></trkpt>
      <trkpt lat="48.244714" lon="7.077200"><ele>1476.7</ele><time>2026-05-21T06:09:00Z</time></trkpt>
      <trkpt lat="48.244714" lon="7.077200"><ele>1476.7</ele><time>2026-05-21T06:12:00Z</time></trkpt>
      <trkpt lat="48.244714" lon="7.077200"><ele>1476.7</ele><time>2026-05-21T06:15:00Z</time></trkpt>
      <trkpt lat="48.244714" lon="7.077200"><ele>1476.7</ele><time>2026-05-21T06:18:00Z</time></trkpt>
      <trkpt lat="48.244714" lon="7.077200"><ele>1476.7</ele><time>2026-05-21T06:21:00Z</time></trkpt>
      <trkpt lat="48.244714" lon="7.077200"><ele>1476.7</ele><time>2026-05-21T06:24:00Z</time></trkpt>
      <trkpt lat="48.244714" lon="7.077200"><ele>1476.7</ele><time>2026-05-21T06:27:00Z</time></trkpt>
      <trkpt lat="48.244714" lon="7.077200"><ele>1476.7</ele><time>2026-05-21T06:30:00Z</time></trkpt>
      <trkpt lat="48.244714" lon="7.077200"><ele>1476.7</ele><time>2026-05-21T06:33:00Z</time></trkpt>
      <trkpt lat="48.244714" lon="7.077200"><ele>1476.7</ele><time>2026-05-21T06:36:00Z</time></trkpt>
      <trkpt lat="48.244714" lon="7.077200"><ele>1476.7</ele><time>2026-05-21T06:39:00Z</time></trkpt>
      <trkpt lat="48.244714" lon="7.077200"><ele>1476.7</ele><time>2026-05-21T06:42:00Z</time></trkpt>
      <trkpt lat="48.244714" lon="7.077200"><ele>1476.7</ele><time>2026-05-21T06:45:00Z</time></trkpt>
      <trkpt lat="48.244714" lon="7.077200"><ele>1476.7</ele><time>2026-05-21T06:48:00Z</time></trkpt>
      <trkpt lat="48.244714" lon="7.077200"><ele>1476.7</ele><time>2026-05-21T06:51:00Z</time></trkpt>
      <trkpt lat="48.244714" lon="7.077200"><ele>1476.7</ele><time>2026-05-21T06:54:00Z</time></trkpt>
      <trkpt lat="48.244714" lon="7.077200"><ele>1476.7</ele><time>2026-05-21T06:57:00Z</time></trkpt>
      <trkpt lat="48.244714" lon="7.077200"><ele>1476.7</ele><time>2026-05-21T07:00:00Z</time></trkpt>
      <trkpt lat="48.244714" lon="7.077200"><ele>1476.7</ele><time>2026-05-21T07:03:00Z</time></trkpt>
      <trkpt lat="48.244714" lon="7.077200"><ele>1476.7</ele><time>2026-05-21T07:06:00Z</time></trkpt>
      <trkpt lat="48.244714" lon="7.077200"><ele>1476.7</ele><time>2026-05-21T07:09:00Z</time></trkpt>
      <trkpt lat="48.244714" lon="7.077200"><ele>1476.7</ele><time>2026-05-21T07:12:00Z</time></trkpt>
      <trkpt lat="48.244714" lon="7.077200"><ele>1476.7</ele><time>2026-05-21T07:15:00Z</time></trkpt>
      <trkpt lat="48.244714" lon="7.077200"><ele>1476.7</ele><time>2026-05-21T07:18:00Z</time></trkpt>
      <trkpt lat="48.244714" lon="7.077200"><ele>1476.7</ele><time>2026-05-21T07:21:00Z</time></trkpt>
      <trkpt lat="48.244714" lon="7.077200"><ele>1476.7</ele><time>2026-05-21T07:24:00Z</time></trkpt>
      <trkpt lat="48.244714" lon="7.077200"><ele>1476.7</ele><time>2026-05-21T07:27:00Z</time></trkpt>
      <trkpt lat="48.244714" lon="7.077200"><ele>1476.7</ele><time>2026-05-21T07:30:00Z</time></trkpt>
      <trkpt lat="48.244714" lon="7.077200"><ele>1476.7</ele><time>2026-05-21T07:33:00Z</time></trkpt>
      <trkpt lat="48.244714" lon="7.077200"><ele>1476.7</ele><time>2026-05-21T07:36:00Z</time></trkpt>
      <trkpt lat="48.244714" lon="7.077200"><ele>1476.7</ele><time>2026-05-21T07:39:00Z</time></trkpt>
      <trkpt lat="48.244714" lon="7.077200"><ele>1476.7</ele><time>2026-05-21T07:42:00Z</time></trkpt>
      <trkpt lat="48.244714" lon="7.077200"><ele>1476.7</ele><time>2026-05-21T07:45:00Z</time></trkpt>
      <trkpt lat="48.244714" lon="7.077200"><ele>1476.7</ele><time>2026-05-21T07:48:00Z</time></trkpt>
      <trkpt lat="48.244714" lon="7.077200"><ele>1476.7</ele><time>2026-05-21T07:51:00Z</time></trkpt>
      <trkpt lat="48.244714" lon="7.077200"><ele>1476.7</ele><time>2026-05-21T07:54:00Z</time></trkpt>
      <trkpt lat="48.244714" lon="7.077200"><ele>1476.7</ele><time>2026-05-21T07:57:00Z</time></trkpt>
      <trkpt lat="48.244714" lon="7.077200"><ele>1476.7</ele><time>2026-05-21T08:00:00Z</time></trkpt>
      <trkpt lat="48.244714" lon="7.077200"><ele>1476.7</ele><time>2026-05-21T08:03:00Z</time></trkpt>
      <trkpt lat="48.244714" lon="7.077200"><ele>1476.7</ele><time>2026-05-21T08:06:00Z</time></trkpt>
      <trkpt lat="48.244714" lon="7.077200"><ele>1476.7</ele><time>2026-05-21T08:09:00Z</time></trkpt>
      <trkpt lat="48.247024" lon="7.077200"><ele>1487.8</ele><time>2026-05-21T08:10:02Z</time></trkpt>
      <trkpt lat="48.249334" lon="7.077200"><ele>1499.0</ele><time>2026-05-21T08:11:03Z</time></trkpt>
      <trkpt lat="48.251644" lon="7.077200"><ele>1510.1</ele><time>2026-05-21T08:12:05Z</time></trkpt>
      <trkpt lat="48.253954" lon="7.077200"><ele>1518.1</ele><time>2026-05-21T08:13:07Z</time></trkpt>
      <trkpt lat="48.256264" lon="7.077200"><ele>1501.4</ele><time>2026-05-21T08:14:09Z</time></trkpt>
      <trkpt lat="48.258574" lon="7.077200"><ele>1484.7</ele><time>2026-05-21T08:15:10Z</time></trkpt>
      <trkpt lat="48.260884" lon="7.077200"><ele>1468.0</ele><time>2026-05-21T08:16:12Z</time></trkpt>
      <trkpt lat="48.263194" lon="7.077200"><ele>1451.3</ele><time>2026-05-21T08:17:14Z</time></trkpt>
      <trkpt lat="48.265504" lon="7.077200"><ele>1434.6</ele><time>2026-05-21T08:18:15Z</time></trkpt>
      <trkpt lat="48.267814" lon="7.077200"><ele>1417.9</ele><time>2026-05-21T08:19:17Z</time></trkpt>
      <trkpt lat="48.270124" lon="7.077200"><ele>1401.1</ele><time>2026-05-21T08:20:19Z</time></trkpt>
      <trkpt lat="48.272434" lon="7.077200"><ele>1384.4</ele><time>2026-05-21T08:21:21Z</time></trkpt>
      <trkpt lat="48.274743" lon="7.077200"><ele>1367.7</ele><time>2026-05-21T08:22:22Z</time></trkpt>
      <trkpt lat="48.277053" lon="7.077200"><ele>1351.0</ele><time>2026-05-21T08:23:24Z</time></trkpt>
      <trkpt lat="48.279363" lon="7.077200"><ele>1334.3</ele><time>2026-05-21T08:24:26Z</time></trkpt>
      <trkpt lat="48.281673" lon="7.077200"><ele>1317.6</ele><time>2026-05-21T08:25:27Z</time></trkpt>
      <trkpt lat="48.283983" lon="7.077200"><ele>1300.9</ele><time>2026-05-21T08:26:29Z</time></trkpt>
      <trkpt lat="48.286293" lon="7.077200"><ele>1284.1</ele><time>2026-05-21T08:27:31Z</time></trkpt>
      <trkpt lat="48.288603" lon="7.077200"><ele>1267.4</ele><time>2026-05-21T08:28:33Z</time></trkpt>
      <trkpt lat="48.290913" lon="7.077200"><ele>1250.7</ele><time>2026-05-21T08:29:34Z</time></trkpt>
      <trkpt lat="48.293223" lon="7.077200"><ele>1234.0</ele><time>2026-05-21T08:30:36Z</time></trkpt>
      <trkpt lat="48.295533" lon="7.077200"><ele>1217.3</ele><time>2026-05-21T08:31:38Z</time></trkpt>
      <trkpt lat="48.297843" lon="7.077200"><ele>1200.6</ele><time>2026-05-21T08:32:39Z</time></trkpt>
      <trkpt lat="48.300153" lon="7.077200"><ele>1183.9</ele><time>2026-05-21T08:33:41Z</time></trkpt>
      <trkpt lat="48.302463" lon="7.077200"><ele>1167.1</ele><time>2026-05-21T08:34:43Z</time></trkpt>
      <trkpt lat="48.304773" lon="7.077200"><ele>1150.4</ele><time>2026-05-21T08:35:45Z</time></trkpt>
      <trkpt lat="48.307083" lon="7.077200"><ele>1133.7</ele><time>2026-05-21T08:36:46Z</time></trkpt>
      <trkpt lat="48.309393" lon="7.077200"><ele>1117.0</ele><time>2026-05-21T08:37:48Z</time></trkpt>
      <trkpt lat="48.311703" lon="7.077200"><ele>1100.3</ele><time>2026-05-21T08:38:50Z</time></trkpt>
      <trkpt lat="48.314013" lon="7.077200"><ele>1083.6</ele><time>2026-05-21T08:39:51Z</time></trkpt>
      <trkpt lat="48.316322" lon="7.077200"><ele>1066.9</ele><time>2026-05-21T08:40:53Z</time></trkpt>
      <trkpt lat="48.318632" lon="7.077200"><ele>1050.1</ele><time>2026-05-21T08:41:55Z</time></trkpt>
      <trkpt lat="48.320942" lon="7.077200"><ele>1033.4</ele><time>2026-05-21T08:42:57Z</time></trkpt>
      <trkpt lat="48.323252" lon="7.077200"><ele>1016.7</ele><time>2026-05-21T08:43:58Z</time></trkpt>
      <trkpt lat="48.325562" lon="7.077200"><ele>1000.0</ele><time>2026-05-21T08:45:00Z</time></trkpt>
    </trkseg>
  </trk>
</gpx>
