<?xml version="1.0" encoding="UTF-8"?>
<gpx version="1.1" creator="bike_setup_tracker sample generator"
     xmlns="http://www.topografix.com/GPX/1/1"
     xmlns:xsi="http://www.w3.org/2001/XMLSchema-instance"
     xsi:schemaLocation="http://www.topografix.com/GPX/1/1 http://www.topografix.com/GPX/1/1/gpx.xsd">
  <metadata>
    <name>Finale - eMTB explore day</name>
    <time>2026-05-25T02:50:00Z</time>
  </metadata>
  <trk>
    <name>Finale - eMTB explore day</name>
    <trkseg>
      <trkpt lat="44.205000" lon="8.345000"><ele>600.0</ele><time>2026-05-25T02:50:00Z</time></trkpt>
      <trkpt lat="44.207269" lon="8.345000"><ele>619.6</ele><time>2026-05-25T02:51:01Z</time></trkpt>
      <trkpt lat="44.209537" lon="8.345000"><ele>639.3</ele><time>2026-05-25T02:52:01Z</time></trkpt>
      <trkpt lat="44.211806" lon="8.345000"><ele>658.9</ele><time>2026-05-25T02:53:02Z</time></trkpt>
      <trkpt lat="44.214075" lon="8.345000"><ele>678.6</ele><time>2026-05-25T02:54:02Z</time></trkpt>
      <trkpt lat="44.216343" lon="8.345000"><ele>698.2</ele><time>2026-05-25T02:55:03Z</time></trkpt>
      <trkpt lat="44.218612" lon="8.345000"><ele>717.9</ele><time>2026-05-25T02:56:04Z</time></trkpt>
      <trkpt lat="44.220881" lon="8.345000"><ele>737.5</ele><time>2026-05-25T02:57:04Z</time></trkpt>
      <trkpt lat="44.223150" lon="8.345000"><ele>757.1</ele><time>2026-05-25T02:58:05Z</time></trkpt>
      <trkpt lat="44.225418" lon="8.345000"><ele>776.8</ele><time>2026-05-25T02:59:06Z</time></trkpt>
      <trkpt lat="44.227687" lon="8.345000"><ele>796.4</ele><time>2026-05-25T03:00:06Z</time></trkpt>
      <trkpt lat="44.229956" lon="8.345000"><ele>816.1</ele><time>2026-05-25T03:01:07Z</time></trkpt>
      <trkpt lat="44.232224" lon="8.345000"><ele>835.7</ele><time>2026-05-25T03:02:07Z</time></trkpt>
      <trkpt lat="44.234493" lon="8.345000"><ele>855.4</ele><time>2026-05-25T03:03:08Z</time></trkpt>
      <trkpt lat="44.236762" lon="8.345000"><ele>875.0</ele><time>2026-05-25T03:04:09Z</time></trkpt>
      <trkpt lat="44.239030" lon="8.345000"><ele>894.6</ele><time>2026-05-25T03:05:09Z</time></trkpt>
      <trkpt lat="44.241299" lon="8.345000"><ele>914.3</ele><time>2026-05-25T03:06:10Z</time></trkpt>
      <trkpt lat="44.243568" lon="8.345000"><ele>933.9</ele><time>2026-05-25T03:07:10Z</time></trkpt>
      <trkpt lat="44.245836" lon="8.345000"><ele>953.6</ele><time>2026-05-25T03:08:11Z</time></trkpt>
      <trkpt lat="44.248105" lon="8.345000"><ele>973.2</ele><time>2026-05-25T03:09:12Z</time></trkpt>
      <trkpt lat="44.250374" lon="8.345000"><ele>992.9</ele><time>2026-05-25T03:10:12Z</time></trkpt>
      <trkpt lat="44.252643" lon="8.345000"><ele>1012.5</ele><time>2026-05-25T03:11:13Z</time></trkpt>
      <trkpt lat="44.254911" lon="8.345000"><ele>1032.1</ele><time>2026-05-25T03:12:13Z</time></trkpt>
      <trkpt lat="44.257180" lon="8.345000"><ele>1051.8</ele><time>2026-05-25T03:13:14Z</time></trkpt>
      <trkpt lat="44.259449" lon="8.345000"><ele>1071.4</ele><time>2026-05-25T03:14:15Z</time></trkpt>
      <trkpt lat="44.261717" lon="8.345000"><ele>1091.1</ele><time>2026-05-25T03:15:15Z</time></trkpt>
      <trkpt lat="44.263986" lon="8.345000"><ele>1110.7</ele><time>2026-05-25T03:16:16Z</time></trkpt>
      <trkpt lat="44.266255" lon="8.345000"><ele>1130.4</ele><time>2026-05-25T03:17:17Z</time></trkpt>
      <trkpt lat="44.268523" lon="8.345000"><ele>1150.0</ele><time>2026-05-25T03:18:17Z</time></trkpt>
      <trkpt lat="44.270792" lon="8.345000"><ele>1169.6</ele><time>2026-05-25T03:19:18Z</time></trkpt>
      <trkpt lat="44.273061" lon="8.345000"><ele>1189.3</ele><time>2026-05-25T03:20:18Z</time></trkpt>
      <trkpt lat="44.275330" lon="8.345000"><ele>1208.9</ele><time>2026-05-25T03:21:19Z</time></trkpt>
      <trkpt lat="44.277598" lon="8.345000"><ele>1228.6</ele><time>2026-05-25T03:22:20Z</time></trkpt>
      <trkpt lat="44.279867" lon="8.345000"><ele>1248.2</ele><time>2026-05-25T03:23:20Z</time></trkpt>
      <trkpt lat="44.282136" lon="8.345000"><ele>1267.9</ele><time>2026-05-25T03:24:21Z</time></trkpt>
      <trkpt lat="44.284404" lon="8.345000"><ele>1287.5</ele><time>2026-05-25T03:25:21Z</time></trkpt>
      <trkpt lat="44.286673" lon="8.345000"><ele>1307.1</ele><time>2026-05-25T03:26:22Z</time></trkpt>
      <trkpt lat="44.288942" lon="8.345000"><ele>1326.8</ele><time>2026-05-25T03:27:23Z</time></trkpt>
      <trkpt lat="44.291210" lon="8.345000"><ele>1346.4</ele><time>2026-05-25T03:28:23Z</time></trkpt>
      <trkpt lat="44.293479" lon="8.345000"><ele>1366.1</ele><time>2026-05-25T03:29:24Z</time></trkpt>
      <trkpt lat="44.295748" lon="8.345000"><ele>1385.7</ele><time>2026-05-25T03:30:24Z</time></trkpt>
      <trkpt lat="44.298016" lon="8.345000"><ele>1405.4</ele><time>2026-05-25T03:31:25Z</time></trkpt>
      <trkpt lat="44.300285" lon="8.345000"><ele>1425.0</ele><time>2026-05-25T03:32:26Z</time></trkpt>
      <trkpt lat="44.302554" lon="8.345000"><ele>1444.6</ele><time>2026-05-25T03:33:26Z</time></trkpt>
      <trkpt lat="44.304823" lon="8.345000"><ele>1464.3</ele><time>2026-05-25T03:34:27Z</time></trkpt>
      <trkpt lat="44.307091" lon="8.345000"><ele>1483.9</ele><time>2026-05-25T03:35:28Z</time></trkpt>
      <trkpt lat="44.309360" lon="8.345000"><ele>1503.6</ele><time>2026-05-25T03:36:28Z</time></trkpt>
      <trkpt lat="44.311629" lon="8.345000"><ele>1523.2</ele><time>2026-05-25T03:37:29Z</time></trkpt>
      <trkpt lat="44.313897" lon="8.345000"><ele>1542.9</ele><time>2026-05-25T03:38:29Z</time></trkpt>
      <trkpt lat="44.316166" lon="8.345000"><ele>1562.5</ele><time>2026-05-25T03:39:30Z</time></trkpt>
      <trkpt lat="44.318435" lon="8.345000"><ele>1582.1</ele><time>2026-05-25T03:40:31Z</time></trkpt>
      <trkpt lat="44.320703" lon="8.345000"><ele>1601.8</ele><time>2026-05-25T03:41:31Z</time></trkpt>
      <trkpt lat="44.322972" lon="8.345000"><ele>1621.4</ele><time>2026-05-25T03:42:32Z</time></trkpt>
      <trkpt lat="44.325241" lon="8.345000"><ele>1641.1</ele><time>2026-05-25T03:43:32Z</time></trkpt>
      <trkpt lat="44.327509" lon="8.345000"><ele>1660.7</ele><time>2026-05-25T03:44:33Z</time></trkpt>
      <trkpt lat="44.329778" lon="8.345000"><ele>1680.4</ele><time>2026-05-25T03:45:34Z</time></trkpt>
      <trkpt lat="44.332047" lon="8.345000"><ele>1700.0</ele><time>2026-05-25T03:46:34Z</time></trkpt>
      <trkpt lat="44.334316" lon="8.345000"><ele>1719.6</ele><time>2026-05-25T03:47:35Z</time></trkpt>
      <trkpt lat="44.336584" lon="8.345000"><ele>1739.3</ele><time>2026-05-25T03:48:36Z</time></trkpt>
      <trkpt lat="44.338853" lon="8.345000"><ele>1758.9</ele><time>2026-05-25T03:49:36Z</time></trkpt>
      <trkpt lat="44.341122" lon="8.345000"><ele>1778.6</ele><time>2026-05-25T03:50:37Z</time></trkpt>
      <trkpt lat="44.343390" lon="8.345000"><ele>1798.2</ele><time>2026-05-25T03:51:37Z</time></trkpt>
      <trkpt lat="44.345659" lon="8.345000"><ele>1817.9</ele><time>2026-05-25T03:52:38Z</time></trkpt>
      <trkpt lat="44.347928" lon="8.345000"><ele>1837.5</ele><time>2026-05-25T03:53:39Z</time></trkpt>
      <trkpt lat="44.350196" lon="8.345000"><ele>1857.1</ele><time>2026-05-25T03:54:39Z</time></trkpt>
      <trkpt lat="44.352465" lon="8.345000"><ele>1876.8</ele><time>2026-05-25T03:55:40Z</time></trkpt>
      <trkpt lat="44.354734" lon="8.345000"><ele>1896.4</ele><time>2026-05-25T03:56:40Z</time></trkpt>
      <trkpt lat="44.357003" lon="8.345000"><ele>1916.1</ele><time>2026-05-25T03:57:41Z</time></trkpt>
      <trkpt lat="44.359271" lon="8.345000"><ele>1935.7</ele><time>2026-05-25T03:58:42Z</time></trkpt>
      <trkpt lat="44.361540" lon="8.345000"><ele>1955.4</ele><time>2026-05-25T03:59:42Z</time></trkpt>
      <trkpt lat="44.363809" lon="8.345000"><ele>1975.0</ele><time>2026-05-25T04:00:43Z</time></trkpt>
      <trkpt lat="44.366077" lon="8.345000"><ele>1994.6</ele><time>2026-05-25T04:01:43Z</time></trkpt>
      <trkpt lat="44.368346" lon="8.345000"><ele>2014.3</ele><time>2026-05-25T04:02:44Z</time></trkpt>
      <trkpt lat="44.370615" lon="8.345000"><ele>2033.9</ele><time>2026-05-25T04:03:45Z</time></trkpt>
      <trkpt lat="44.372883" lon="8.345000"><ele>2053.6</ele><time>2026-05-25T04:04:45Z</time></trkpt>
      <trkpt lat="44.375152" lon="8.345000"><ele>2073.2</ele><time>2026-05-25T04:05:46Z</time></trkpt>
      <trkpt lat="44.377421" lon="8.345000"><ele>2092.9</ele><time>2026-05-25T04:06:47Z</time></trkpt>
      <trkpt lat="44.379689" lon="8.345000"><ele>2112.5</ele><time>2026-05-25T04:07:47Z</time></trkpt>
      <trkpt lat="44.381958" lon="8.345000"><ele>2132.1</ele><time>2026-05-25T04:08:48Z</time></trkpt>
      <trkpt lat="44.384227" lon="8.345000"><ele>2151.8</ele><time>2026-05-25T04:09:48Z</time></trkpt>
      <trkpt lat="44.386496" lon="8.345000"><ele>2171.4</ele><time>2026-05-25T04:10:49Z</time></trkpt>
      <trkpt lat="44.388764" lon="8.345000"><ele>2191.1</ele><time>2026-05-25T04:11:50Z</time></trkpt>
      <trkpt lat="44.391033" lon="8.345000"><ele>2210.7</ele><time>2026-05-25T04:12:50Z</time></trkpt>
      <trkpt lat="44.393302" lon="8.345000"><ele>2230.4</ele><time>2026-05-25T04:13:51Z</time></trkpt>
      <trkpt lat="44.395570" lon="8.345000"><ele>2250.0</ele><time>2026-05-25T04:14:51Z</time></trkpt>
      <trkpt lat="44.397839" lon="8.345000"><ele>2269.6</ele><time>2026-05-25T04:15:52Z</time></trkpt>
      <trkpt lat="44.400108" lon="8.345000"><ele>2289.3</ele><time>2026-05-25T04:16:53Z</time></trkpt>
      <trkpt lat="44.402376" lon="8.345000"><ele>2308.9</ele><time>2026-05-25T04:17:53Z</time></trkpt>
      <trkpt lat="44.404645" lon="8.345000"><ele>2328.6</ele><time>2026-05-25T04:18:54Z</time></trkpt>
      <trkpt lat="44.406914" lon="8.345000"><ele>2348.2</ele><time>2026-05-25T04:19:54Z</time></trkpt>
      <trkpt lat="44.409182" lon="8.345000"><ele>2367.9</ele><time>2026-05-25T04:20:55Z</time></trkpt>
      <trkpt lat="44.411451" lon="8.345000"><ele>2387.5</ele><time>2026-05-25T04:21:56Z</time></trkpt>
      <trkpt lat="44.413720" lon="8.345000"><ele>2407.1</ele><time>2026-05-25T04:22:56Z</time></trkpt>
      <trkpt lat="44.415989" lon="8.345000"><ele>2426.8</ele><time>2026-05-25T04:23:57Z</time></trkpt>
      <trkpt lat="44.418257" lon="8.345000"><ele>2446.4</ele><time>2026-05-25T04:24:58Z</time></trkpt>
      <trkpt lat="44.420526" lon="8.345000"><ele>2466.1</ele><time>2026-05-25T04:25:58Z</time></trkpt>
      <trkpt lat="44.422795" lon="8.345000"><ele>2485.7</ele><time>2026-05-25T04:26:59Z</time></trkpt>
      <trkpt lat="44.425063" lon="8.345000"><ele>2505.4</ele><time>2026-05-25T04:27:59Z</time></trkpt>
      <trkpt lat="44.427332" lon="8.345000"><ele>2525.0</ele><time>2026-05-25T04:29:00Z</time></trkpt>
      <trkpt lat="44.427332" lon="8.345000"><ele>2525.0</ele><time>2026-05-25T04:31:00Z</time></trkpt>
      <trkpt lat="44.427332" lon="8.345000"><ele>2525.0</ele><time>2026-05-25T04:33:00Z</time></trkpt>
      <trkpt lat="44.427332" lon="8.345000"><ele>2525.0</ele><time>2026-05-25T04:35:00Z</time></trkpt>
      <trkpt lat="44.427332" lon="8.345000"><ele>2525.0</ele><time>2026-05-25T04:37:00Z</time></trkpt>
      <trkpt lat="44.427332" lon="8.345000"><ele>2525.0</ele><time>2026-05-25T04:39:00Z</time></trkpt>
      <trkpt lat="44.427332" lon="8.345000"><ele>2525.0</ele><time>2026-05-25T04:41:00Z</time></trkpt>
      <trkpt lat="44.427332" lon="8.345000"><ele>2525.0</ele><time>2026-05-25T04:43:00Z</time></trkpt>
      <trkpt lat="44.427332" lon="8.345000"><ele>2525.0</ele><time>2026-05-25T04:45:00Z</time></trkpt>
      <trkpt lat="44.427332" lon="8.345000"><ele>2525.0</ele><time>2026-05-25T04:47:00Z</time></trkpt>
      <trkpt lat="44.427332" lon="8.345000"><ele>2525.0</ele><time>2026-05-25T04:49:00Z</time></trkpt>
      <trkpt lat="44.427332" lon="8.345000"><ele>2525.0</ele><time>2026-05-25T04:51:00Z</time></trkpt>
      <trkpt lat="44.427332" lon="8.345000"><ele>2525.0</ele><time>2026-05-25T04:53:00Z</time></trkpt>
      <trkpt lat="44.427332" lon="8.345000"><ele>2525.0</ele><time>2026-05-25T04:55:00Z</time></trkpt>
      <trkpt lat="44.427332" lon="8.345000"><ele>2525.0</ele><time>2026-05-25T04:57:00Z</time></trkpt>
      <trkpt lat="44.427332" lon="8.345000"><ele>2525.0</ele><time>2026-05-25T04:59:00Z</time></trkpt>
      <trkpt lat="44.427332" lon="8.345000"><ele>2525.0</ele><time>2026-05-25T05:01:00Z</time></trkpt>
      <trkpt lat="44.427332" lon="8.345000"><ele>2525.0</ele><time>2026-05-25T05:03:00Z</time></trkpt>
      <trkpt lat="44.427332" lon="8.345000"><ele>2525.0</ele><time>2026-05-25T05:05:00Z</time></trkpt>
      <trkpt lat="44.427332" lon="8.345000"><ele>2525.0</ele><time>2026-05-25T05:07:00Z</time></trkpt>
      <trkpt lat="44.427332" lon="8.345000"><ele>2525.0</ele><time>2026-05-25T05:09:00Z</time></trkpt>
      <trkpt lat="44.427332" lon="8.345000"><ele>2525.0</ele><time>2026-05-25T05:11:00Z</time></trkpt>
      <trkpt lat="44.427332" lon="8.345000"><ele>2525.0</ele><time>2026-05-25T05:13:00Z</time></trkpt>
      <trkpt lat="44.427332" lon="8.345000"><ele>2525.0</ele><time>2026-05-25T05:15:00Z</time></trkpt>
      <trkpt lat="44.427332" lon="8.345000"><ele>2525.0</ele><time>2026-05-25T05:17:00Z</time></trkpt>
      <trkpt lat="44.427332" lon="8.345000"><ele>2525.0</ele><time>2026-05-25T05:19:00Z</time></trkpt>
      <trkpt lat="44.427332" lon="8.345000"><ele>2525.0</ele><time>2026-05-25T05:21:00Z</time></trkpt>
      <trkpt lat="44.427332" lon="8.345000"><ele>2525.0</ele><time>2026-05-25T05:23:00Z</time></trkpt>
      <trkpt lat="44.427332" lon="8.345000"><ele>2525.0</ele><time>2026-05-25T05:25:00Z</time></trkpt>
      <trkpt lat="44.427332" lon="8.345000"><ele>2525.0</ele><time>2026-05-25T05:27:00Z</time></trkpt>
      <trkpt lat="44.427332" lon="8.345000"><ele>2525.0</ele><time>2026-05-25T05:29:00Z</time></trkpt>
      <trkpt lat="44.427332" lon="8.345000"><ele>2525.0</ele><time>2026-05-25T05:31:00Z</time></trkpt>
      <trkpt lat="44.427332" lon="8.345000"><ele>2525.0</ele><time>2026-05-25T05:33:00Z</time></trkpt>
      <trkpt lat="44.427332" lon="8.345000"><ele>2525.0</ele><time>2026-05-25T05:35:00Z</time></trkpt>
      <trkpt lat="44.427332" lon="8.345000"><ele>2525.0</ele><time>2026-05-25T05:37:00Z</time></trkpt>
      <trkpt lat="44.427332" lon="8.345000"><ele>2525.0</ele><time>2026-05-25T05:39:00Z</time></trkpt>
      <trkpt lat="44.427332" lon="8.345000"><ele>2525.0</ele><time>2026-05-25T05:41:00Z</time></trkpt>
      <trkpt lat="44.427332" lon="8.345000"><ele>2525.0</ele><time>2026-05-25T05:43:00Z</time></trkpt>
      <trkpt lat="44.427332" lon="8.345000"><ele>2525.0</ele><time>2026-05-25T05:45:00Z</time></trkpt>
      <trkpt lat="44.427332" lon="8.345000"><ele>2525.0</ele><time>2026-05-25T05:47:00Z</time></trkpt>
      <trkpt lat="44.427332" lon="8.345000"><ele>2525.0</ele><time>2026-05-25T05:49:00Z</time></trkpt>
      <trkpt lat="44.427332" lon="8.345000"><ele>2525.0</ele><time>2026-05-25T05:51:00Z</time></trkpt>
      <trkpt lat="44.427332" lon="8.345000"><ele>2525.0</ele><time>2026-05-25T05:53:00Z</time></trkpt>
      <trkpt lat="44.427332" lon="8.345000"><ele>2525.0</ele><time>2026-05-25T05:55:00Z</time></trkpt>
      <trkpt lat="44.427332" lon="8.345000"><ele>2525.0</ele><time>2026-05-25T05:57:00Z</time></trkpt>
      <trkpt lat="44.427332" lon="8.345000"><ele>2525.0</ele><time>2026-05-25T05:59:00Z</time></trkpt>
      <trkpt lat="44.427332" lon="8.345000"><ele>2525.0</ele><time>2026-05-25T06:01:00Z</time></trkpt>
      <trkpt lat="44.427332" lon="8.345000"><ele>2525.0</ele><time>2026-05-25T06:03:00Z</time></trkpt>
      <trkpt lat="44.427332" lon="8.345000"><ele>2525.0</ele><time>2026-05-25T06:05:00Z</time></trkpt>
      <trkpt lat="44.427332" lon="8.345000"><ele>2525.0</ele><time>2026-05-25T06:07:00Z</time></trkpt>
      <trkpt lat="44.427332" lon="8.345000"><ele>2525.0</ele><time>2026-05-25T06:09:00Z</time></trkpt>
      <trkpt lat="44.429606" lon="8.345000"><ele>2544.7</ele><time>2026-05-25T06:10:01Z</time></trkpt>
      <trkpt lat="44.431880" lon="8.345000"><ele>2564.4</ele><time>2026-05-25T06:11:02Z</time></trkpt>
      <trkpt lat="44.434154" lon="8.345000"><ele>2584.1</ele><time>2026-05-25T06:12:02Z</time></trkpt>
      <trkpt lat="44.436427" lon="8.345000"><ele>2603.8</ele><time>2026-05-25T06:13:03Z</time></trkpt>
      <trkpt lat="44.438701" lon="8.345000"><ele>2623.4</ele><time>2026-05-25T06:14:04Z</time></trkpt>
      <trkpt lat="44.440975" lon="8.345000"><ele>2643.1</ele><time>2026-05-25T06:15:04Z</time></trkpt>
      <trkpt lat="44.443249" lon="8.345000"><ele>2662.8</ele><time>2026-05-25T06:16:05Z</time></trkpt>
      <trkpt lat="44.445523" lon="8.345000"><ele>2682.5</ele><time>2026-05-25T06:17:06Z</time></trkpt>
      <trkpt lat="44.447797" lon="8.345000"><ele>2696.7</ele><time>2026-05-25T06:18:07Z</time></trkpt>
      <trkpt lat="44.450071" lon="8.345000"><ele>2667.2</ele><time>2026-05-25T06:19:08Z</time></trkpt>
      <trkpt lat="44.452344" lon="8.345000"><ele>2637.7</ele><time>2026-05-25T06:20:08Z</time></trkpt>
      <trkpt lat="44.454618" lon="8.345000"><ele>2608.1</ele><time>2026-05-25T06:21:09Z</time></trkpt>
      <trkpt lat="44.456892" lon="8.345000"><ele>2578.6</ele><time>2026-05-25T06:22:10Z</time></trkpt>
      <trkpt lat="44.459166" lon="8.345000"><ele>2549.1</ele><time>2026-05-25T06:23:10Z</time></trkpt>
      <trkpt lat="44.461440" lon="8.345000"><ele>2519.5</ele><time>2026-05-25T06:24:11Z</time></trkpt>
      <trkpt lat="44.463714" lon="8.345000"><ele>2490.0</ele><time>2026-05-25T06:25:12Z</time></trkpt>
      <trkpt lat="44.465987" lon="8.345000"><ele>2460.5</ele><time>2026-05-25T06:26:13Z</time></trkpt>
      <trkpt lat="44.468261" lon="8.345000"><ele>2430.9</ele><time>2026-05-25T06:27:14Z</time></trkpt>
      <trkpt lat="44.470535" lon="8.345000"><ele>2401.4</ele><time>2026-05-25T06:28:14Z</time></trkpt>
      <trkpt lat="44.472809" lon="8.345000"><ele>2371.9</ele><time>2026-05-25T06:29:15Z</time></trkpt>
      <trkpt lat="44.475083" lon="8.345000"><ele>2342.3</ele><time>2026-05-25T06:30:16Z</time></trkpt>
      <trkpt lat="44.477357" lon="8.345000"><ele>2312.8</ele><time>2026-05-25T06:31:16Z</time></trkpt>
      <trkpt lat="44.479631" lon="8.345000"><ele>2283.3</ele><time>2026-05-25T06:32:17Z</time></trkpt>
      <trkpt lat="44.481904" lon="8.345000"><ele>2253.8</ele><time>2026-05-25T06:33:18Z</time></trkpt>
      <trkpt lat="44.484178" lon="8.345000"><ele>2224.2</ele><time>2026-05-25T06:34:19Z</time></trkpt>
      <trkpt lat="44.486452" lon="8.345000"><ele>2194.7</ele><time>2026-05-25T06:35:20Z</time></trkpt>
      <trkpt lat="44.488726" lon="8.345000"><ele>2165.2</ele><time>2026-05-25T06:36:20Z</time></trkpt>
      <trkpt lat="44.491000" lon="8.345000"><ele>2135.6</ele><time>2026-05-25T06:37:21Z</time></trkpt>
      <trkpt lat="44.493274" lon="8.345000"><ele>2106.1</ele><time>2026-05-25T06:38:22Z</time></trkpt>
      <trkpt lat="44.495548" lon="8.345000"><ele>2076.6</ele><time>2026-05-25T06:39:22Z</time></trkpt>
      <trkpt lat="44.497821" lon="8.345000"><ele>2047.0</ele><time>2026-05-25T06:40:23Z</time></trkpt>
      <trkpt lat="44.500095" lon="8.345000"><ele>2017.5</ele><time>2026-05-25T06:41:24Z</time></trkpt>
      <trkpt lat="44.502369" lon="8.345000"><ele>1988.0</ele><time>2026-05-25T06:42:25Z</time></trkpt>
      <trkpt lat="44.504643" lon="8.345000"><ele>1958.4</ele><time>2026-05-25T06:43:26Z</time></trkpt>
      <trkpt lat="44.506917" lon="8.345000"><ele>1928.9</ele><time>2026-05-25T06:44:26Z</time></trkpt>
      <trkpt lat="44.509191" lon="8.345000"><ele>1899.4</ele><time>2026-05-25T06:45:27Z</time></trkpt>
      <trkpt lat="44.511464" lon="8.345000"><ele>1869.8</ele><time>2026-05-25T06:46:28Z</time></trkpt>
      <trkpt lat="44.513738" lon="8.345000"><ele>1840.3</ele><time>2026-05-25T06:47:28Z</time></trkpt>
      <trkpt lat="44.516012" lon="8.345000"><ele>1810.8</ele><time>2026-05-25T06:48:29Z</time></trkpt>
      <trkpt lat="44.518286" lon="8.345000"><ele>1781.2</ele><time>2026-05-25T06:49:30Z</time></trkpt>
      <trkpt lat="44.520560" lon="8.345000"><ele>1751.7</ele><time>2026-05-25T06:50:31Z</time></trkpt>
      <trkpt lat="44.522834" lon="8.345000"><ele>1722.2</ele><time>2026-05-25T06:51:32Z</time></trkpt>
      <trkpt lat="44.525108" lon="8.345000"><ele>1692.7</ele><time>2026-05-25T06:52:32Z</time></trkpt>
      <trkpt lat="44.527381" lon="8.345000"><ele>1663.1</ele><time>2026-05-25T06:53:33Z</time></trkpt>
      <trkpt lat="44.529655" lon="8.345000"><ele>1633.6</ele><time>2026-05-25T06:54:34Z</time></trkpt>
      <trkpt lat="44.531929" lon="8.345000"><ele>1604.1</ele><time>2026-05-25T06:55:34Z</time></trkpt>
      <trkpt lat="44.534203" lon="8.345000"><ele>1574.5</ele><time>2026-05-25T06:56:35Z</time></trkpt>
      <trkpt lat="44.536477" lon="8.345000"><ele>1545.0</ele><time>2026-05-25T06:57:36Z</time></trkpt>
      <trkpt lat="44.538751" lon="8.345000"><ele>1515.5</ele><time>2026-05-25T06:58:37Z</time></trkpt>
      <trkpt lat="44.541025" lon="8.345000"><ele>1485.9</ele><time>2026-05-25T06:59:38Z</time></trkpt>
      <trkpt lat="44.543298" lon="8.345000"><ele>1456.4</ele><time>2026-05-25T07:00:38Z</time></trkpt>
      <trkpt lat="44.545572" lon="8.345000"><ele>1426.9</ele><time>2026-05-25T07:01:39Z</time></trkpt>
      <trkpt lat="44.547846" lon="8.345000"><ele>1397.3</ele><time>2026-05-25T07:02:40Z</time></trkpt>
      <trkpt lat="44.550120" lon="8.345000"><ele>1367.8</ele><time>2026-05-25T07:03:40Z</time></trkpt>
      <trkpt lat="44.552394" lon="8.345000"><ele>1338.3</ele><time>2026-05-25T07:04:41Z</time></trkpt>
      <trkpt lat="44.554668" lon="8.345000"><ele>1308.8</ele><time>2026-05-25T07:05:42Z</time></trkpt>
      <trkpt lat="44.556941" lon="8.345000"><ele>1279.2</ele><time>2026-05-25T07:06:43Z</time></trkpt>
      <trkpt lat="44.559215" lon="8.345000"><ele>1249.7</ele><time>2026-05-25T07:07:44Z</time></trkpt>
      <trkpt lat="44.561489" lon="8.345000"><ele>1220.2</ele><time>2026-05-25T07:08:44Z</time></trkpt>
      <trkpt lat="44.563763" lon="8.345000"><ele>1190.6</ele><time>2026-05-25T07:09:45Z</time></trkpt>
      <trkpt lat="44.566037" lon="8.345000"><ele>1161.1</ele><time>2026-05-25T07:10:46Z</time></trkpt>
      <trkpt lat="44.568311" lon="8.345000"><ele>1131.6</ele><time>2026-05-25T07:11:46Z</time></trkpt>
      <trkpt lat="44.570585" lon="8.345000"><ele>1102.0</ele><time>2026-05-25T07:12:47Z</time></trkpt>
      <trkpt lat="44.572858" lon="8.345000"><ele>1072.5</ele><time>2026-05-25T07:13:48Z</time></trkpt>
      <trkpt lat="44.575132" lon="8.345000"><ele>1043.0</ele><time>2026-05-25T07:14:49Z</time></trkpt>
      <trkpt lat="44.577406" lon="8.345000"><ele>1013.4</ele><time>2026-05-25T07:15:50Z</time></trkpt>
      <trkpt lat="44.579680" lon="8.345000"><ele>983.9</ele><time>2026-05-25T07:16:50Z</time></trkpt>
      <trkpt lat="44.581954" lon="8.345000"><ele>954.4</ele><time>2026-05-25T07:17:51Z</time></trkpt>
      <trkpt lat="44.584228" lon="8.345000"><ele>924.8</ele><time>2026-05-25T07:18:52Z</time></trkpt>
      <trkpt lat="44.586502" lon="8.345000"><ele>895.3</ele><time>2026-05-25T07:19:52Z</time></trkpt>
      <trkpt lat="44.588775" lon="8.345000"><ele>865.8</ele><time>2026-05-25T07:20:53Z</time></trkpt>
      <trkpt lat="44.591049" lon="8.345000"><ele>836.3</ele><time>2026-05-25T07:21:54Z</time></trkpt>
      <trkpt lat="44.593323" lon="8.345000"><ele>806.7</ele><time>2026-05-25T07:22:55Z</time></trkpt>
      <trkpt lat="44.595597" lon="8.345000"><ele>777.2</ele><time>2026-05-25T07:23:56Z</time></trkpt>
      <trkpt lat="44.597871" lon="8.345000"><ele>747.7</ele><time>2026-05-25T07:24:56Z</time></trkpt>
      <trkpt lat="44.600145" lon="8.345000"><ele>718.1</ele><time>2026-05-25T07:25:57Z</time></trkpt>
      <trkpt lat="44.602418" lon="8.345000"><ele>688.6</ele><time>2026-05-25T07:26:58Z</time></trkpt>
      <trkpt lat="44.604692" lon="8.345000"><ele>659.1</ele><time>2026-05-25T07:27:58Z</time></trkpt>
      <trkpt lat="44.606966" lon="8.345000"><ele>629.5</ele><time>2026-05-25T07:28:59Z</time></trkpt>
      <trkpt lat="44.609240" lon="8.345000"><ele>600.0</ele><time>2026-05-25T07:30:00Z</time></trkpt>
    </trkseg>
  </trk>
</gpx>
