<?xml version="1.0" encoding="UTF-8"?>
<gpx version="1.1" creator="bike_setup_tracker sample generator"
     xmlns="http://www.topografix.com/GPX/1/1"
     xmlns:xsi="http://www.w3.org/2001/XMLSchema-instance"
     xsi:schemaLocation="http://www.topografix.com/GPX/1/1 http://www.topografix.com/GPX/1/1/gpx.xsd">
  <metadata>
    <name>Finale Ligure - DH Men</name>
    <time>2026-05-24T04:50:00Z</time>
  </metadata>
  <trk>
    <name>Finale Ligure - DH Men</name>
    <trkseg>
      <trkpt lat="44.189000" lon="8.337000"><ele>480.0</ele><time>2026-05-24T04:50:00Z</time></trkpt>
      <trkpt lat="44.191196" lon="8.337000"><ele>493.2</ele><time>2026-05-24T04:51:01Z</time></trkpt>
      <trkpt lat="44.193392" lon="8.337000"><ele>506.5</ele><time>2026-05-24T04:52:02Z</time></trkpt>
      <trkpt lat="44.195588" lon="8.337000"><ele>519.7</ele><time>2026-05-24T04:53:03Z</time></trkpt>
      <trkpt lat="44.197783" lon="8.337000"><ele>533.0</ele><time>2026-05-24T04:54:04Z</time></trkpt>
      <trkpt lat="44.199979" lon="8.337000"><ele>546.2</ele><time>2026-05-24T04:55:06Z</time></trkpt>
      <trkpt lat="44.202175" lon="8.337000"><ele>559.4</ele><time>2026-05-24T04:56:07Z</time></trkpt>
      <trkpt lat="44.204371" lon="8.337000"><ele>572.7</ele><time>2026-05-24T04:57:08Z</time></trkpt>
      <trkpt lat="44.206567" lon="8.337000"><ele>585.9</ele><time>2026-05-24T04:58:09Z</time></trkpt>
      <trkpt lat="44.208763" lon="8.337000"><ele>599.2</ele><time>2026-05-24T04:59:10Z</time></trkpt>
      <trkpt lat="44.210959" lon="8.337000"><ele>612.4</ele><time>2026-05-24T05:00:11Z</time></trkpt>
      <trkpt lat="44.213155" lon="8.337000"><ele>625.6</ele><time>2026-05-24T05:01:12Z</time></trkpt>
      <trkpt lat="44.215350" lon="8.337000"><ele>638.9</ele><time>2026-05-24T05:02:13Z</time></trkpt>
      <trkpt lat="44.217546" lon="8.337000"><ele>652.1</ele><time>2026-05-24T05:03:14Z</time></trkpt>
      <trkpt lat="44.219742" lon="8.337000"><ele>665.4</ele><time>2026-05-24T05:04:16Z</time></trkpt>
      <trkpt lat="44.221938" lon="8.337000"><ele>678.6</ele><time>2026-05-24T05:05:17Z</time></trkpt>
      <trkpt lat="44.224134" lon="8.337000"><ele>691.9</ele><time>2026-05-24T05:06:18Z</time></trkpt>
      <trkpt lat="44.226330" lon="8.337000"><ele>705.1</ele><time>2026-05-24T05:07:19Z</time></trkpt>
      <trkpt lat="44.228526" lon="8.337000"><ele>718.3</ele><time>2026-05-24T05:08:20Z</time></trkpt>
      <trkpt lat="44.230722" lon="8.337000"><ele>731.6</ele><time>2026-05-24T05:09:21Z</time></trkpt>
      <trkpt lat="44.232917" lon="8.337000"><ele>744.8</ele><time>2026-05-24T05:10:22Z</time></trkpt>
      <trkpt lat="44.235113" lon="8.337000"><ele>758.1</ele><time>2026-05-24T05:11:23Z</time></trkpt>
      <trkpt lat="44.237309" lon="8.337000"><ele>771.3</ele><time>2026-05-24T05:12:24Z</time></trkpt>
      <trkpt lat="44.239505" lon="8.337000"><ele>784.5</ele><time>2026-05-24T05:13:26Z</time></trkpt>
      <trkpt lat="44.241701" lon="8.337000"><ele>797.8</ele><time>2026-05-24T05:14:27Z</time></trkpt>
      <trkpt lat="44.243897" lon="8.337000"><ele>811.0</ele><time>2026-05-24T05:15:28Z</time></trkpt>
      <trkpt lat="44.246093" lon="8.337000"><ele>824.3</ele><time>2026-05-24T05:16:29Z</time></trkpt>
      <trkpt lat="44.248289" lon="8.337000"><ele>837.5</ele><time>2026-05-24T05:17:30Z</time></trkpt>
      <trkpt lat="44.250484" lon="8.337000"><ele>850.7</ele><time>2026-05-24T05:18:31Z</time></trkpt>
      <trkpt lat="44.252680" lon="8.337000"><ele>864.0</ele><time>2026-05-24T05:19:32Z</time></trkpt>
      <trkpt lat="44.254876" lon="8.337000"><ele>877.2</ele><time>2026-05-24T05:20:33Z</time></trkpt>
      <trkpt lat="44.257072" lon="8.337000"><ele>890.5</ele><time>2026-05-24T05:21:34Z</time></trkpt>
      <trkpt lat="44.259268" lon="8.337000"><ele>903.7</ele><time>2026-05-24T05:22:36Z</time></trkpt>
      <trkpt lat="44.261464" lon="8.337000"><ele>916.9</ele><time>2026-05-24T05:23:37Z</time></trkpt>
      <trkpt lat="44.263660" lon="8.337000"><ele>930.2</ele><time>2026-05-24T05:24:38Z</time></trkpt>
      <trkpt lat="44.265856" lon="8.337000"><ele>943.4</ele><time>2026-05-24T05:25:39Z</time></trkpt>
      <trkpt lat="44.268051" lon="8.337000"><ele>956.7</ele><time>2026-05-24T05:26:40Z</time></trkpt>
      <trkpt lat="44.270247" lon="8.337000"><ele>969.9</ele><time>2026-05-24T05:27:41Z</time></trkpt>
      <trkpt lat="44.272443" lon="8.337000"><ele>983.1</ele><time>2026-05-24T05:28:42Z</time></trkpt>
      <trkpt lat="44.274639" lon="8.337000"><ele>996.4</ele><time>2026-05-24T05:29:43Z</time></trkpt>
      <trkpt lat="44.276835" lon="8.337000"><ele>1009.6</ele><time>2026-05-24T05:30:44Z</time></trkpt>
      <trkpt lat="44.279031" lon="8.337000"><ele>1022.9</ele><time>2026-05-24T05:31:46Z</time></trkpt>
      <trkpt lat="44.281227" lon="8.337000"><ele>1036.1</ele><time>2026-05-24T05:32:47Z</time></trkpt>
      <trkpt lat="44.283422" lon="8.337000"><ele>1049.4</ele><time>2026-05-24T05:33:48Z</time></trkpt>
      <trkpt lat="44.285618" lon="8.337000"><ele>1062.6</ele><time>2026-05-24T05:34:49Z</time></trkpt>
      <trkpt lat="44.287814" lon="8.337000"><ele>1075.8</ele><time>2026-05-24T05:35:50Z</time></trkpt>
      <trkpt lat="44.290010" lon="8.337000"><ele>1089.1</ele><time>2026-05-24T05:36:51Z</time></trkpt>
      <trkpt lat="44.292206" lon="8.337000"><ele>1102.3</ele><time>2026-05-24T05:37:52Z</time></trkpt>
      <trkpt lat="44.294402" lon="8.337000"><ele>1115.6</ele><time>2026-05-24T05:38:53Z</time></trkpt>
      <trkpt lat="44.296598" lon="8.337000"><ele>1128.8</ele><time>2026-05-24T05:39:54Z</time></trkpt>
      <trkpt lat="44.298794" lon="8.337000"><ele>1142.0</ele><time>2026-05-24T05:40:56Z</time></trkpt>
      <trkpt lat="44.300989" lon="8.337000"><ele>1155.3</ele><time>2026-05-24T05:41:57Z</time></trkpt>
      <trkpt lat="44.303185" lon="8.337000"><ele>1168.5</ele><time>2026-05-24T05:42:58Z</time></trkpt>
      <trkpt lat="44.305381" lon="8.337000"><ele>1181.8</ele><time>2026-05-24T05:43:59Z</time></trkpt>
      <trkpt lat="44.307577" lon="8.337000"><ele>1195.0</ele><time>2026-05-24T05:45:00Z</time></trkpt>
      <trkpt lat="44.307577" lon="8.337000"><ele>1195.0</ele><time>2026-05-24T05:47:00Z</time></trkpt>
      <trkpt lat="44.307577" lon="8.337000"><ele>1195.0</ele><time>2026-05-24T05:49:00Z</time></trkpt>
      <trkpt lat="44.307577" lon="8.337000"><ele>1195.0</ele><time>2026-05-24T05:51:00Z</time></trkpt>
      <trkpt lat="44.307577" lon="8.337000"><ele>1195.0</ele><time>2026-05-24T05:53:00Z</time></trkpt>
      <trkpt lat="44.307577" lon="8.337000"><ele>1195.0</ele><time>2026-05-24T05:55:00Z</time></trkpt>
      <trkpt lat="44.307577" lon="8.337000"><ele>1195.0</ele><time>2026-05-24T05:57:00Z</time></trkpt>
      <trkpt lat="44.307577" lon="8.337000"><ele>1195.0</ele><time>2026-05-24T05:59:00Z</time></trkpt>
      <trkpt lat="44.307577" lon="8.337000"><ele>1195.0</ele><time>2026-05-24T06:01:00Z</time></trkpt>
      <trkpt lat="44.307577" lon="8.337000"><ele>1195.0</ele><time>2026-05-24T06:03:00Z</time></trkpt>
      <trkpt lat="44.307577" lon="8.337000"><ele>1195.0</ele><time>2026-05-24T06:05:00Z</time></trkpt>
      <trkpt lat="44.307577" lon="8.337000"><ele>1195.0</ele><time>2026-05-24T06:07:00Z</time></trkpt>
      <trkpt lat="44.307577" lon="8.337000"><ele>1195.0</ele><time>2026-05-24T06:09:00Z</time></trkpt>
      <trkpt lat="44.307577" lon="8.337000"><ele>1195.0</ele><time>2026-05-24T06:11:00Z</time></trkpt>
      <trkpt lat="44.307577" lon="8.337000"><ele>1195.0</ele><time>2026-05-24T06:13:00Z</time></trkpt>
      <trkpt lat="44.307577" lon="8.337000"><ele>1195.0</ele><time>2026-05-24T06:15:00Z</time></trkpt>
      <trkpt lat="44.307577" lon="8.337000"><ele>1195.0</ele><time>2026-05-24T06:17:00Z</time></trkpt>
      <trkpt lat="44.307577" lon="8.337000"><ele>1195.0</ele><time>2026-05-24T06:19:00Z</time></trkpt>
      <trkpt lat="44.307577" lon="8.337000"><ele>1195.0</ele><time>2026-05-24T06:21:00Z</time></trkpt>
      <trkpt lat="44.307577" lon="8.337000"><ele>1195.0</ele><time>2026-05-24T06:23:00Z</time></trkpt>
      <trkpt lat="44.307577" lon="8.337000"><ele>1195.0</ele><time>2026-05-24T06:25:00Z</time></trkpt>
      <trkpt lat="44.307577" lon="8.337000"><ele>1195.0</ele><time>2026-05-24T06:27:00Z</time></trkpt>
      <trkpt lat="44.307577" lon="8.337000"><ele>1195.0</ele><time>2026-05-24T06:29:00Z</time></trkpt>
      <trkpt lat="44.307577" lon="8.337000"><ele>1195.0</ele><time>2026-05-24T06:31:00Z</time></trkpt>
      <trkpt lat="44.307577" lon="8.337000"><ele>1195.0</ele><time>2026-05-24T06:33:00Z</time></trkpt>
      <trkpt lat="44.307577" lon="8.337000"><ele>1195.0</ele><time>2026-05-24T06:35:00Z</time></trkpt>
      <trkpt lat="44.307577" lon="8.337000"><ele>1195.0</ele><time>2026-05-24T06:37:00Z</time></trkpt>
      <trkpt lat="44.307577" lon="8.337000"><ele>1195.0</ele><time>2026-05-24T06:39:00Z</time></trkpt>
      <trkpt lat="44.307577" lon="8.337000"><ele>1195.0</ele><time>2026-05-24T06:41:00Z</time></trkpt>
      <trkpt lat="44.307577" lon="8.337000"><ele>1195.0</ele><time>2026-05-24T06:43:00Z</time></trkpt>
      <trkpt lat="44.307577" lon="8.337000"><ele>1195.0</ele><time>2026-05-24T06:45:00Z</time></trkpt>
      <trkpt lat="44.307577" lon="8.337000"><ele>1195.0</ele><time>2026-05-24T06:47:00Z</time></trkpt>
      <trkpt lat="44.307577" lon="8.337000"><ele>1195.0</ele><time>2026-05-24T06:49:00Z</time></trkpt>
      <trkpt lat="44.307577" lon="8.337000"><ele>1195.0</ele><time>2026-05-24T06:51:00Z</time></trkpt>
      <trkpt lat="44.307577" lon="8.337000"><ele>1195.0</ele><time>2026-05-24T06:53:00Z</time></trkpt>
      <trkpt lat="44.307577" lon="8.337000"><ele>1195.0</ele><time>2026-05-24T06:55:00Z</time></trkpt>
      <trkpt lat="44.307577" lon="8.337000"><ele>1195.0</ele><time>2026-05-24T06:57:00Z</time></trkpt>
      <trkpt lat="44.307577" lon="8.337000"><ele>1195.0</ele><time>2026-05-24T06:59:00Z</time></trkpt>
      <trkpt lat="44.307577" lon="8.337000"><ele>1195.0</ele><time>2026-05-24T07:01:00Z</time></trkpt>
      <trkpt lat="44.307577" lon="8.337000"><ele>1195.0</ele><time>2026-05-24T07:03:00Z</time></trkpt>
      <trkpt lat="44.307577" lon="8.337000"><ele>1195.0</ele><time>2026-05-24T07:05:00Z</time></trkpt>
      <trkpt lat="44.307577" lon="8.337000"><ele>1195.0</ele><time>2026-05-24T07:07:00Z</time></trkpt>
      <trkpt lat="44.307577" lon="8.337000"><ele>1195.0</ele><time>2026-05-24T07:09:00Z</time></trkpt>
      <trkpt lat="44.307577" lon="8.337000"><ele>1195.0</ele><time>2026-05-24T07:11:00Z</time></trkpt>
      <trkpt lat="44.307577" lon="8.337000"><ele>1195.0</ele><time>2026-05-24T07:13:00Z</time></trkpt>
      <trkpt lat="44.307577" lon="8.337000"><ele>1195.0</ele><time>2026-05-24T07:15:00Z</time></trkpt>
      <trkpt lat="44.307577" lon="8.337000"><ele>1195.0</ele><time>2026-05-24T07:17:00Z</time></trkpt>
      <trkpt lat="44.307577" lon="8.337000"><ele>1195.0</ele><time>2026-05-24T07:19:00Z</time></trkpt>
      <trkpt lat="44.307577" lon="8.337000"><ele>1195.0</ele><time>2026-05-24T07:21:00Z</time></trkpt>
      <trkpt lat="44.307577" lon="8.337000"><ele>1195.0</ele><time>2026-05-24T07:23:00Z</time></trkpt>
      <trkpt lat="44.307577" lon="8.337000"><ele>1195.0</ele><time>2026-05-24T07:25:00Z</time></trkpt>
      <trkpt lat="44.307577" lon="8.337000"><ele>1195.0</ele><time>2026-05-24T07:27:00Z</time></trkpt>
      <trkpt lat="44.307577" lon="8.337000"><ele>1195.0</ele><time>2026-05-24T07:29:00Z</time></trkpt>
      <trkpt lat="44.307577" lon="8.337000"><ele>1195.0</ele><time>2026-05-24T07:31:00Z</time></trkpt>
      <trkpt lat="44.307577" lon="8.337000"><ele>1195.0</ele><time>2026-05-24T07:33:00Z</time></trkpt>
      <trkpt lat="44.307577" lon="8.337000"><ele>1195.0</ele><time>2026-05-24T07:35:00Z</time></trkpt>
      <trkpt lat="44.307577" lon="8.337000"><ele>1195.0</ele><time>2026-05-24T07:37:00Z</time></trkpt>
      <trkpt lat="44.307577" lon="8.337000"><ele>1195.0</ele><time>2026-05-24T07:39:00Z</time></trkpt>
      <trkpt lat="44.307577" lon="8.337000"><ele>1195.0</ele><time>2026-05-24T07:41:00Z</time></trkpt>
      <trkpt lat="44.307577" lon="8.337000"><ele>1195.0</ele><time>2026-05-24T07:43:00Z</time></trkpt>
      <trkpt lat="44.307577" lon="8.337000"><ele>1195.0</ele><time>2026-05-24T07:45:00Z</time></trkpt>
      <trkpt lat="44.309782" lon="8.337000"><ele>1208.3</ele><time>2026-05-24T07:46:01Z</time></trkpt>
      <trkpt lat="44.311987" lon="8.337000"><ele>1221.6</ele><time>2026-05-24T07:47:03Z</time></trkpt>
      <trkpt lat="44.314192" lon="8.337000"><ele>1234.9</ele><time>2026-05-24T07:48:04Z</time></trkpt>
      <trkpt lat="44.316397" lon="8.337000"><ele>1248.2</ele><time>2026-05-24T07:49:05Z</time></trkpt>
      <trkpt lat="44.318602" lon="8.337000"><ele>1257.8</ele><time>2026-05-24T07:50:07Z</time></trkpt>
      <trkpt lat="44.320807" lon="8.337000"><ele>1237.8</ele><time>2026-05-24T07:51:08Z</time></trkpt>
      <trkpt lat="44.323012" lon="8.337000"><ele>1217.9</ele><time>2026-05-24T07:52:10Z</time></trkpt>
      <trkpt lat="44.325217" lon="8.337000"><ele>1198.0</ele><time>2026-05-24T07:53:11Z</time></trkpt>
      <trkpt lat="44.327422" lon="8.337000"><ele>1178.0</ele><time>2026-05-24T07:54:12Z</time></trkpt>
      <trkpt lat="44.329627" lon="8.337000"><ele>1158.1</ele><time>2026-05-24T07:55:14Z</time></trkpt>
      <trkpt lat="44.331831" lon="8.337000"><ele>1138.1</ele><time>2026-05-24T07:56:15Z</time></trkpt>
      <trkpt lat="44.334036" lon="8.337000"><ele>1118.2</ele><time>2026-05-24T07:57:16Z</time></trkpt>
      <trkpt lat="44.336241" lon="8.337000"><ele>1098.2</ele><time>2026-05-24T07:58:18Z</time></trkpt>
      <trkpt lat="44.338446" lon="8.337000"><ele>1078.3</ele><time>2026-05-24T07:59:19Z</time></trkpt>
      <trkpt lat="44.340651" lon="8.337000"><ele>1058.4</ele><time>2026-05-24T08:00:20Z</time></trkpt>
      <trkpt lat="44.342856" lon="8.337000"><ele>1038.4</ele><time>2026-05-24T08:01:22Z</time></trkpt>
      <trkpt lat="44.345061" lon="8.337000"><ele>1018.5</ele><time>2026-05-24T08:02:23Z</time></trkpt>
      <trkpt lat="44.347266" lon="8.337000"><ele>998.5</ele><time>2026-05-24T08:03:25Z</time></trkpt>
      <trkpt lat="44.349471" lon="8.337000"><ele>978.6</ele><time>2026-05-24T08:04:26Z</time></trkpt>
      <trkpt lat="44.351676" lon="8.337000"><ele>958.6</ele><time>2026-05-24T08:05:27Z</time></trkpt>
      <trkpt lat="44.353881" lon="8.337000"><ele>938.7</ele><time>2026-05-24T08:06:29Z</time></trkpt>
      <trkpt lat="44.356086" lon="8.337000"><ele>918.7</ele><time>2026-05-24T08:07:30Z</time></trkpt>
      <trkpt lat="44.358291" lon="8.337000"><ele>898.8</ele><time>2026-05-24T08:08:31Z</time></trkpt>
      <trkpt lat="44.360496" lon="8.337000"><ele>878.9</ele><time>2026-05-24T08:09:33Z</time></trkpt>
      <trkpt lat="44.362701" lon="8.337000"><ele>858.9</ele><time>2026-05-24T08:10:34Z</time></trkpt>
      <trkpt lat="44.364906" lon="8.337000"><ele>839.0</ele><time>2026-05-24T08:11:35Z</time></trkpt>
      <trkpt lat="44.367111" lon="8.337000"><ele>819.0</ele><time>2026-05-24T08:12:37Z</time></trkpt>
      <trkpt lat="44.369316" lon="8.337000"><ele>799.1</ele><time>2026-05-24T08:13:38Z</time></trkpt>
      <trkpt lat="44.371520" lon="8.337000"><ele>779.1</ele><time>2026-05-24T08:14:40Z</time></trkpt>
      <trkpt lat="44.373725" lon="8.337000"><ele>759.2</ele><time>2026-05-24T08:15:41Z</time></trkpt>
      <trkpt lat="44.375930" lon="8.337000"><ele>739.3</ele><time>2026-05-24T08:16:42Z</time></trkpt>
      <trkpt lat="44.378135" lon="8.337000"><ele>719.3</ele><time>2026-05-24T08:17:44Z</time></trkpt>
      <trkpt lat="44.380340" lon="8.337000"><ele>699.4</ele><time>2026-05-24T08:18:45Z</time></trkpt>
      <trkpt lat="44.382545" lon="8.337000"><ele>679.4</ele><time>2026-05-24T08:19:46Z</time></trkpt>
      <trkpt lat="44.384750" lon="8.337000"><ele>659.5</ele><time>2026-05-24T08:20:48Z</time></trkpt>
      <trkpt lat="44.386955" lon="8.337000"><ele>639.5</ele><time>2026-05-24T08:21:49Z</time></trkpt>
      <trkpt lat="44.389160" lon="8.337000"><ele>619.6</ele><time>2026-05-24T08:22:50Z</time></trkpt>
      <trkpt lat="44.391365" lon="8.337000"><ele>599.7</ele><time>2026-05-24T08:23:52Z</time></trkpt>
      <trkpt lat="44.393570" lon="8.337000"><ele>579.7</ele><time>2026-05-24T08:24:53Z</time></trkpt>
      <trkpt lat="44.395775" lon="8.337000"><ele>559.8</ele><time>2026-05-24T08:25:55Z</time></trkpt>
      <trkpt lat="44.397980" lon="8.337000"><ele>539.8</ele><time>2026-05-24T08:26:56Z</time></trkpt>
      <trkpt lat="44.400185" lon="8.337000"><ele>519.9</ele><time>2026-05-24T08:27:57Z</time></trkpt>
      <trkpt lat="44.402390" lon="8.337000"><ele>499.9</ele><time>2026-05-24T08:28:59Z</time></trkpt>
      <trkpt lat="44.404595" lon="8.337000"><ele>480.0</ele><time>2026-05-24T08:30:00Z</time></trkpt>
    </trkseg>
  </trk>
</gpx>
