<?xml version="1.0" encoding="UTF-8"?>
<gpx version="1.1" creator="bike_setup_tracker sample generator"
     xmlns="http://www.topografix.com/GPX/1/1"
     xmlns:xsi="http://www.w3.org/2001/XMLSchema-instance"
     xsi:schemaLocation="http://www.topografix.com/GPX/1/1 http://www.topografix.com/GPX/1/1/gpx.xsd">
  <metadata>
    <name>Leogang - Speedster (dry)</name>
    <time>2026-05-17T06:30:00Z</time>
  </metadata>
  <trk>
    <name>Leogang - Speedster (dry)</name>
    <trkseg>
      <trkpt lat="47.436000" lon="12.756000"><ele>1880.0</ele><time>2026-05-17T06:30:00Z</time></trkpt>
      <trkpt lat="47.438363" lon="12.756000"><ele>1889.2</ele><time>2026-05-17T06:31:01Z</time></trkpt>
      <trkpt lat="47.440726" lon="12.756000"><ele>1898.3</ele><time>2026-05-17T06:32:02Z</time></trkpt>
      <trkpt lat="47.443089" lon="12.756000"><ele>1907.5</ele><time>2026-05-17T06:33:03Z</time></trkpt>
      <trkpt lat="47.445452" lon="12.756000"><ele>1916.7</ele><time>2026-05-17T06:34:04Z</time></trkpt>
      <trkpt lat="47.447815" lon="12.756000"><ele>1925.8</ele><time>2026-05-17T06:35:05Z</time></trkpt>
      <trkpt lat="47.450178" lon="12.756000"><ele>1935.0</ele><time>2026-05-17T06:36:06Z</time></trkpt>
      <trkpt lat="47.452541" lon="12.756000"><ele>1944.2</ele><time>2026-05-17T06:37:07Z</time></trkpt>
      <trkpt lat="47.454904" lon="12.756000"><ele>1953.3</ele><time>2026-05-17T06:38:08Z</time></trkpt>
      <trkpt lat="47.457267" lon="12.756000"><ele>1962.5</ele><time>2026-05-17T06:39:09Z</time></trkpt>
      <trkpt lat="47.459629" lon="12.756000"><ele>1971.7</ele><time>2026-05-17T06:40:10Z</time></trkpt>
      <trkpt lat="47.461992" lon="12.756000"><ele>1980.8</ele><time>2026-05-17T06:41:11Z</time></trkpt>
      <trkpt lat="47.464355" lon="12.756000"><ele>1990.0</ele><time>2026-05-17T06:42:12Z</time></trkpt>
      <trkpt lat="47.466718" lon="12.756000"><ele>1999.2</ele><time>2026-05-17T06:43:13Z</time></trkpt>
      <trkpt lat="47.469081" lon="12.756000"><ele>2008.3</ele><time>2026-05-17T06:44:14Z</time></trkpt>
      <trkpt lat="47.471444" lon="12.756000"><ele>2017.5</ele><time>2026-05-17T06:45:15Z</time></trkpt>
      <trkpt lat="47.473807" lon="12.756000"><ele>2026.7</ele><time>2026-05-17T06:46:16Z</time></trkpt>
      <trkpt lat="47.476170" lon="12.756000"><ele>2035.8</ele><time>2026-05-17T06:47:17Z</time></trkpt>
      <trkpt lat="47.478533" lon="12.756000"><ele>2045.0</ele><time>2026-05-17T06:48:18Z</time></trkpt>
      <trkpt lat="47.480896" lon="12.756000"><ele>2054.2</ele><time>2026-05-17T06:49:19Z</time></trkpt>
      <trkpt lat="47.483259" lon="12.756000"><ele>2063.3</ele><time>2026-05-17T06:50:20Z</time></trkpt>
      <trkpt lat="47.485622" lon="12.756000"><ele>2072.5</ele><time>2026-05-17T06:51:21Z</time></trkpt>
      <trkpt lat="47.487985" lon="12.756000"><ele>2081.7</ele><time>2026-05-17T06:52:22Z</time></trkpt>
      <trkpt lat="47.490348" lon="12.756000"><ele>2090.8</ele><time>2026-05-17T06:53:22Z</time></trkpt>
      <trkpt lat="47.492711" lon="12.756000"><ele>2100.0</ele><time>2026-05-17T06:54:23Z</time></trkpt>
      <trkpt lat="47.495074" lon="12.756000"><ele>2109.2</ele><time>2026-05-17T06:55:24Z</time></trkpt>
      <trkpt lat="47.497437" lon="12.756000"><ele>2118.3</ele><time>2026-05-17T06:56:25Z</time></trkpt>
      <trkpt lat="47.499800" lon="12.756000"><ele>2127.5</ele><time>2026-05-17T06:57:26Z</time></trkpt>
      <trkpt lat="47.502163" lon="12.756000"><ele>2136.7</ele><time>2026-05-17T06:58:27Z</time></trkpt>
      <trkpt lat="47.504526" lon="12.756000"><ele>2145.8</ele><time>2026-05-17T06:59:28Z</time></trkpt>
      <trkpt lat="47.506888" lon="12.756000"><ele>2155.0</ele><time>2026-05-17T07:00:29Z</time></trkpt>
      <trkpt lat="47.509251" lon="12.756000"><ele>2164.2</ele><time>2026-05-17T07:01:30Z</time></trkpt>
      <trkpt lat="47.511614" lon="12.756000"><ele>2173.3</ele><time>2026-05-17T07:02:31Z</time></trkpt>
      <trkpt lat="47.513977" lon="12.756000"><ele>2182.5</ele><time>2026-05-17T07:03:32Z</time></trkpt>
      <trkpt lat="47.516340" lon="12.756000"><ele>2191.7</ele><time>2026-05-17T07:04:33Z</time></trkpt>
      <trkpt lat="47.518703" lon="12.756000"><ele>2200.8</ele><time>2026-05-17T07:05:34Z</time></trkpt>
      <trkpt lat="47.521066" lon="12.756000"><ele>2210.0</ele><time>2026-05-17T07:06:35Z</time></trkpt>
      <trkpt lat="47.523429" lon="12.756000"><ele>2219.2</ele><time>2026-05-17T07:07:36Z</time></trkpt>
      <trkpt lat="47.525792" lon="12.756000"><ele>2228.3</ele><time>2026-05-17T07:08:37Z</time></trkpt>
      <trkpt lat="47.528155" lon="12.756000"><ele>2237.5</ele><time>2026-05-17T07:09:38Z</time></trkpt>
      <trkpt lat="47.530518" lon="12.756000"><ele>2246.7</ele><time>2026-05-17T07:10:39Z</time></trkpt>
      <trkpt lat="47.532881" lon="12.756000"><ele>2255.8</ele><time>2026-05-17T07:11:40Z</time></trkpt>
      <trkpt lat="47.535244" lon="12.756000"><ele>2265.0</ele><time>2026-05-17T07:12:41Z</time></trkpt>
      <trkpt lat="47.537607" lon="12.756000"><ele>2274.2</ele><time>2026-05-17T07:13:42Z</time></trkpt>
      <trkpt lat="47.539970" lon="12.756000"><ele>2283.3</ele><time>2026-05-17T07:14:43Z</time></trkpt>
      <trkpt lat="47.542333" lon="12.756000"><ele>2292.5</ele><time>2026-05-17T07:15:44Z</time></trkpt>
      <trkpt lat="47.544696" lon="12.756000"><ele>2301.7</ele><time>2026-05-17T07:16:45Z</time></trkpt>
      <trkpt lat="47.544696" lon="12.756000"><ele>2301.7</ele><time>2026-05-17T07:20:20Z</time></trkpt>
      <trkpt lat="47.544696" lon="12.756000"><ele>2301.7</ele><time>2026-05-17T07:23:55Z</time></trkpt>
      <trkpt lat="47.544696" lon="12.756000"><ele>2301.7</ele><time>2026-05-17T07:27:30Z</time></trkpt>
      <trkpt lat="47.544696" lon="12.756000"><ele>2301.7</ele><time>2026-05-17T07:31:05Z</time></trkpt>
      <trkpt lat="47.544696" lon="12.756000"><ele>2301.7</ele><time>2026-05-17T07:34:40Z</time></trkpt>
      <trkpt lat="47.544696" lon="12.756000"><ele>2301.7</ele><time>2026-05-17T07:38:15Z</time></trkpt>
      <trkpt lat="47.544696" lon="12.756000"><ele>2301.7</ele><time>2026-05-17T07:41:50Z</time></trkpt>
      <trkpt lat="47.544696" lon="12.756000"><ele>2301.7</ele><time>2026-05-17T07:45:25Z</time></trkpt>
      <trkpt lat="47.544696" lon="12.756000"><ele>2301.7</ele><time>2026-05-17T07:49:00Z</time></trkpt>
      <trkpt lat="47.544696" lon="12.756000"><ele>2301.7</ele><time>2026-05-17T07:52:35Z</time></trkpt>
      <trkpt lat="47.544696" lon="12.756000"><ele>2301.7</ele><time>2026-05-17T07:56:10Z</time></trkpt>
      <trkpt lat="47.544696" lon="12.756000"><ele>2301.7</ele><time>2026-05-17T07:59:45Z</time></trkpt>
      <trkpt lat="47.544696" lon="12.756000"><ele>2301.7</ele><time>2026-05-17T08:03:20Z</time></trkpt>
      <trkpt lat="47.544696" lon="12.756000"><ele>2301.7</ele><time>2026-05-17T08:06:55Z</time></trkpt>
      <trkpt lat="47.544696" lon="12.756000"><ele>2301.7</ele><time>2026-05-17T08:10:30Z</time></trkpt>
      <trkpt lat="47.544696" lon="12.756000"><ele>2301.7</ele><time>2026-05-17T08:14:05Z</time></trkpt>
      <trkpt lat="47.544696" lon="12.756000"><ele>2301.7</ele><time>2026-05-17T08:17:40Z</time></trkpt>
      <trkpt lat="47.544696" lon="12.756000"><ele>2301.7</ele><time>2026-05-17T08:21:15Z</time></trkpt>
      <trkpt lat="47.544696" lon="12.756000"><ele>2301.7</ele><time>2026-05-17T08:24:50Z</time></trkpt>
      <trkpt lat="47.544696" lon="12.756000"><ele>2301.7</ele><time>2026-05-17T08:28:25Z</time></trkpt>
      <trkpt lat="47.544696" lon="12.756000"><ele>2301.7</ele><time>2026-05-17T08:32:00Z</time></trkpt>
      <trkpt lat="47.544696" lon="12.756000"><ele>2301.7</ele><time>2026-05-17T08:35:35Z</time></trkpt>
      <trkpt lat="47.544696" lon="12.756000"><ele>2301.7</ele><time>2026-05-17T08:39:10Z</time></trkpt>
      <trkpt lat="47.544696" lon="12.756000"><ele>2301.7</ele><time>2026-05-17T08:42:45Z</time></trkpt>
      <trkpt lat="47.544696" lon="12.756000"><ele>2301.7</ele><time>2026-05-17T08:46:20Z</time></trkpt>
      <trkpt lat="47.544696" lon="12.756000"><ele>2301.7</ele><time>2026-05-17T08:49:55Z</time></trkpt>
      <trkpt lat="47.544696" lon="12.756000"><ele>2301.7</ele><time>2026-05-17T08:53:30Z</time></trkpt>
      <trkpt lat="47.544696" lon="12.756000"><ele>2301.7</ele><time>2026-05-17T08:57:05Z</time></trkpt>
      <trkpt lat="47.544696" lon="12.756000"><ele>2301.7</ele><time>2026-05-17T09:00:40Z</time></trkpt>
      <trkpt lat="47.544696" lon="12.756000"><ele>2301.7</ele><time>2026-05-17T09:04:15Z</time></trkpt>
      <trkpt lat="47.544696" lon="12.756000"><ele>2301.7</ele><time>2026-05-17T09:07:50Z</time></trkpt>
      <trkpt lat="47.544696" lon="12.756000"><ele>2301.7</ele><time>2026-05-17T09:11:25Z</time></trkpt>
      <trkpt lat="47.544696" lon="12.756000"><ele>2301.7</ele><time>2026-05-17T09:15:00Z</time></trkpt>
      <trkpt lat="47.544696" lon="12.756000"><ele>2301.7</ele><time>2026-05-17T09:18:35Z</time></trkpt>
      <trkpt lat="47.544696" lon="12.756000"><ele>2301.7</ele><time>2026-05-17T09:22:10Z</time></trkpt>
      <trkpt lat="47.544696" lon="12.756000"><ele>2301.7</ele><time>2026-05-17T09:25:45Z</time></trkpt>
      <trkpt lat="47.544696" lon="12.756000"><ele>2301.7</ele><time>2026-05-17T09:29:20Z</time></trkpt>
      <trkpt lat="47.544696" lon="12.756000"><ele>2301.7</ele><time>2026-05-17T09:32:55Z</time></trkpt>
      <trkpt lat="47.544696" lon="12.756000"><ele>2301.7</ele><time>2026-05-17T09:36:30Z</time></trkpt>
      <trkpt lat="47.544696" lon="12.756000"><ele>2301.7</ele><time>2026-05-17T09:40:05Z</time></trkpt>
      <trkpt lat="47.544696" lon="12.756000"><ele>2301.7</ele><time>2026-05-17T09:43:40Z</time></trkpt>
      <trkpt lat="47.544696" lon="12.756000"><ele>2301.7</ele><time>2026-05-17T09:47:15Z</time></trkpt>
      <trkpt lat="47.544696" lon="12.756000"><ele>2301.7</ele><time>2026-05-17T09:50:50Z</time></trkpt>
      <trkpt lat="47.544696" lon="12.756000"><ele>2301.7</ele><time>2026-05-17T09:54:25Z</time></trkpt>
      <trkpt lat="47.544696" lon="12.756000"><ele>2301.7</ele><time>2026-05-17T09:58:00Z</time></trkpt>
      <trkpt lat="47.544696" lon="12.756000"><ele>2301.7</ele><time>2026-05-17T10:01:35Z</time></trkpt>
      <trkpt lat="47.544696" lon="12.756000"><ele>2301.7</ele><time>2026-05-17T10:05:10Z</time></trkpt>
      <trkpt lat="47.544696" lon="12.756000"><ele>2301.7</ele><time>2026-05-17T10:08:45Z</time></trkpt>
      <trkpt lat="47.544696" lon="12.756000"><ele>2301.7</ele><time>2026-05-17T10:12:20Z</time></trkpt>
      <trkpt lat="47.544696" lon="12.756000"><ele>2301.7</ele><time>2026-05-17T10:15:55Z</time></trkpt>
      <trkpt lat="47.544696" lon="12.756000"><ele>2301.7</ele><time>2026-05-17T10:19:30Z</time></trkpt>
      <trkpt lat="47.544696" lon="12.756000"><ele>2301.7</ele><time>2026-05-17T10:23:05Z</time></trkpt>
      <trkpt lat="47.544696" lon="12.756000"><ele>2301.7</ele><time>2026-05-17T10:26:40Z</time></trkpt>
      <trkpt lat="47.544696" lon="12.756000"><ele>2301.7</ele><time>2026-05-17T10:30:15Z</time></trkpt>
      <trkpt lat="47.544696" lon="12.756000"><ele>2301.7</ele><time>2026-05-17T10:33:50Z</time></trkpt>
      <trkpt lat="47.544696" lon="12.756000"><ele>2301.7</ele><time>2026-05-17T10:37:25Z</time></trkpt>
      <trkpt lat="47.544696" lon="12.756000"><ele>2301.7</ele><time>2026-05-17T10:41:00Z</time></trkpt>
      <trkpt lat="47.544696" lon="12.756000"><ele>2301.7</ele><time>2026-05-17T10:44:35Z</time></trkpt>
      <trkpt lat="47.544696" lon="12.756000"><ele>2301.7</ele><time>2026-05-17T10:48:10Z</time></trkpt>
      <trkpt lat="47.544696" lon="12.756000"><ele>2301.7</ele><time>2026-05-17T10:51:45Z</time></trkpt>
      <trkpt lat="47.547099" lon="12.756000"><ele>2311.0</ele><time>2026-05-17T10:52:47Z</time></trkpt>
      <trkpt lat="47.549503" lon="12.756000"><ele>2320.3</ele><time>2026-05-17T10:53:49Z</time></trkpt>
      <trkpt lat="47.551906" lon="12.756000"><ele>2329.6</ele><time>2026-05-17T10:54:51Z</time></trkpt>
      <trkpt lat="47.554310" lon="12.756000"><ele>2339.0</ele><time>2026-05-17T10:55:53Z</time></trkpt>
      <trkpt lat="47.556714" lon="12.756000"><ele>2327.6</ele><time>2026-05-17T10:56:55Z</time></trkpt>
      <trkpt lat="47.559117" lon="12.756000"><ele>2313.6</ele><time>2026-05-17T10:57:57Z</time></trkpt>
      <trkpt lat="47.561521" lon="12.756000"><ele>2299.6</ele><time>2026-05-17T10:58:59Z</time></trkpt>
      <trkpt lat="47.563924" lon="12.756000"><ele>2285.6</ele><time>2026-05-17T11:00:01Z</time></trkpt>
      <trkpt lat="47.566328" lon="12.756000"><ele>2271.6</ele><time>2026-05-17T11:01:03Z</time></trkpt>
      <trkpt lat="47.568732" lon="12.756000"><ele>2257.6</ele><time>2026-05-17T11:02:05Z</time></trkpt>
      <trkpt lat="47.571135" lon="12.756000"><ele>2243.6</ele><time>2026-05-17T11:03:07Z</time></trkpt>
      <trkpt lat="47.573539" lon="12.756000"><ele>2229.7</ele><time>2026-05-17T11:04:09Z</time></trkpt>
      <trkpt lat="47.575942" lon="12.756000"><ele>2215.7</ele><time>2026-05-17T11:05:11Z</time></trkpt>
      <trkpt lat="47.578346" lon="12.756000"><ele>2201.7</ele><time>2026-05-17T11:06:13Z</time></trkpt>
      <trkpt lat="47.580749" lon="12.756000"><ele>2187.7</ele><time>2026-05-17T11:07:15Z</time></trkpt>
      <trkpt lat="47.583153" lon="12.756000"><ele>2173.7</ele><time>2026-05-17T11:08:17Z</time></trkpt>
      <trkpt lat="47.585557" lon="12.756000"><ele>2159.7</ele><time>2026-05-17T11:09:19Z</time></trkpt>
      <trkpt lat="47.587960" lon="12.756000"><ele>2145.7</ele><time>2026-05-17T11:10:21Z</time></trkpt>
      <trkpt lat="47.590364" lon="12.756000"><ele>2131.8</ele><time>2026-05-17T11:11:24Z</time></trkpt>
      <trkpt lat="47.592767" lon="12.756000"><ele>2117.8</ele><time>2026-05-17T11:12:26Z</time></trkpt>
      <trkpt lat="47.595171" lon="12.756000"><ele>2103.8</ele><time>2026-05-17T11:13:28Z</time></trkpt>
      <trkpt lat="47.597575" lon="12.756000"><ele>2089.8</ele><time>2026-05-17T11:14:30Z</time></trkpt>
      <trkpt lat="47.599978" lon="12.756000"><ele>2075.8</ele><time>2026-05-17T11:15:32Z</time></trkpt>
      <trkpt lat="47.602382" lon="12.756000"><ele>2061.8</ele><time>2026-05-17T11:16:34Z</time></trkpt>
      <trkpt lat="47.604785" lon="12.756000"><ele>2047.8</ele><time>2026-05-17T11:17:36Z</time></trkpt>
      <trkpt lat="47.607189" lon="12.756000"><ele>2033.9</ele><time>2026-05-17T11:18:38Z</time></trkpt>
      <trkpt lat="47.609593" lon="12.756000"><ele>2019.9</ele><time>2026-05-17T11:19:40Z</time></trkpt>
      <trkpt lat="47.611996" lon="12.756000"><ele>2005.9</ele><time>2026-05-17T11:20:42Z</time></trkpt>
      <trkpt lat="47.614400" lon="12.756000"><ele>1991.9</ele><time>2026-05-17T11:21:44Z</time></trkpt>
      <trkpt lat="47.616803" lon="12.756000"><ele>1977.9</ele><time>2026-05-17T11:22:46Z</time></trkpt>
      <trkpt lat="47.619207" lon="12.756000"><ele>1963.9</ele><time>2026-05-17T11:23:48Z</time></trkpt>
      <trkpt lat="47.621611" lon="12.756000"><ele>1949.9</ele><time>2026-05-17T11:24:50Z</time></trkpt>
      <trkpt lat="47.624014" lon="12.756000"><ele>1935.9</ele><time>2026-05-17T11:25:52Z</time></trkpt>
      <trkpt lat="47.626418" lon="12.756000"><ele>1922.0</ele><time>2026-05-17T11:26:54Z</time></trkpt>
      <trkpt lat="47.628821" lon="12.756000"><ele>1908.0</ele><time>2026-05-17T11:27:56Z</time></trkpt>
      <trkpt lat="47.631225" lon="12.756000"><ele>1894.0</ele><time>2026-05-17T11:28:58Z</time></trkpt>
      <trkpt lat="47.633628" lon="12.756000"><ele>1880.0</ele><time>2026-05-17T11:30:00Z</time></trkpt>
    </trkseg>
  </trk>
</gpx>
