<?xml version="1.0" encoding="UTF-8"?>
<gpx version="1.1" creator="bike_setup_tracker sample generator"
     xmlns="http://www.topografix.com/GPX/1/1"
     xmlns:xsi="http://www.w3.org/2001/XMLSchema-instance"
     xsi:schemaLocation="http://www.topografix.com/GPX/1/1 http://www.topografix.com/GPX/1/1/gpx.xsd">
  <metadata>
    <name>Gravel - Kaiserstuhl Loop</name>
    <time>2026-05-28T01:50:00Z</time>
  </metadata>
  <trk>
    <name>Gravel - Kaiserstuhl Loop</name>
    <trkseg>
      <trkpt lat="48.080000" lon="7.650000"><ele>220.0</ele><time>2026-05-28T01:50:00Z</time></trkpt>
      <trkpt lat="48.083898" lon="7.650000"><ele>225.4</ele><time>2026-05-28T01:51:04Z</time></trkpt>
      <trkpt lat="48.087796" lon="7.650000"><ele>230.8</ele><time>2026-05-28T01:52:07Z</time></trkpt>
      <trkpt lat="48.091695" lon="7.650000"><ele>236.1</ele><time>2026-05-28T01:53:11Z</time></trkpt>
      <trkpt lat="48.095593" lon="7.650000"><ele>241.5</ele><time>2026-05-28T01:54:14Z</time></trkpt>
      <trkpt lat="48.099491" lon="7.650000"><ele>246.9</ele><time>2026-05-28T01:55:18Z</time></trkpt>
      <trkpt lat="48.103389" lon="7.650000"><ele>252.3</ele><time>2026-05-28T01:56:21Z</time></trkpt>
      <trkpt lat="48.107287" lon="7.650000"><ele>257.7</ele><time>2026-05-28T01:57:25Z</time></trkpt>
      <trkpt lat="48.111185" lon="7.650000"><ele>263.1</ele><time>2026-05-28T01:58:29Z</time></trkpt>
      <trkpt lat="48.115084" lon="7.650000"><ele>268.4</ele><time>2026-05-28T01:59:32Z</time></trkpt>
      <trkpt lat="48.118982" lon="7.650000"><ele>273.8</ele><time>2026-05-28T02:00:36Z</time></trkpt>
      <trkpt lat="48.122880" lon="7.650000"><ele>279.2</ele><time>2026-05-28T02:01:39Z</time></trkpt>
      <trkpt lat="48.126778" lon="7.650000"><ele>284.6</ele><time>2026-05-28T02:02:43Z</time></trkpt>
      <trkpt lat="48.130676" lon="7.650000"><ele>290.0</ele><time>2026-05-28T02:03:47Z</time></trkpt>
      <trkpt lat="48.134574" lon="7.650000"><ele>295.4</ele><time>2026-05-28T02:04:50Z</time></trkpt>
      <trkpt lat="48.138473" lon="7.650000"><ele>300.7</ele><time>2026-05-28T02:05:54Z</time></trkpt>
      <trkpt lat="48.142371" lon="7.650000"><ele>306.1</ele><time>2026-05-28T02:06:57Z</time></trkpt>
      <trkpt lat="48.146269" lon="7.650000"><ele>311.5</ele><time>2026-05-28T02:08:01Z</time></trkpt>
      <trkpt lat="48.150167" lon="7.650000"><ele>316.9</ele><time>2026-05-28T02:09:04Z</time></trkpt>
      <trkpt lat="48.154065" lon="7.650000"><ele>322.3</ele><time>2026-05-28T02:10:08Z</time></trkpt>
      <trkpt lat="48.157964" lon="7.650000"><ele>327.6</ele><time>2026-05-28T02:11:12Z</time></trkpt>
      <trkpt lat="48.161862" lon="7.650000"><ele>333.0</ele><time>2026-05-28T02:12:15Z</time></trkpt>
      <trkpt lat="48.165760" lon="7.650000"><ele>338.4</ele><time>2026-05-28T02:13:19Z</time></trkpt>
      <trkpt lat="48.169658" lon="7.650000"><ele>343.8</ele><time>2026-05-28T02:14:22Z</time></trkpt>
      <trkpt lat="48.173556" lon="7.650000"><ele>349.2</ele><time>2026-05-28T02:15:26Z</time></trkpt>
      <trkpt lat="48.177454" lon="7.650000"><ele>354.6</ele><time>2026-05-28T02:16:29Z</time></trkpt>
      <trkpt lat="48.181353" lon="7.650000"><ele>359.9</ele><time>2026-05-28T02:17:33Z</time></trkpt>
      <trkpt lat="48.185251" lon="7.650000"><ele>365.3</ele><time>2026-05-28T02:18:37Z</time></trkpt>
      <trkpt lat="48.189149" lon="7.650000"><ele>370.7</ele><time>2026-05-28T02:19:40Z</time></trkpt>
      <trkpt lat="48.193047" lon="7.650000"><ele>376.1</ele><time>2026-05-28T02:20:44Z</time></trkpt>
      <trkpt lat="48.196945" lon="7.650000"><ele>381.5</ele><time>2026-05-28T02:21:47Z</time></trkpt>
      <trkpt lat="48.200843" lon="7.650000"><ele>386.9</ele><time>2026-05-28T02:22:51Z</time></trkpt>
      <trkpt lat="48.204742" lon="7.650000"><ele>392.2</ele><time>2026-05-28T02:23:54Z</time></trkpt>
      <trkpt lat="48.208640" lon="7.650000"><ele>397.6</ele><time>2026-05-28T02:24:58Z</time></trkpt>
      <trkpt lat="48.212538" lon="7.650000"><ele>403.0</ele><time>2026-05-28T02:26:02Z</time></trkpt>
      <trkpt lat="48.216436" lon="7.650000"><ele>408.4</ele><time>2026-05-28T02:27:05Z</time></trkpt>
      <trkpt lat="48.220334" lon="7.650000"><ele>413.8</ele><time>2026-05-28T02:28:09Z</time></trkpt>
      <trkpt lat="48.224233" lon="7.650000"><ele>419.1</ele><time>2026-05-28T02:29:12Z</time></trkpt>
      <trkpt lat="48.228131" lon="7.650000"><ele>424.5</ele><time>2026-05-28T02:30:16Z</time></trkpt>
      <trkpt lat="48.232029" lon="7.650000"><ele>429.9</ele><time>2026-05-28T02:31:20Z</time></trkpt>
      <trkpt lat="48.235927" lon="7.650000"><ele>435.3</ele><time>2026-05-28T02:32:23Z</time></trkpt>
      <trkpt lat="48.239825" lon="7.650000"><ele>440.7</ele><time>2026-05-28T02:33:27Z</time></trkpt>
      <trkpt lat="48.243723" lon="7.650000"><ele>446.1</ele><time>2026-05-28T02:34:30Z</time></trkpt>
      <trkpt lat="48.247622" lon="7.650000"><ele>451.4</ele><time>2026-05-28T02:35:34Z</time></trkpt>
      <trkpt lat="48.251520" lon="7.650000"><ele>456.8</ele><time>2026-05-28T02:36:37Z</time></trkpt>
      <trkpt lat="48.255418" lon="7.650000"><ele>462.2</ele><time>2026-05-28T02:37:41Z</time></trkpt>
      <trkpt lat="48.259316" lon="7.650000"><ele>467.6</ele><time>2026-05-28T02:38:45Z</time></trkpt>
      <trkpt lat="48.263214" lon="7.650000"><ele>473.0</ele><time>2026-05-28T02:39:48Z</time></trkpt>
      <trkpt lat="48.267112" lon="7.650000"><ele>478.3</ele><time>2026-05-28T02:40:52Z</time></trkpt>
      <trkpt lat="48.271011" lon="7.650000"><ele>483.7</ele><time>2026-05-28T02:41:55Z</time></trkpt>
      <trkpt lat="48.274909" lon="7.650000"><ele>489.1</ele><time>2026-05-28T02:42:59Z</time></trkpt>
      <trkpt lat="48.278807" lon="7.650000"><ele>494.5</ele><time>2026-05-28T02:44:02Z</time></trkpt>
      <trkpt lat="48.282705" lon="7.650000"><ele>499.9</ele><time>2026-05-28T02:45:06Z</time></trkpt>
      <trkpt lat="48.286603" lon="7.650000"><ele>505.3</ele><time>2026-05-28T02:46:10Z</time></trkpt>
      <trkpt lat="48.290502" lon="7.650000"><ele>510.6</ele><time>2026-05-28T02:47:13Z</time></trkpt>
      <trkpt lat="48.294400" lon="7.650000"><ele>516.0</ele><time>2026-05-28T02:48:17Z</time></trkpt>
      <trkpt lat="48.298298" lon="7.650000"><ele>521.4</ele><time>2026-05-28T02:49:20Z</time></trkpt>
      <trkpt lat="48.302196" lon="7.650000"><ele>526.8</ele><time>2026-05-28T02:50:24Z</time></trkpt>
      <trkpt lat="48.306094" lon="7.650000"><ele>532.2</ele><time>2026-05-28T02:51:28Z</time></trkpt>
      <trkpt lat="48.309992" lon="7.650000"><ele>537.6</ele><time>2026-05-28T02:52:31Z</time></trkpt>
      <trkpt lat="48.313891" lon="7.650000"><ele>542.9</ele><time>2026-05-28T02:53:35Z</time></trkpt>
      <trkpt lat="48.317789" lon="7.650000"><ele>548.3</ele><time>2026-05-28T02:54:38Z</time></trkpt>
      <trkpt lat="48.321687" lon="7.650000"><ele>553.7</ele><time>2026-05-28T02:55:42Z</time></trkpt>
      <trkpt lat="48.325585" lon="7.650000"><ele>559.1</ele><time>2026-05-28T02:56:45Z</time></trkpt>
      <trkpt lat="48.329483" lon="7.650000"><ele>564.5</ele><time>2026-05-28T02:57:49Z</time></trkpt>
      <trkpt lat="48.333381" lon="7.650000"><ele>569.8</ele><time>2026-05-28T02:58:53Z</time></trkpt>
      <trkpt lat="48.337280" lon="7.650000"><ele>575.2</ele><time>2026-05-28T02:59:56Z</time></trkpt>
      <trkpt lat="48.341178" lon="7.650000"><ele>580.6</ele><time>2026-05-28T03:01:00Z</time></trkpt>
      <trkpt lat="48.345076" lon="7.650000"><ele>586.0</ele><time>2026-05-28T03:02:03Z</time></trkpt>
      <trkpt lat="48.348974" lon="7.650000"><ele>591.4</ele><time>2026-05-28T03:03:07Z</time></trkpt>
      <trkpt lat="48.352872" lon="7.650000"><ele>596.8</ele><time>2026-05-28T03:04:10Z</time></trkpt>
      <trkpt lat="48.356770" lon="7.650000"><ele>602.1</ele><time>2026-05-28T03:05:14Z</time></trkpt>
      <trkpt lat="48.360669" lon="7.650000"><ele>607.5</ele><time>2026-05-28T03:06:18Z</time></trkpt>
      <trkpt lat="48.364567" lon="7.650000"><ele>612.9</ele><time>2026-05-28T03:07:21Z</time></trkpt>
      <trkpt lat="48.368465" lon="7.650000"><ele>618.3</ele><time>2026-05-28T03:08:25Z</time></trkpt>
      <trkpt lat="48.372363" lon="7.650000"><ele>623.7</ele><time>2026-05-28T03:09:28Z</time></trkpt>
      <trkpt lat="48.376261" lon="7.650000"><ele>629.1</ele><time>2026-05-28T03:10:32Z</time></trkpt>
      <trkpt lat="48.380160" lon="7.650000"><ele>634.4</ele><time>2026-05-28T03:11:36Z</time></trkpt>
      <trkpt lat="48.384058" lon="7.650000"><ele>639.8</ele><time>2026-05-28T03:12:39Z</time></trkpt>
      <trkpt lat="48.387956" lon="7.650000"><ele>645.2</ele><time>2026-05-28T03:13:43Z</time></trkpt>
      <trkpt lat="48.391854" lon="7.650000"><ele>650.6</ele><time>2026-05-28T03:14:46Z</time></trkpt>
      <trkpt lat="48.395752" lon="7.650000"><ele>656.0</ele><time>2026-05-28T03:15:50Z</time></trkpt>
      <trkpt lat="48.399650" lon="7.650000"><ele>661.3</ele><time>2026-05-28T03:16:53Z</time></trkpt>
      <trkpt lat="48.403549" lon="7.650000"><ele>666.7</ele><time>2026-05-28T03:17:57Z</time></trkpt>
      <trkpt lat="48.407447" lon="7.650000"><ele>672.1</ele><time>2026-05-28T03:19:01Z</time></trkpt>
      <trkpt lat="48.411345" lon="7.650000"><ele>677.5</ele><time>2026-05-28T03:20:04Z</time></trkpt>
      <trkpt lat="48.415243" lon="7.650000"><ele>682.9</ele><time>2026-05-28T03:21:08Z</time></trkpt>
      <trkpt lat="48.419141" lon="7.650000"><ele>688.3</ele><time>2026-05-28T03:22:11Z</time></trkpt>
      <trkpt lat="48.423039" lon="7.650000"><ele>693.6</ele><time>2026-05-28T03:23:15Z</time></trkpt>
      <trkpt lat="48.426938" lon="7.650000"><ele>699.0</ele><time>2026-05-28T03:24:18Z</time></trkpt>
      <trkpt lat="48.430836" lon="7.650000"><ele>704.4</ele><time>2026-05-28T03:25:22Z</time></trkpt>
      <trkpt lat="48.434734" lon="7.650000"><ele>709.8</ele><time>2026-05-28T03:26:26Z</time></trkpt>
      <trkpt lat="48.438632" lon="7.650000"><ele>715.2</ele><time>2026-05-28T03:27:29Z</time></trkpt>
      <trkpt lat="48.442530" lon="7.650000"><ele>720.6</ele><time>2026-05-28T03:28:33Z</time></trkpt>
      <trkpt lat="48.446429" lon="7.650000"><ele>725.9</ele><time>2026-05-28T03:29:36Z</time></trkpt>
      <trkpt lat="48.450327" lon="7.650000"><ele>731.3</ele><time>2026-05-28T03:30:40Z</time></trkpt>
      <trkpt lat="48.454225" lon="7.650000"><ele>736.7</ele><time>2026-05-28T03:31:43Z</time></trkpt>
      <trkpt lat="48.458123" lon="7.650000"><ele>742.1</ele><time>2026-05-28T03:32:47Z</time></trkpt>
      <trkpt lat="48.462021" lon="7.650000"><ele>747.5</ele><time>2026-05-28T03:33:51Z</time></trkpt>
      <trkpt lat="48.465919" lon="7.650000"><ele>752.8</ele><time>2026-05-28T03:34:54Z</time></trkpt>
      <trkpt lat="48.469818" lon="7.650000"><ele>758.2</ele><time>2026-05-28T03:35:58Z</time></trkpt>
      <trkpt lat="48.473716" lon="7.650000"><ele>763.6</ele><time>2026-05-28T03:37:01Z</time></trkpt>
      <trkpt lat="48.477614" lon="7.650000"><ele>769.0</ele><time>2026-05-28T03:38:05Z</time></trkpt>
      <trkpt lat="48.481512" lon="7.650000"><ele>774.4</ele><time>2026-05-28T03:39:09Z</time></trkpt>
      <trkpt lat="48.485410" lon="7.650000"><ele>779.8</ele><time>2026-05-28T03:40:12Z</time></trkpt>
      <trkpt lat="48.489308" lon="7.650000"><ele>785.1</ele><time>2026-05-28T03:41:16Z</time></trkpt>
      <trkpt lat="48.493207" lon="7.650000"><ele>790.5</ele><time>2026-05-28T03:42:19Z</time></trkpt>
      <trkpt lat="48.497105" lon="7.650000"><ele>795.9</ele><time>2026-05-28T03:43:23Z</time></trkpt>
      <trkpt lat="48.501003" lon="7.650000"><ele>801.3</ele><time>2026-05-28T03:44:26Z</time></trkpt>
      <trkpt lat="48.504901" lon="7.650000"><ele>806.7</ele><time>2026-05-28T03:45:30Z</time></trkpt>
      <trkpt lat="48.504901" lon="7.650000"><ele>806.7</ele><time>2026-05-28T03:47:30Z</time></trkpt>
      <trkpt lat="48.504901" lon="7.650000"><ele>806.7</ele><time>2026-05-28T03:49:30Z</time></trkpt>
      <trkpt lat="48.504901" lon="7.650000"><ele>806.7</ele><time>2026-05-28T03:51:30Z</time></trkpt>
      <trkpt lat="48.504901" lon="7.650000"><ele>806.7</ele><time>2026-05-28T03:53:30Z</time></trkpt>
      <trkpt lat="48.504901" lon="7.650000"><ele>806.7</ele><time>2026-05-28T03:55:30Z</time></trkpt>
      <trkpt lat="48.504901" lon="7.650000"><ele>806.7</ele><time>2026-05-28T03:57:30Z</time></trkpt>
      <trkpt lat="48.504901" lon="7.650000"><ele>806.7</ele><time>2026-05-28T03:59:30Z</time></trkpt>
      <trkpt lat="48.504901" lon="7.650000"><ele>806.7</ele><time>2026-05-28T04:01:30Z</time></trkpt>
      <trkpt lat="48.504901" lon="7.650000"><ele>806.7</ele><time>2026-05-28T04:03:30Z</time></trkpt>
      <trkpt lat="48.504901" lon="7.650000"><ele>806.7</ele><time>2026-05-28T04:05:30Z</time></trkpt>
      <trkpt lat="48.504901" lon="7.650000"><ele>806.7</ele><time>2026-05-28T04:07:30Z</time></trkpt>
      <trkpt lat="48.504901" lon="7.650000"><ele>806.7</ele><time>2026-05-28T04:09:30Z</time></trkpt>
      <trkpt lat="48.504901" lon="7.650000"><ele>806.7</ele><time>2026-05-28T04:11:30Z</time></trkpt>
      <trkpt lat="48.504901" lon="7.650000"><ele>806.7</ele><time>2026-05-28T04:13:30Z</time></trkpt>
      <trkpt lat="48.504901" lon="7.650000"><ele>806.7</ele><time>2026-05-28T04:15:30Z</time></trkpt>
      <trkpt lat="48.504901" lon="7.650000"><ele>806.7</ele><time>2026-05-28T04:17:30Z</time></trkpt>
      <trkpt lat="48.504901" lon="7.650000"><ele>806.7</ele><time>2026-05-28T04:19:30Z</time></trkpt>
      <trkpt lat="48.504901" lon="7.650000"><ele>806.7</ele><time>2026-05-28T04:21:30Z</time></trkpt>
      <trkpt lat="48.504901" lon="7.650000"><ele>806.7</ele><time>2026-05-28T04:23:30Z</time></trkpt>
      <trkpt lat="48.504901" lon="7.650000"><ele>806.7</ele><time>2026-05-28T04:25:30Z</time></trkpt>
      <trkpt lat="48.508807" lon="7.650000"><ele>812.1</ele><time>2026-05-28T04:26:34Z</time></trkpt>
      <trkpt lat="48.512713" lon="7.650000"><ele>817.5</ele><time>2026-05-28T04:27:37Z</time></trkpt>
      <trkpt lat="48.516620" lon="7.650000"><ele>822.8</ele><time>2026-05-28T04:28:41Z</time></trkpt>
      <trkpt lat="48.520526" lon="7.650000"><ele>828.2</ele><time>2026-05-28T04:29:45Z</time></trkpt>
      <trkpt lat="48.524432" lon="7.650000"><ele>833.6</ele><time>2026-05-28T04:30:49Z</time></trkpt>
      <trkpt lat="48.528338" lon="7.650000"><ele>839.0</ele><time>2026-05-28T04:31:52Z</time></trkpt>
      <trkpt lat="48.532244" lon="7.650000"><ele>844.4</ele><time>2026-05-28T04:32:56Z</time></trkpt>
      <trkpt lat="48.536150" lon="7.650000"><ele>849.8</ele><time>2026-05-28T04:34:00Z</time></trkpt>
      <trkpt lat="48.540056" lon="7.650000"><ele>855.2</ele><time>2026-05-28T04:35:03Z</time></trkpt>
      <trkpt lat="48.543963" lon="7.650000"><ele>859.1</ele><time>2026-05-28T04:36:07Z</time></trkpt>
      <trkpt lat="48.547869" lon="7.650000"><ele>851.0</ele><time>2026-05-28T04:37:11Z</time></trkpt>
      <trkpt lat="48.551775" lon="7.650000"><ele>842.9</ele><time>2026-05-28T04:38:14Z</time></trkpt>
      <trkpt lat="48.555681" lon="7.650000"><ele>834.8</ele><time>2026-05-28T04:39:18Z</time></trkpt>
      <trkpt lat="48.559587" lon="7.650000"><ele>826.7</ele><time>2026-05-28T04:40:22Z</time></trkpt>
      <trkpt lat="48.563493" lon="7.650000"><ele>818.7</ele><time>2026-05-28T04:41:26Z</time></trkpt>
      <trkpt lat="48.567399" lon="7.650000"><ele>810.6</ele><time>2026-05-28T04:42:29Z</time></trkpt>
      <trkpt lat="48.571306" lon="7.650000"><ele>802.5</ele><time>2026-05-28T04:43:33Z</time></trkpt>
      <trkpt lat="48.575212" lon="7.650000"><ele>794.4</ele><time>2026-05-28T04:44:37Z</time></trkpt>
      <trkpt lat="48.579118" lon="7.650000"><ele>786.3</ele><time>2026-05-28T04:45:40Z</time></trkpt>
      <trkpt lat="48.583024" lon="7.650000"><ele>778.2</ele><time>2026-05-28T04:46:44Z</time></trkpt>
      <trkpt lat="48.586930" lon="7.650000"><ele>770.1</ele><time>2026-05-28T04:47:48Z</time></trkpt>
      <trkpt lat="48.590836" lon="7.650000"><ele>762.0</ele><time>2026-05-28T04:48:52Z</time></trkpt>
      <trkpt lat="48.594742" lon="7.650000"><ele>753.9</ele><time>2026-05-28T04:49:55Z</time></trkpt>
      <trkpt lat="48.598649" lon="7.650000"><ele>745.8</ele><time>2026-05-28T04:50:59Z</time></trkpt>
      <trkpt lat="48.602555" lon="7.650000"><ele>737.8</ele><time>2026-05-28T04:52:03Z</time></trkpt>
      <trkpt lat="48.606461" lon="7.650000"><ele>729.7</ele><time>2026-05-28T04:53:06Z</time></trkpt>
      <trkpt lat="48.610367" lon="7.650000"><ele>721.6</ele><time>2026-05-28T04:54:10Z</time></trkpt>
      <trkpt lat="48.614273" lon="7.650000"><ele>713.5</ele><time>2026-05-28T04:55:14Z</time></trkpt>
      <trkpt lat="48.618179" lon="7.650000"><ele>705.4</ele><time>2026-05-28T04:56:18Z</time></trkpt>
      <trkpt lat="48.622085" lon="7.650000"><ele>697.3</ele><time>2026-05-28T04:57:21Z</time></trkpt>
      <trkpt lat="48.625992" lon="7.650000"><ele>689.2</ele><time>2026-05-28T04:58:25Z</time></trkpt>
      <trkpt lat="48.629898" lon="7.650000"><ele>681.1</ele><time>2026-05-28T04:59:29Z</time></trkpt>
      <trkpt lat="48.633804" lon="7.650000"><ele>673.0</ele><time>2026-05-28T05:00:32Z</time></trkpt>
      <trkpt lat="48.637710" lon="7.650000"><ele>664.9</ele><time>2026-05-28T05:01:36Z</time></trkpt>
      <trkpt lat="48.641616" lon="7.650000"><ele>656.9</ele><time>2026-05-28T05:02:40Z</time></trkpt>
      <trkpt lat="48.645522" lon="7.650000"><ele>648.8</ele><time>2026-05-28T05:03:43Z</time></trkpt>
      <trkpt lat="48.649428" lon="7.650000"><ele>640.7</ele><time>2026-05-28T05:04:47Z</time></trkpt>
      <trkpt lat="48.653334" lon="7.650000"><ele>632.6</ele><time>2026-05-28T05:05:51Z</time></trkpt>
      <trkpt lat="48.657241" lon="7.650000"><ele>624.5</ele><time>2026-05-28T05:06:55Z</time></trkpt>
      <trkpt lat="48.661147" lon="7.650000"><ele>616.4</ele><time>2026-05-28T05:07:58Z</time></trkpt>
      <trkpt lat="48.665053" lon="7.650000"><ele>608.3</ele><time>2026-05-28T05:09:02Z</time></trkpt>
      <trkpt lat="48.668959" lon="7.650000"><ele>600.2</ele><time>2026-05-28T05:10:06Z</time></trkpt>
      <trkpt lat="48.672865" lon="7.650000"><ele>592.1</ele><time>2026-05-28T05:11:09Z</time></trkpt>
      <trkpt lat="48.676771" lon="7.650000"><ele>584.0</ele><time>2026-05-28T05:12:13Z</time></trkpt>
      <trkpt lat="48.680677" lon="7.650000"><ele>576.0</ele><time>2026-05-28T05:13:17Z</time></trkpt>
      <trkpt lat="48.684584" lon="7.650000"><ele>567.9</ele><time>2026-05-28T05:14:21Z</time></trkpt>
      <trkpt lat="48.688490" lon="7.650000"><ele>559.8</ele><time>2026-05-28T05:15:24Z</time></trkpt>
      <trkpt lat="48.692396" lon="7.650000"><ele>551.7</ele><time>2026-05-28T05:16:28Z</time></trkpt>
      <trkpt lat="48.696302" lon="7.650000"><ele>543.6</ele><time>2026-05-28T05:17:32Z</time></trkpt>
      <trkpt lat="48.700208" lon="7.650000"><ele>535.5</ele><time>2026-05-28T05:18:35Z</time></trkpt>
      <trkpt lat="48.704114" lon="7.650000"><ele>527.4</ele><time>2026-05-28T05:19:39Z</time></trkpt>
      <trkpt lat="48.708020" lon="7.650000"><ele>519.3</ele><time>2026-05-28T05:20:43Z</time></trkpt>
      <trkpt lat="48.711927" lon="7.650000"><ele>511.2</ele><time>2026-05-28T05:21:47Z</time></trkpt>
      <trkpt lat="48.715833" lon="7.650000"><ele>503.1</ele><time>2026-05-28T05:22:50Z</time></trkpt>
      <trkpt lat="48.719739" lon="7.650000"><ele>495.1</ele><time>2026-05-28T05:23:54Z</time></trkpt>
      <trkpt lat="48.723645" lon="7.650000"><ele>487.0</ele><time>2026-05-28T05:24:58Z</time></trkpt>
      <trkpt lat="48.727551" lon="7.650000"><ele>478.9</ele><time>2026-05-28T05:26:01Z</time></trkpt>
      <trkpt lat="48.731457" lon="7.650000"><ele>470.8</ele><time>2026-05-28T05:27:05Z</time></trkpt>
      <trkpt lat="48.735363" lon="7.650000"><ele>462.7</ele><time>2026-05-28T05:28:09Z</time></trkpt>
      <trkpt lat="48.739270" lon="7.650000"><ele>454.6</ele><time>2026-05-28T05:29:12Z</time></trkpt>
      <trkpt lat="48.743176" lon="7.650000"><ele>446.5</ele><time>2026-05-28T05:30:16Z</time></trkpt>
      <trkpt lat="48.747082" lon="7.650000"><ele>438.4</ele><time>2026-05-28T05:31:20Z</time></trkpt>
      <trkpt lat="48.750988" lon="7.650000"><ele>430.3</ele><time>2026-05-28T05:32:24Z</time></trkpt>
      <trkpt lat="48.754894" lon="7.650000"><ele>422.2</ele><time>2026-05-28T05:33:27Z</time></trkpt>
      <trkpt lat="48.758800" lon="7.650000"><ele>414.2</ele><time>2026-05-28T05:34:31Z</time></trkpt>
      <trkpt lat="48.762706" lon="7.650000"><ele>406.1</ele><time>2026-05-28T05:35:35Z</time></trkpt>
      <trkpt lat="48.766613" lon="7.650000"><ele>398.0</ele><time>2026-05-28T05:36:38Z</time></trkpt>
      <trkpt lat="48.770519" lon="7.650000"><ele>389.9</ele><time>2026-05-28T05:37:42Z</time></trkpt>
      <trkpt lat="48.774425" lon="7.650000"><ele>381.8</ele><time>2026-05-28T05:38:46Z</time></trkpt>
      <trkpt lat="48.778331" lon="7.650000"><ele>373.7</ele><time>2026-05-28T05:39:50Z</time></trkpt>
      <trkpt lat="48.782237" lon="7.650000"><ele>365.6</ele><time>2026-05-28T05:40:53Z</time></trkpt>
      <trkpt lat="48.786143" lon="7.650000"><ele>357.5</ele><time>2026-05-28T05:41:57Z</time></trkpt>
      <trkpt lat="48.790049" lon="7.650000"><ele>349.4</ele><time>2026-05-28T05:43:01Z</time></trkpt>
      <trkpt lat="48.793956" lon="7.650000"><ele>341.3</ele><time>2026-05-28T05:44:04Z</time></trkpt>
      <trkpt lat="48.797862" lon="7.650000"><ele>333.3</ele><time>2026-05-28T05:45:08Z</time></trkpt>
      <trkpt lat="48.801768" lon="7.650000"><ele>325.2</ele><time>2026-05-28T05:46:12Z</time></trkpt>
      <trkpt lat="48.805674" lon="7.650000"><ele>317.1</ele><time>2026-05-28T05:47:16Z</time></trkpt>
      <trkpt lat="48.809580" lon="7.650000"><ele>309.0</ele><time>2026-05-28T05:48:19Z</time></trkpt>
      <trkpt lat="48.813486" lon="7.650000"><ele>300.9</ele><time>2026-05-28T05:49:23Z</time></trkpt>
      <trkpt lat="48.817392" lon="7.650000"><ele>292.8</ele><time>2026-05-28T05:50:27Z</time></trkpt>
      <trkpt lat="48.821298" lon="7.650000"><ele>284.7</ele><time>2026-05-28T05:51:30Z</time></trkpt>
      <trkpt lat="48.825205" lon="7.650000"><ele>276.6</ele><time>2026-05-28T05:52:34Z</time></trkpt>
      <trkpt lat="48.829111" lon="7.650000"><ele>268.5</ele><time>2026-05-28T05:53:38Z</time></trkpt>
      <trkpt lat="48.833017" lon="7.650000"><ele>260.4</ele><time>2026-05-28T05:54:41Z</time></trkpt>
      <trkpt lat="48.836923" lon="7.650000"><ele>252.4</ele><time>2026-05-28T05:55:45Z</time></trkpt>
      <trkpt lat="48.840829" lon="7.650000"><ele>244.3</ele><time>2026-05-28T05:56:49Z</time></trkpt>
      <trkpt lat="48.844735" lon="7.650000"><ele>236.2</ele><time>2026-05-28T05:57:53Z</time></trkpt>
      <trkpt lat="48.848641" lon="7.650000"><ele>228.1</ele><time>2026-05-28T05:58:56Z</time></trkpt>
      <trkpt lat="48.852548" lon="7.650000"><ele>220.0</ele><time>2026-05-28T06:00:00Z</time></trkpt>
    </trkseg>
  </trk>
</gpx>
