<?xml version="1.0" encoding="UTF-8"?>
<gpx version="1.1" creator="bike_setup_tracker sample generator"
     xmlns="http://www.topografix.com/GPX/1/1"
     xmlns:xsi="http://www.w3.org/2001/XMLSchema-instance"
     xsi:schemaLocation="http://www.topografix.com/GPX/1/1 http://www.topografix.com/GPX/1/1/gpx.xsd">
  <metadata>
    <name>Saalbach - Big Day Out</name>
    <time>2026-05-09T04:10:00Z</time>
  </metadata>
  <trk>
    <name>Saalbach - Big Day Out</name>
    <trkseg>
      <trkpt lat="47.389700" lon="12.636000"><ele>1003.0</ele><time>2026-05-09T04:10:00Z</time></trkpt>
      <trkpt lat="47.392006" lon="12.636000"><ele>1022.9</ele><time>2026-05-09T04:11:00Z</time></trkpt>
      <trkpt lat="47.394311" lon="12.636000"><ele>1042.7</ele><time>2026-05-09T04:12:01Z</time></trkpt>
      <trkpt lat="47.396617" lon="12.636000"><ele>1062.6</ele><time>2026-05-09T04:13:02Z</time></trkpt>
      <trkpt lat="47.398923" lon="12.636000"><ele>1082.4</ele><time>2026-05-09T04:14:02Z</time></trkpt>
      <trkpt lat="47.401228" lon="12.636000"><ele>1102.3</ele><time>2026-05-09T04:15:02Z</time></trkpt>
      <trkpt lat="47.403534" lon="12.636000"><ele>1122.2</ele><time>2026-05-09T04:16:03Z</time></trkpt>
      <trkpt lat="47.405840" lon="12.636000"><ele>1142.0</ele><time>2026-05-09T04:17:04Z</time></trkpt>
      <trkpt lat="47.408145" lon="12.636000"><ele>1161.9</ele><time>2026-05-09T04:18:04Z</time></trkpt>
      <trkpt lat="47.410451" lon="12.636000"><ele>1181.8</ele><time>2026-05-09T04:19:05Z</time></trkpt>
      <trkpt lat="47.412757" lon="12.636000"><ele>1201.6</ele><time>2026-05-09T04:20:05Z</time></trkpt>
      <trkpt lat="47.415062" lon="12.636000"><ele>1221.5</ele><time>2026-05-09T04:21:06Z</time></trkpt>
      <trkpt lat="47.417368" lon="12.636000"><ele>1241.3</ele><time>2026-05-09T04:22:06Z</time></trkpt>
      <trkpt lat="47.419674" lon="12.636000"><ele>1261.2</ele><time>2026-05-09T04:23:06Z</time></trkpt>
      <trkpt lat="47.421979" lon="12.636000"><ele>1281.1</ele><time>2026-05-09T04:24:07Z</time></trkpt>
      <trkpt lat="47.424285" lon="12.636000"><ele>1300.9</ele><time>2026-05-09T04:25:08Z</time></trkpt>
      <trkpt lat="47.426591" lon="12.636000"><ele>1320.8</ele><time>2026-05-09T04:26:08Z</time></trkpt>
      <trkpt lat="47.428896" lon="12.636000"><ele>1340.6</ele><time>2026-05-09T04:27:08Z</time></trkpt>
      <trkpt lat="47.431202" lon="12.636000"><ele>1360.5</ele><time>2026-05-09T04:28:09Z</time></trkpt>
      <trkpt lat="47.433508" lon="12.636000"><ele>1380.4</ele><time>2026-05-09T04:29:10Z</time></trkpt>
      <trkpt lat="47.435813" lon="12.636000"><ele>1400.2</ele><time>2026-05-09T04:30:10Z</time></trkpt>
      <trkpt lat="47.438119" lon="12.636000"><ele>1420.1</ele><time>2026-05-09T04:31:11Z</time></trkpt>
      <trkpt lat="47.440425" lon="12.636000"><ele>1439.9</ele><time>2026-05-09T04:32:11Z</time></trkpt>
      <trkpt lat="47.442730" lon="12.636000"><ele>1459.8</ele><time>2026-05-09T04:33:12Z</time></trkpt>
      <trkpt lat="47.445036" lon="12.636000"><ele>1479.7</ele><time>2026-05-09T04:34:12Z</time></trkpt>
      <trkpt lat="47.447342" lon="12.636000"><ele>1499.5</ele><time>2026-05-09T04:35:13Z</time></trkpt>
      <trkpt lat="47.449647" lon="12.636000"><ele>1519.4</ele><time>2026-05-09T04:36:13Z</time></trkpt>
      <trkpt lat="47.451953" lon="12.636000"><ele>1539.2</ele><time>2026-05-09T04:37:14Z</time></trkpt>
      <trkpt lat="47.454259" lon="12.636000"><ele>1559.1</ele><time>2026-05-09T04:38:14Z</time></trkpt>
      <trkpt lat="47.456564" lon="12.636000"><ele>1579.0</ele><time>2026-05-09T04:39:15Z</time></trkpt>
      <trkpt lat="47.458870" lon="12.636000"><ele>1598.8</ele><time>2026-05-09T04:40:15Z</time></trkpt>
      <trkpt lat="47.461176" lon="12.636000"><ele>1618.7</ele><time>2026-05-09T04:41:16Z</time></trkpt>
      <trkpt lat="47.463481" lon="12.636000"><ele>1638.6</ele><time>2026-05-09T04:42:16Z</time></trkpt>
      <trkpt lat="47.465787" lon="12.636000"><ele>1658.4</ele><time>2026-05-09T04:43:16Z</time></trkpt>
      <trkpt lat="47.468093" lon="12.636000"><ele>1678.3</ele><time>2026-05-09T04:44:17Z</time></trkpt>
      <trkpt lat="47.470398" lon="12.636000"><ele>1698.1</ele><time>2026-05-09T04:45:18Z</time></trkpt>
      <trkpt lat="47.472704" lon="12.636000"><ele>1718.0</ele><time>2026-05-09T04:46:18Z</time></trkpt>
      <trkpt lat="47.475010" lon="12.636000"><ele>1737.9</ele><time>2026-05-09T04:47:18Z</time></trkpt>
      <trkpt lat="47.477315" lon="12.636000"><ele>1757.7</ele><time>2026-05-09T04:48:19Z</time></trkpt>
      <trkpt lat="47.479621" lon="12.636000"><ele>1777.6</ele><time>2026-05-09T04:49:20Z</time></trkpt>
      <trkpt lat="47.481927" lon="12.636000"><ele>1797.4</ele><time>2026-05-09T04:50:20Z</time></trkpt>
      <trkpt lat="47.484232" lon="12.636000"><ele>1817.3</ele><time>2026-05-09T04:51:21Z</time></trkpt>
      <trkpt lat="47.486538" lon="12.636000"><ele>1837.2</ele><time>2026-05-09T04:52:21Z</time></trkpt>
      <trkpt lat="47.488844" lon="12.636000"><ele>1857.0</ele><time>2026-05-09T04:53:22Z</time></trkpt>
      <trkpt lat="47.491149" lon="12.636000"><ele>1876.9</ele><time>2026-05-09T04:54:22Z</time></trkpt>
      <trkpt lat="47.493455" lon="12.636000"><ele>1896.8</ele><time>2026-05-09T04:55:22Z</time></trkpt>
      <trkpt lat="47.495761" lon="12.636000"><ele>1916.6</ele><time>2026-05-09T04:56:23Z</time></trkpt>
      <trkpt lat="47.498066" lon="12.636000"><ele>1936.5</ele><time>2026-05-09T04:57:24Z</time></trkpt>
      <trkpt lat="47.500372" lon="12.636000"><ele>1956.3</ele><time>2026-05-09T04:58:24Z</time></trkpt>
      <trkpt lat="47.502678" lon="12.636000"><ele>1976.2</ele><time>2026-05-09T04:59:24Z</time></trkpt>
      <trkpt lat="47.504983" lon="12.636000"><ele>1996.1</ele><time>2026-05-09T05:00:25Z</time></trkpt>
      <trkpt lat="47.507289" lon="12.636000"><ele>2015.9</ele><time>2026-05-09T05:01:26Z</time></trkpt>
      <trkpt lat="47.509595" lon="12.636000"><ele>2035.8</ele><time>2026-05-09T05:02:26Z</time></trkpt>
      <trkpt lat="47.511900" lon="12.636000"><ele>2055.6</ele><time>2026-05-09T05:03:27Z</time></trkpt>
      <trkpt lat="47.514206" lon="12.636000"><ele>2075.5</ele><time>2026-05-09T05:04:27Z</time></trkpt>
      <trkpt lat="47.516512" lon="12.636000"><ele>2095.4</ele><time>2026-05-09T05:05:28Z</time></trkpt>
      <trkpt lat="47.518817" lon="12.636000"><ele>2115.2</ele><time>2026-05-09T05:06:28Z</time></trkpt>
      <trkpt lat="47.521123" lon="12.636000"><ele>2135.1</ele><time>2026-05-09T05:07:28Z</time></trkpt>
      <trkpt lat="47.523429" lon="12.636000"><ele>2154.9</ele><time>2026-05-09T05:08:29Z</time></trkpt>
      <trkpt lat="47.525734" lon="12.636000"><ele>2174.8</ele><time>2026-05-09T05:09:30Z</time></trkpt>
      <trkpt lat="47.528040" lon="12.636000"><ele>2194.7</ele><time>2026-05-09T05:10:30Z</time></trkpt>
      <trkpt lat="47.530346" lon="12.636000"><ele>2214.5</ele><time>2026-05-09T05:11:31Z</time></trkpt>
      <trkpt lat="47.532651" lon="12.636000"><ele>2234.4</ele><time>2026-05-09T05:12:31Z</time></trkpt>
      <trkpt lat="47.534957" lon="12.636000"><ele>2254.2</ele><time>2026-05-09T05:13:32Z</time></trkpt>
      <trkpt lat="47.537263" lon="12.636000"><ele>2274.1</ele><time>2026-05-09T05:14:32Z</time></trkpt>
      <trkpt lat="47.539568" lon="12.636000"><ele>2294.0</ele><time>2026-05-09T05:15:33Z</time></trkpt>
      <trkpt lat="47.541874" lon="12.636000"><ele>2313.8</ele><time>2026-05-09T05:16:33Z</time></trkpt>
      <trkpt lat="47.544180" lon="12.636000"><ele>2333.7</ele><time>2026-05-09T05:17:34Z</time></trkpt>
      <trkpt lat="47.546485" lon="12.636000"><ele>2353.6</ele><time>2026-05-09T05:18:34Z</time></trkpt>
      <trkpt lat="47.548791" lon="12.636000"><ele>2373.4</ele><time>2026-05-09T05:19:35Z</time></trkpt>
      <trkpt lat="47.551097" lon="12.636000"><ele>2393.3</ele><time>2026-05-09T05:20:35Z</time></trkpt>
      <trkpt lat="47.553402" lon="12.636000"><ele>2413.1</ele><time>2026-05-09T05:21:36Z</time></trkpt>
      <trkpt lat="47.555708" lon="12.636000"><ele>2433.0</ele><time>2026-05-09T05:22:36Z</time></trkpt>
      <trkpt lat="47.558014" lon="12.636000"><ele>2452.9</ele><time>2026-05-09T05:23:36Z</time></trkpt>
      <trkpt lat="47.560319" lon="12.636000"><ele>2472.7</ele><time>2026-05-09T05:24:37Z</time></trkpt>
      <trkpt lat="47.562625" lon="12.636000"><ele>2492.6</ele><time>2026-05-09T05:25:38Z</time></trkpt>
      <trkpt lat="47.564931" lon="12.636000"><ele>2512.4</ele><time>2026-05-09T05:26:38Z</time></trkpt>
      <trkpt lat="47.567236" lon="12.636000"><ele>2532.3</ele><time>2026-05-09T05:27:38Z</time></trkpt>
      <trkpt lat="47.569542" lon="12.636000"><ele>2552.2</ele><time>2026-05-09T05:28:39Z</time></trkpt>
      <trkpt lat="47.571848" lon="12.636000"><ele>2572.0</ele><time>2026-05-09T05:29:40Z</time></trkpt>
      <trkpt lat="47.574153" lon="12.636000"><ele>2591.9</ele><time>2026-05-09T05:30:40Z</time></trkpt>
      <trkpt lat="47.576459" lon="12.636000"><ele>2611.8</ele><time>2026-05-09T05:31:41Z</time></trkpt>
      <trkpt lat="47.578765" lon="12.636000"><ele>2631.6</ele><time>2026-05-09T05:32:41Z</time></trkpt>
      <trkpt lat="47.581070" lon="12.636000"><ele>2651.5</ele><time>2026-05-09T05:33:42Z</time></trkpt>
      <trkpt lat="47.583376" lon="12.636000"><ele>2671.3</ele><time>2026-05-09T05:34:42Z</time></trkpt>
      <trkpt lat="47.585682" lon="12.636000"><ele>2691.2</ele><time>2026-05-09T05:35:42Z</time></trkpt>
      <trkpt lat="47.587987" lon="12.636000"><ele>2711.1</ele><time>2026-05-09T05:36:43Z</time></trkpt>
      <trkpt lat="47.590293" lon="12.636000"><ele>2730.9</ele><time>2026-05-09T05:37:44Z</time></trkpt>
      <trkpt lat="47.592599" lon="12.636000"><ele>2750.8</ele><time>2026-05-09T05:38:44Z</time></trkpt>
      <trkpt lat="47.594904" lon="12.636000"><ele>2770.6</ele><time>2026-05-09T05:39:45Z</time></trkpt>
      <trkpt lat="47.597210" lon="12.636000"><ele>2790.5</ele><time>2026-05-09T05:40:45Z</time></trkpt>
      <trkpt lat="47.597210" lon="12.636000"><ele>2790.5</ele><time>2026-05-09T05:42:46Z</time></trkpt>
      <trkpt lat="47.597210" lon="12.636000"><ele>2790.5</ele><time>2026-05-09T05:44:48Z</time></trkpt>
      <trkpt lat="47.597210" lon="12.636000"><ele>2790.5</ele><time>2026-05-09T05:46:49Z</time></trkpt>
      <trkpt lat="47.597210" lon="12.636000"><ele>2790.5</ele><time>2026-05-09T05:48:50Z</time></trkpt>
      <trkpt lat="47.597210" lon="12.636000"><ele>2790.5</ele><time>2026-05-09T05:50:51Z</time></trkpt>
      <trkpt lat="47.597210" lon="12.636000"><ele>2790.5</ele><time>2026-05-09T05:52:53Z</time></trkpt>
      <trkpt lat="47.597210" lon="12.636000"><ele>2790.5</ele><time>2026-05-09T05:54:54Z</time></trkpt>
      <trkpt lat="47.597210" lon="12.636000"><ele>2790.5</ele><time>2026-05-09T05:56:55Z</time></trkpt>
      <trkpt lat="47.597210" lon="12.636000"><ele>2790.5</ele><time>2026-05-09T05:58:56Z</time></trkpt>
      <trkpt lat="47.597210" lon="12.636000"><ele>2790.5</ele><time>2026-05-09T06:00:58Z</time></trkpt>
      <trkpt lat="47.597210" lon="12.636000"><ele>2790.5</ele><time>2026-05-09T06:02:59Z</time></trkpt>
      <trkpt lat="47.597210" lon="12.636000"><ele>2790.5</ele><time>2026-05-09T06:05:00Z</time></trkpt>
      <trkpt lat="47.597210" lon="12.636000"><ele>2790.5</ele><time>2026-05-09T06:07:02Z</time></trkpt>
      <trkpt lat="47.597210" lon="12.636000"><ele>2790.5</ele><time>2026-05-09T06:09:03Z</time></trkpt>
      <trkpt lat="47.597210" lon="12.636000"><ele>2790.5</ele><time>2026-05-09T06:11:04Z</time></trkpt>
      <trkpt lat="47.597210" lon="12.636000"><ele>2790.5</ele><time>2026-05-09T06:13:05Z</time></trkpt>
      <trkpt lat="47.597210" lon="12.636000"><ele>2790.5</ele><time>2026-05-09T06:15:07Z</time></trkpt>
      <trkpt lat="47.597210" lon="12.636000"><ele>2790.5</ele><time>2026-05-09T06:17:08Z</time></trkpt>
      <trkpt lat="47.597210" lon="12.636000"><ele>2790.5</ele><time>2026-05-09T06:19:09Z</time></trkpt>
      <trkpt lat="47.597210" lon="12.636000"><ele>2790.5</ele><time>2026-05-09T06:21:11Z</time></trkpt>
      <trkpt lat="47.597210" lon="12.636000"><ele>2790.5</ele><time>2026-05-09T06:23:12Z</time></trkpt>
      <trkpt lat="47.597210" lon="12.636000"><ele>2790.5</ele><time>2026-05-09T06:25:13Z</time></trkpt>
      <trkpt lat="47.597210" lon="12.636000"><ele>2790.5</ele><time>2026-05-09T06:27:14Z</time></trkpt>
      <trkpt lat="47.597210" lon="12.636000"><ele>2790.5</ele><time>2026-05-09T06:29:16Z</time></trkpt>
      <trkpt lat="47.597210" lon="12.636000"><ele>2790.5</ele><time>2026-05-09T06:31:17Z</time></trkpt>
      <trkpt lat="47.597210" lon="12.636000"><ele>2790.5</ele><time>2026-05-09T06:33:18Z</time></trkpt>
      <trkpt lat="47.597210" lon="12.636000"><ele>2790.5</ele><time>2026-05-09T06:35:19Z</time></trkpt>
      <trkpt lat="47.597210" lon="12.636000"><ele>2790.5</ele><time>2026-05-09T06:37:21Z</time></trkpt>
      <trkpt lat="47.597210" lon="12.636000"><ele>2790.5</ele><time>2026-05-09T06:39:22Z</time></trkpt>
      <trkpt lat="47.597210" lon="12.636000"><ele>2790.5</ele><time>2026-05-09T06:41:23Z</time></trkpt>
      <trkpt lat="47.597210" lon="12.636000"><ele>2790.5</ele><time>2026-05-09T06:43:25Z</time></trkpt>
      <trkpt lat="47.597210" lon="12.636000"><ele>2790.5</ele><time>2026-05-09T06:45:26Z</time></trkpt>
      <trkpt lat="47.597210" lon="12.636000"><ele>2790.5</ele><time>2026-05-09T06:47:27Z</time></trkpt>
      <trkpt lat="47.597210" lon="12.636000"><ele>2790.5</ele><time>2026-05-09T06:49:28Z</time></trkpt>
      <trkpt lat="47.597210" lon="12.636000"><ele>2790.5</ele><time>2026-05-09T06:51:30Z</time></trkpt>
      <trkpt lat="47.597210" lon="12.636000"><ele>2790.5</ele><time>2026-05-09T06:53:31Z</time></trkpt>
      <trkpt lat="47.597210" lon="12.636000"><ele>2790.5</ele><time>2026-05-09T06:55:32Z</time></trkpt>
      <trkpt lat="47.597210" lon="12.636000"><ele>2790.5</ele><time>2026-05-09T06:57:34Z</time></trkpt>
      <trkpt lat="47.597210" lon="12.636000"><ele>2790.5</ele><time>2026-05-09T06:59:35Z</time></trkpt>
      <trkpt lat="47.597210" lon="12.636000"><ele>2790.5</ele><time>2026-05-09T07:01:36Z</time></trkpt>
      <trkpt lat="47.597210" lon="12.636000"><ele>2790.5</ele><time>2026-05-09T07:03:37Z</time></trkpt>
      <trkpt lat="47.597210" lon="12.636000"><ele>2790.5</ele><time>2026-05-09T07:05:39Z</time></trkpt>
      <trkpt lat="47.597210" lon="12.636000"><ele>2790.5</ele><time>2026-05-09T07:07:40Z</time></trkpt>
      <trkpt lat="47.597210" lon="12.636000"><ele>2790.5</ele><time>2026-05-09T07:09:41Z</time></trkpt>
      <trkpt lat="47.597210" lon="12.636000"><ele>2790.5</ele><time>2026-05-09T07:11:42Z</time></trkpt>
      <trkpt lat="47.597210" lon="12.636000"><ele>2790.5</ele><time>2026-05-09T07:13:44Z</time></trkpt>
      <trkpt lat="47.597210" lon="12.636000"><ele>2790.5</ele><time>2026-05-09T07:15:45Z</time></trkpt>
      <trkpt lat="47.599536" lon="12.636000"><ele>2810.5</ele><time>2026-05-09T07:16:46Z</time></trkpt>
      <trkpt lat="47.601861" lon="12.636000"><ele>2830.6</ele><time>2026-05-09T07:17:47Z</time></trkpt>
      <trkpt lat="47.604187" lon="12.636000"><ele>2850.6</ele><time>2026-05-09T07:18:48Z</time></trkpt>
      <trkpt lat="47.606513" lon="12.636000"><ele>2870.6</ele><time>2026-05-09T07:19:49Z</time></trkpt>
      <trkpt lat="47.608839" lon="12.636000"><ele>2890.7</ele><time>2026-05-09T07:20:50Z</time></trkpt>
      <trkpt lat="47.611164" lon="12.636000"><ele>2910.7</ele><time>2026-05-09T07:21:51Z</time></trkpt>
      <trkpt lat="47.613490" lon="12.636000"><ele>2930.7</ele><time>2026-05-09T07:22:52Z</time></trkpt>
      <trkpt lat="47.615816" lon="12.636000"><ele>2950.8</ele><time>2026-05-09T07:23:53Z</time></trkpt>
      <trkpt lat="47.618142" lon="12.636000"><ele>2926.3</ele><time>2026-05-09T07:24:54Z</time></trkpt>
      <trkpt lat="47.620468" lon="12.636000"><ele>2896.2</ele><time>2026-05-09T07:25:55Z</time></trkpt>
      <trkpt lat="47.622793" lon="12.636000"><ele>2866.2</ele><time>2026-05-09T07:26:56Z</time></trkpt>
      <trkpt lat="47.625119" lon="12.636000"><ele>2836.1</ele><time>2026-05-09T07:27:57Z</time></trkpt>
      <trkpt lat="47.627445" lon="12.636000"><ele>2806.1</ele><time>2026-05-09T07:28:58Z</time></trkpt>
      <trkpt lat="47.629771" lon="12.636000"><ele>2776.0</ele><time>2026-05-09T07:29:59Z</time></trkpt>
      <trkpt lat="47.632096" lon="12.636000"><ele>2746.0</ele><time>2026-05-09T07:31:00Z</time></trkpt>
      <trkpt lat="47.634422" lon="12.636000"><ele>2715.9</ele><time>2026-05-09T07:32:01Z</time></trkpt>
      <trkpt lat="47.636748" lon="12.636000"><ele>2685.9</ele><time>2026-05-09T07:33:02Z</time></trkpt>
      <trkpt lat="47.639074" lon="12.636000"><ele>2655.8</ele><time>2026-05-09T07:34:03Z</time></trkpt>
      <trkpt lat="47.641399" lon="12.636000"><ele>2625.8</ele><time>2026-05-09T07:35:05Z</time></trkpt>
      <trkpt lat="47.643725" lon="12.636000"><ele>2595.7</ele><time>2026-05-09T07:36:06Z</time></trkpt>
      <trkpt lat="47.646051" lon="12.636000"><ele>2565.7</ele><time>2026-05-09T07:37:07Z</time></trkpt>
      <trkpt lat="47.648377" lon="12.636000"><ele>2535.6</ele><time>2026-05-09T07:38:08Z</time></trkpt>
      <trkpt lat="47.650702" lon="12.636000"><ele>2505.6</ele><time>2026-05-09T07:39:09Z</time></trkpt>
      <trkpt lat="47.653028" lon="12.636000"><ele>2475.5</ele><time>2026-05-09T07:40:10Z</time></trkpt>
      <trkpt lat="47.655354" lon="12.636000"><ele>2445.5</ele><time>2026-05-09T07:41:11Z</time></trkpt>
      <trkpt lat="47.657680" lon="12.636000"><ele>2415.4</ele><time>2026-05-09T07:42:12Z</time></trkpt>
      <trkpt lat="47.660006" lon="12.636000"><ele>2385.4</ele><time>2026-05-09T07:43:13Z</time></trkpt>
      <trkpt lat="47.662331" lon="12.636000"><ele>2355.3</ele><time>2026-05-09T07:44:14Z</time></trkpt>
      <trkpt lat="47.664657" lon="12.636000"><ele>2325.3</ele><time>2026-05-09T07:45:15Z</time></trkpt>
      <trkpt lat="47.666983" lon="12.636000"><ele>2295.2</ele><time>2026-05-09T07:46:16Z</time></trkpt>
      <trkpt lat="47.669309" lon="12.636000"><ele>2265.2</ele><time>2026-05-09T07:47:17Z</time></trkpt>
      <trkpt lat="47.671634" lon="12.636000"><ele>2235.1</ele><time>2026-05-09T07:48:18Z</time></trkpt>
      <trkpt lat="47.673960" lon="12.636000"><ele>2205.1</ele><time>2026-05-09T07:49:19Z</time></trkpt>
      <trkpt lat="47.676286" lon="12.636000"><ele>2175.0</ele><time>2026-05-09T07:50:20Z</time></trkpt>
      <trkpt lat="47.678612" lon="12.636000"><ele>2145.0</ele><time>2026-05-09T07:51:21Z</time></trkpt>
      <trkpt lat="47.680937" lon="12.636000"><ele>2114.9</ele><time>2026-05-09T07:52:22Z</time></trkpt>
      <trkpt lat="47.683263" lon="12.636000"><ele>2084.8</ele><time>2026-05-09T07:53:23Z</time></trkpt>
      <trkpt lat="47.685589" lon="12.636000"><ele>2054.8</ele><time>2026-05-09T07:54:24Z</time></trkpt>
      <trkpt lat="47.687915" lon="12.636000"><ele>2024.7</ele><time>2026-05-09T07:55:25Z</time></trkpt>
      <trkpt lat="47.690240" lon="12.636000"><ele>1994.7</ele><time>2026-05-09T07:56:26Z</time></trkpt>
      <trkpt lat="47.692566" lon="12.636000"><ele>1964.6</ele><time>2026-05-09T07:57:27Z</time></trkpt>
      <trkpt lat="47.694892" lon="12.636000"><ele>1934.6</ele><time>2026-05-09T07:58:28Z</time></trkpt>
      <trkpt lat="47.697218" lon="12.636000"><ele>1904.5</ele><time>2026-05-09T07:59:29Z</time></trkpt>
      <trkpt lat="47.699544" lon="12.636000"><ele>1874.5</ele><time>2026-05-09T08:00:30Z</time></trkpt>
      <trkpt lat="47.701869" lon="12.636000"><ele>1844.4</ele><time>2026-05-09T08:01:31Z</time></trkpt>
      <trkpt lat="47.704195" lon="12.636000"><ele>1814.4</ele><time>2026-05-09T08:02:32Z</time></trkpt>
      <trkpt lat="47.706521" lon="12.636000"><ele>1784.3</ele><time>2026-05-09T08:03:33Z</time></trkpt>
      <trkpt lat="47.708847" lon="12.636000"><ele>1754.3</ele><time>2026-05-09T08:04:34Z</time></trkpt>
      <trkpt lat="47.711172" lon="12.636000"><ele>1724.2</ele><time>2026-05-09T08:05:35Z</time></trkpt>
      <trkpt lat="47.713498" lon="12.636000"><ele>1694.2</ele><time>2026-05-09T08:06:36Z</time></trkpt>
      <trkpt lat="47.715824" lon="12.636000"><ele>1664.1</ele><time>2026-05-09T08:07:37Z</time></trkpt>
      <trkpt lat="47.718150" lon="12.636000"><ele>1634.1</ele><time>2026-05-09T08:08:38Z</time></trkpt>
      <trkpt lat="47.720475" lon="12.636000"><ele>1604.0</ele><time>2026-05-09T08:09:39Z</time></trkpt>
      <trkpt lat="47.722801" lon="12.636000"><ele>1574.0</ele><time>2026-05-09T08:10:40Z</time></trkpt>
      <trkpt lat="47.725127" lon="12.636000"><ele>1543.9</ele><time>2026-05-09T08:11:42Z</time></trkpt>
      <trkpt lat="47.727453" lon="12.636000"><ele>1513.9</ele><time>2026-05-09T08:12:43Z</time></trkpt>
      <trkpt lat="47.729778" lon="12.636000"><ele>1483.8</ele><time>2026-05-09T08:13:44Z</time></trkpt>
      <trkpt lat="47.732104" lon="12.636000"><ele>1453.8</ele><time>2026-05-09T08:14:45Z</time></trkpt>
      <trkpt lat="47.734430" lon="12.636000"><ele>1423.7</ele><time>2026-05-09T08:15:46Z</time></trkpt>
      <trkpt lat="47.736756" lon="12.636000"><ele>1393.7</ele><time>2026-05-09T08:16:47Z</time></trkpt>
      <trkpt lat="47.739082" lon="12.636000"><ele>1363.6</ele><time>2026-05-09T08:17:48Z</time></trkpt>
      <trkpt lat="47.741407" lon="12.636000"><ele>1333.6</ele><time>2026-05-09T08:18:49Z</time></trkpt>
      <trkpt lat="47.743733" lon="12.636000"><ele>1303.5</ele><time>2026-05-09T08:19:50Z</time></trkpt>
      <trkpt lat="47.746059" lon="12.636000"><ele>1273.5</ele><time>2026-05-09T08:20:51Z</time></trkpt>
      <trkpt lat="47.748385" lon="12.636000"><ele>1243.4</ele><time>2026-05-09T08:21:52Z</time></trkpt>
      <trkpt lat="47.750710" lon="12.636000"><ele>1213.4</ele><time>2026-05-09T08:22:53Z</time></trkpt>
      <trkpt lat="47.753036" lon="12.636000"><ele>1183.3</ele><time>2026-05-09T08:23:54Z</time></trkpt>
      <trkpt lat="47.755362" lon="12.636000"><ele>1153.3</ele><time>2026-05-09T08:24:55Z</time></trkpt>
      <trkpt lat="47.757688" lon="12.636000"><ele>1123.2</ele><time>2026-05-09T08:25:56Z</time></trkpt>
      <trkpt lat="47.760013" lon="12.636000"><ele>1093.2</ele><time>2026-05-09T08:26:57Z</time></trkpt>
      <trkpt lat="47.762339" lon="12.636000"><ele>1063.1</ele><time>2026-05-09T08:27:58Z</time></trkpt>
      <trkpt lat="47.764665" lon="12.636000"><ele>1033.1</ele><time>2026-05-09T08:28:59Z</time></trkpt>
      <trkpt lat="47.766991" lon="12.636000"><ele>1003.0</ele><time>2026-05-09T08:30:00Z</time></trkpt>
    </trkseg>
  </trk>
</gpx>
