<?xml version="1.0" encoding="UTF-8"?>
<gpx version="1.1" creator="bike_setup_tracker sample generator"
     xmlns="http://www.topografix.com/GPX/1/1"
     xmlns:xsi="http://www.w3.org/2001/XMLSchema-instance"
     xsi:schemaLocation="http://www.topografix.com/GPX/1/1 http://www.topografix.com/GPX/1/1/gpx.xsd">
  <metadata>
    <name>Finale Ligure - NATO Trail</name>
    <time>2026-05-23T05:00:00Z</time>
  </metadata>
  <trk>
    <name>Finale Ligure - NATO Trail</name>
    <trkseg>
      <trkpt lat="44.174200" lon="8.353800"><ele>320.0</ele><time>2026-05-23T05:00:00Z</time></trkpt>
      <trkpt lat="44.176506" lon="8.353800"><ele>333.8</ele><time>2026-05-23T05:01:00Z</time></trkpt>
      <trkpt lat="44.178811" lon="8.353800"><ele>347.5</ele><time>2026-05-23T05:02:01Z</time></trkpt>
      <trkpt lat="44.181117" lon="8.353800"><ele>361.2</ele><time>2026-05-23T05:03:02Z</time></trkpt>
      <trkpt lat="44.183423" lon="8.353800"><ele>375.0</ele><time>2026-05-23T05:04:02Z</time></trkpt>
      <trkpt lat="44.185728" lon="8.353800"><ele>388.8</ele><time>2026-05-23T05:05:02Z</time></trkpt>
      <trkpt lat="44.188034" lon="8.353800"><ele>402.5</ele><time>2026-05-23T05:06:03Z</time></trkpt>
      <trkpt lat="44.190340" lon="8.353800"><ele>416.2</ele><time>2026-05-23T05:07:04Z</time></trkpt>
      <trkpt lat="44.192645" lon="8.353800"><ele>430.0</ele><time>2026-05-23T05:08:04Z</time></trkpt>
      <trkpt lat="44.194951" lon="8.353800"><ele>443.8</ele><time>2026-05-23T05:09:04Z</time></trkpt>
      <trkpt lat="44.197257" lon="8.353800"><ele>457.5</ele><time>2026-05-23T05:10:05Z</time></trkpt>
      <trkpt lat="44.199562" lon="8.353800"><ele>471.2</ele><time>2026-05-23T05:11:06Z</time></trkpt>
      <trkpt lat="44.201868" lon="8.353800"><ele>485.0</ele><time>2026-05-23T05:12:06Z</time></trkpt>
      <trkpt lat="44.204174" lon="8.353800"><ele>498.8</ele><time>2026-05-23T05:13:07Z</time></trkpt>
      <trkpt lat="44.206479" lon="8.353800"><ele>512.5</ele><time>2026-05-23T05:14:07Z</time></trkpt>
      <trkpt lat="44.208785" lon="8.353800"><ele>526.2</ele><time>2026-05-23T05:15:08Z</time></trkpt>
      <trkpt lat="44.211091" lon="8.353800"><ele>540.0</ele><time>2026-05-23T05:16:08Z</time></trkpt>
      <trkpt lat="44.213396" lon="8.353800"><ele>553.8</ele><time>2026-05-23T05:17:09Z</time></trkpt>
      <trkpt lat="44.215702" lon="8.353800"><ele>567.5</ele><time>2026-05-23T05:18:09Z</time></trkpt>
      <trkpt lat="44.218008" lon="8.353800"><ele>581.2</ele><time>2026-05-23T05:19:10Z</time></trkpt>
      <trkpt lat="44.220313" lon="8.353800"><ele>595.0</ele><time>2026-05-23T05:20:10Z</time></trkpt>
      <trkpt lat="44.222619" lon="8.353800"><ele>608.8</ele><time>2026-05-23T05:21:10Z</time></trkpt>
      <trkpt lat="44.224925" lon="8.353800"><ele>622.5</ele><time>2026-05-23T05:22:11Z</time></trkpt>
      <trkpt lat="44.227230" lon="8.353800"><ele>636.3</ele><time>2026-05-23T05:23:12Z</time></trkpt>
      <trkpt lat="44.229536" lon="8.353800"><ele>650.0</ele><time>2026-05-23T05:24:12Z</time></trkpt>
      <trkpt lat="44.231842" lon="8.353800"><ele>663.8</ele><time>2026-05-23T05:25:13Z</time></trkpt>
      <trkpt lat="44.234147" lon="8.353800"><ele>677.5</ele><time>2026-05-23T05:26:13Z</time></trkpt>
      <trkpt lat="44.236453" lon="8.353800"><ele>691.2</ele><time>2026-05-23T05:27:14Z</time></trkpt>
      <trkpt lat="44.238759" lon="8.353800"><ele>705.0</ele><time>2026-05-23T05:28:14Z</time></trkpt>
      <trkpt lat="44.241064" lon="8.353800"><ele>718.8</ele><time>2026-05-23T05:29:15Z</time></trkpt>
      <trkpt lat="44.243370" lon="8.353800"><ele>732.5</ele><time>2026-05-23T05:30:15Z</time></trkpt>
      <trkpt lat="44.245676" lon="8.353800"><ele>746.3</ele><time>2026-05-23T05:31:16Z</time></trkpt>
      <trkpt lat="44.247981" lon="8.353800"><ele>760.0</ele><time>2026-05-23T05:32:16Z</time></trkpt>
      <trkpt lat="44.250287" lon="8.353800"><ele>773.8</ele><time>2026-05-23T05:33:17Z</time></trkpt>
      <trkpt lat="44.252593" lon="8.353800"><ele>787.5</ele><time>2026-05-23T05:34:17Z</time></trkpt>
      <trkpt lat="44.254898" lon="8.353800"><ele>801.3</ele><time>2026-05-23T05:35:18Z</time></trkpt>
      <trkpt lat="44.257204" lon="8.353800"><ele>815.0</ele><time>2026-05-23T05:36:18Z</time></trkpt>
      <trkpt lat="44.259510" lon="8.353800"><ele>828.8</ele><time>2026-05-23T05:37:19Z</time></trkpt>
      <trkpt lat="44.261815" lon="8.353800"><ele>842.5</ele><time>2026-05-23T05:38:19Z</time></trkpt>
      <trkpt lat="44.264121" lon="8.353800"><ele>856.3</ele><time>2026-05-23T05:39:20Z</time></trkpt>
      <trkpt lat="44.266427" lon="8.353800"><ele>870.0</ele><time>2026-05-23T05:40:20Z</time></trkpt>
      <trkpt lat="44.268732" lon="8.353800"><ele>883.8</ele><time>2026-05-23T05:41:20Z</time></trkpt>
      <trkpt lat="44.271038" lon="8.353800"><ele>897.5</ele><time>2026-05-23T05:42:21Z</time></trkpt>
      <trkpt lat="44.273344" lon="8.353800"><ele>911.3</ele><time>2026-05-23T05:43:22Z</time></trkpt>
      <trkpt lat="44.275649" lon="8.353800"><ele>925.0</ele><time>2026-05-23T05:44:22Z</time></trkpt>
      <trkpt lat="44.277955" lon="8.353800"><ele>938.8</ele><time>2026-05-23T05:45:22Z</time></trkpt>
      <trkpt lat="44.280261" lon="8.353800"><ele>952.5</ele><time>2026-05-23T05:46:23Z</time></trkpt>
      <trkpt lat="44.282566" lon="8.353800"><ele>966.2</ele><time>2026-05-23T05:47:24Z</time></trkpt>
      <trkpt lat="44.284872" lon="8.353800"><ele>980.0</ele><time>2026-05-23T05:48:24Z</time></trkpt>
      <trkpt lat="44.287178" lon="8.353800"><ele>993.8</ele><time>2026-05-23T05:49:25Z</time></trkpt>
      <trkpt lat="44.289483" lon="8.353800"><ele>1007.5</ele><time>2026-05-23T05:50:25Z</time></trkpt>
      <trkpt lat="44.291789" lon="8.353800"><ele>1021.3</ele><time>2026-05-23T05:51:26Z</time></trkpt>
      <trkpt lat="44.294095" lon="8.353800"><ele>1035.0</ele><time>2026-05-23T05:52:26Z</time></trkpt>
      <trkpt lat="44.296400" lon="8.353800"><ele>1048.8</ele><time>2026-05-23T05:53:26Z</time></trkpt>
      <trkpt lat="44.298706" lon="8.353800"><ele>1062.5</ele><time>2026-05-23T05:54:27Z</time></trkpt>
      <trkpt lat="44.301012" lon="8.353800"><ele>1076.2</ele><time>2026-05-23T05:55:28Z</time></trkpt>
      <trkpt lat="44.303317" lon="8.353800"><ele>1090.0</ele><time>2026-05-23T05:56:28Z</time></trkpt>
      <trkpt lat="44.305623" lon="8.353800"><ele>1103.8</ele><time>2026-05-23T05:57:28Z</time></trkpt>
      <trkpt lat="44.307929" lon="8.353800"><ele>1117.5</ele><time>2026-05-23T05:58:29Z</time></trkpt>
      <trkpt lat="44.310234" lon="8.353800"><ele>1131.2</ele><time>2026-05-23T05:59:30Z</time></trkpt>
      <trkpt lat="44.312540" lon="8.353800"><ele>1145.0</ele><time>2026-05-23T06:00:30Z</time></trkpt>
      <trkpt lat="44.312540" lon="8.353800"><ele>1145.0</ele><time>2026-05-23T06:02:40Z</time></trkpt>
      <trkpt lat="44.312540" lon="8.353800"><ele>1145.0</ele><time>2026-05-23T06:04:50Z</time></trkpt>
      <trkpt lat="44.312540" lon="8.353800"><ele>1145.0</ele><time>2026-05-23T06:07:00Z</time></trkpt>
      <trkpt lat="44.312540" lon="8.353800"><ele>1145.0</ele><time>2026-05-23T06:09:10Z</time></trkpt>
      <trkpt lat="44.312540" lon="8.353800"><ele>1145.0</ele><time>2026-05-23T06:11:20Z</time></trkpt>
      <trkpt lat="44.312540" lon="8.353800"><ele>1145.0</ele><time>2026-05-23T06:13:30Z</time></trkpt>
      <trkpt lat="44.312540" lon="8.353800"><ele>1145.0</ele><time>2026-05-23T06:15:40Z</time></trkpt>
      <trkpt lat="44.312540" lon="8.353800"><ele>1145.0</ele><time>2026-05-23T06:17:50Z</time></trkpt>
      <trkpt lat="44.312540" lon="8.353800"><ele>1145.0</ele><time>2026-05-23T06:20:00Z</time></trkpt>
      <trkpt lat="44.312540" lon="8.353800"><ele>1145.0</ele><time>2026-05-23T06:22:10Z</time></trkpt>
      <trkpt lat="44.312540" lon="8.353800"><ele>1145.0</ele><time>2026-05-23T06:24:20Z</time></trkpt>
      <trkpt lat="44.312540" lon="8.353800"><ele>1145.0</ele><time>2026-05-23T06:26:30Z</time></trkpt>
      <trkpt lat="44.312540" lon="8.353800"><ele>1145.0</ele><time>2026-05-23T06:28:40Z</time></trkpt>
      <trkpt lat="44.312540" lon="8.353800"><ele>1145.0</ele><time>2026-05-23T06:30:50Z</time></trkpt>
      <trkpt lat="44.312540" lon="8.353800"><ele>1145.0</ele><time>2026-05-23T06:33:00Z</time></trkpt>
      <trkpt lat="44.312540" lon="8.353800"><ele>1145.0</ele><time>2026-05-23T06:35:10Z</time></trkpt>
      <trkpt lat="44.312540" lon="8.353800"><ele>1145.0</ele><time>2026-05-23T06:37:20Z</time></trkpt>
      <trkpt lat="44.312540" lon="8.353800"><ele>1145.0</ele><time>2026-05-23T06:39:30Z</time></trkpt>
      <trkpt lat="44.312540" lon="8.353800"><ele>1145.0</ele><time>2026-05-23T06:41:40Z</time></trkpt>
      <trkpt lat="44.312540" lon="8.353800"><ele>1145.0</ele><time>2026-05-23T06:43:50Z</time></trkpt>
      <trkpt lat="44.312540" lon="8.353800"><ele>1145.0</ele><time>2026-05-23T06:46:00Z</time></trkpt>
      <trkpt lat="44.312540" lon="8.353800"><ele>1145.0</ele><time>2026-05-23T06:48:10Z</time></trkpt>
      <trkpt lat="44.312540" lon="8.353800"><ele>1145.0</ele><time>2026-05-23T06:50:20Z</time></trkpt>
      <trkpt lat="44.312540" lon="8.353800"><ele>1145.0</ele><time>2026-05-23T06:52:30Z</time></trkpt>
      <trkpt lat="44.312540" lon="8.353800"><ele>1145.0</ele><time>2026-05-23T06:54:40Z</time></trkpt>
      <trkpt lat="44.312540" lon="8.353800"><ele>1145.0</ele><time>2026-05-23T06:56:50Z</time></trkpt>
      <trkpt lat="44.312540" lon="8.353800"><ele>1145.0</ele><time>2026-05-23T06:59:00Z</time></trkpt>
      <trkpt lat="44.312540" lon="8.353800"><ele>1145.0</ele><time>2026-05-23T07:01:10Z</time></trkpt>
      <trkpt lat="44.312540" lon="8.353800"><ele>1145.0</ele><time>2026-05-23T07:03:20Z</time></trkpt>
      <trkpt lat="44.312540" lon="8.353800"><ele>1145.0</ele><time>2026-05-23T07:05:30Z</time></trkpt>
      <trkpt lat="44.312540" lon="8.353800"><ele>1145.0</ele><time>2026-05-23T07:07:40Z</time></trkpt>
      <trkpt lat="44.312540" lon="8.353800"><ele>1145.0</ele><time>2026-05-23T07:09:50Z</time></trkpt>
      <trkpt lat="44.312540" lon="8.353800"><ele>1145.0</ele><time>2026-05-23T07:12:00Z</time></trkpt>
      <trkpt lat="44.312540" lon="8.353800"><ele>1145.0</ele><time>2026-05-23T07:14:10Z</time></trkpt>
      <trkpt lat="44.312540" lon="8.353800"><ele>1145.0</ele><time>2026-05-23T07:16:20Z</time></trkpt>
      <trkpt lat="44.312540" lon="8.353800"><ele>1145.0</ele><time>2026-05-23T07:18:30Z</time></trkpt>
      <trkpt lat="44.312540" lon="8.353800"><ele>1145.0</ele><time>2026-05-23T07:20:40Z</time></trkpt>
      <trkpt lat="44.312540" lon="8.353800"><ele>1145.0</ele><time>2026-05-23T07:22:50Z</time></trkpt>
      <trkpt lat="44.312540" lon="8.353800"><ele>1145.0</ele><time>2026-05-23T07:25:00Z</time></trkpt>
      <trkpt lat="44.312540" lon="8.353800"><ele>1145.0</ele><time>2026-05-23T07:27:10Z</time></trkpt>
      <trkpt lat="44.312540" lon="8.353800"><ele>1145.0</ele><time>2026-05-23T07:29:20Z</time></trkpt>
      <trkpt lat="44.312540" lon="8.353800"><ele>1145.0</ele><time>2026-05-23T07:31:30Z</time></trkpt>
      <trkpt lat="44.312540" lon="8.353800"><ele>1145.0</ele><time>2026-05-23T07:33:40Z</time></trkpt>
      <trkpt lat="44.312540" lon="8.353800"><ele>1145.0</ele><time>2026-05-23T07:35:50Z</time></trkpt>
      <trkpt lat="44.312540" lon="8.353800"><ele>1145.0</ele><time>2026-05-23T07:38:00Z</time></trkpt>
      <trkpt lat="44.312540" lon="8.353800"><ele>1145.0</ele><time>2026-05-23T07:40:10Z</time></trkpt>
      <trkpt lat="44.312540" lon="8.353800"><ele>1145.0</ele><time>2026-05-23T07:42:20Z</time></trkpt>
      <trkpt lat="44.312540" lon="8.353800"><ele>1145.0</ele><time>2026-05-23T07:44:30Z</time></trkpt>
      <trkpt lat="44.312540" lon="8.353800"><ele>1145.0</ele><time>2026-05-23T07:46:40Z</time></trkpt>
      <trkpt lat="44.312540" lon="8.353800"><ele>1145.0</ele><time>2026-05-23T07:48:50Z</time></trkpt>
      <trkpt lat="44.312540" lon="8.353800"><ele>1145.0</ele><time>2026-05-23T07:51:00Z</time></trkpt>
      <trkpt lat="44.312540" lon="8.353800"><ele>1145.0</ele><time>2026-05-23T07:53:10Z</time></trkpt>
      <trkpt lat="44.312540" lon="8.353800"><ele>1145.0</ele><time>2026-05-23T07:55:20Z</time></trkpt>
      <trkpt lat="44.312540" lon="8.353800"><ele>1145.0</ele><time>2026-05-23T07:57:30Z</time></trkpt>
      <trkpt lat="44.312540" lon="8.353800"><ele>1145.0</ele><time>2026-05-23T07:59:40Z</time></trkpt>
      <trkpt lat="44.312540" lon="8.353800"><ele>1145.0</ele><time>2026-05-23T08:01:50Z</time></trkpt>
      <trkpt lat="44.312540" lon="8.353800"><ele>1145.0</ele><time>2026-05-23T08:04:00Z</time></trkpt>
      <trkpt lat="44.312540" lon="8.353800"><ele>1145.0</ele><time>2026-05-23T08:06:10Z</time></trkpt>
      <trkpt lat="44.312540" lon="8.353800"><ele>1145.0</ele><time>2026-05-23T08:08:20Z</time></trkpt>
      <trkpt lat="44.312540" lon="8.353800"><ele>1145.0</ele><time>2026-05-23T08:10:30Z</time></trkpt>
      <trkpt lat="44.314898" lon="8.353800"><ele>1159.1</ele><time>2026-05-23T08:11:32Z</time></trkpt>
      <trkpt lat="44.317256" lon="8.353800"><ele>1173.1</ele><time>2026-05-23T08:12:34Z</time></trkpt>
      <trkpt lat="44.319614" lon="8.353800"><ele>1187.2</ele><time>2026-05-23T08:13:36Z</time></trkpt>
      <trkpt lat="44.321972" lon="8.353800"><ele>1201.2</ele><time>2026-05-23T08:14:38Z</time></trkpt>
      <trkpt lat="44.324330" lon="8.353800"><ele>1215.3</ele><time>2026-05-23T08:15:39Z</time></trkpt>
      <trkpt lat="44.326688" lon="8.353800"><ele>1205.9</ele><time>2026-05-23T08:16:41Z</time></trkpt>
      <trkpt lat="44.329046" lon="8.353800"><ele>1184.8</ele><time>2026-05-23T08:17:43Z</time></trkpt>
      <trkpt lat="44.331404" lon="8.353800"><ele>1163.8</ele><time>2026-05-23T08:18:45Z</time></trkpt>
      <trkpt lat="44.333763" lon="8.353800"><ele>1142.7</ele><time>2026-05-23T08:19:47Z</time></trkpt>
      <trkpt lat="44.336121" lon="8.353800"><ele>1121.6</ele><time>2026-05-23T08:20:49Z</time></trkpt>
      <trkpt lat="44.338479" lon="8.353800"><ele>1100.5</ele><time>2026-05-23T08:21:51Z</time></trkpt>
      <trkpt lat="44.340837" lon="8.353800"><ele>1079.4</ele><time>2026-05-23T08:22:52Z</time></trkpt>
      <trkpt lat="44.343195" lon="8.353800"><ele>1058.3</ele><time>2026-05-23T08:23:54Z</time></trkpt>
      <trkpt lat="44.345553" lon="8.353800"><ele>1037.2</ele><time>2026-05-23T08:24:56Z</time></trkpt>
      <trkpt lat="44.347911" lon="8.353800"><ele>1016.1</ele><time>2026-05-23T08:25:58Z</time></trkpt>
      <trkpt lat="44.350269" lon="8.353800"><ele>995.0</ele><time>2026-05-23T08:27:00Z</time></trkpt>
      <trkpt lat="44.352627" lon="8.353800"><ele>973.9</ele><time>2026-05-23T08:28:02Z</time></trkpt>
      <trkpt lat="44.354985" lon="8.353800"><ele>952.8</ele><time>2026-05-23T08:29:04Z</time></trkpt>
      <trkpt lat="44.357343" lon="8.353800"><ele>931.7</ele><time>2026-05-23T08:30:06Z</time></trkpt>
      <trkpt lat="44.359701" lon="8.353800"><ele>910.6</ele><time>2026-05-23T08:31:08Z</time></trkpt>
      <trkpt lat="44.362059" lon="8.353800"><ele>889.5</ele><time>2026-05-23T08:32:09Z</time></trkpt>
      <trkpt lat="44.364417" lon="8.353800"><ele>868.4</ele><time>2026-05-23T08:33:11Z</time></trkpt>
      <trkpt lat="44.366775" lon="8.353800"><ele>847.3</ele><time>2026-05-23T08:34:13Z</time></trkpt>
      <trkpt lat="44.369134" lon="8.353800"><ele>826.2</ele><time>2026-05-23T08:35:15Z</time></trkpt>
      <trkpt lat="44.371492" lon="8.353800"><ele>805.2</ele><time>2026-05-23T08:36:17Z</time></trkpt>
      <trkpt lat="44.373850" lon="8.353800"><ele>784.1</ele><time>2026-05-23T08:37:19Z</time></trkpt>
      <trkpt lat="44.376208" lon="8.353800"><ele>763.0</ele><time>2026-05-23T08:38:21Z</time></trkpt>
      <trkpt lat="44.378566" lon="8.353800"><ele>741.9</ele><time>2026-05-23T08:39:22Z</time></trkpt>
      <trkpt lat="44.380924" lon="8.353800"><ele>720.8</ele><time>2026-05-23T08:40:24Z</time></trkpt>
      <trkpt lat="44.383282" lon="8.353800"><ele>699.7</ele><time>2026-05-23T08:41:26Z</time></trkpt>
      <trkpt lat="44.385640" lon="8.353800"><ele>678.6</ele><time>2026-05-23T08:42:28Z</time></trkpt>
      <trkpt lat="44.387998" lon="8.353800"><ele>657.5</ele><time>2026-05-23T08:43:30Z</time></trkpt>
      <trkpt lat="44.390356" lon="8.353800"><ele>636.4</ele><time>2026-05-23T08:44:32Z</time></trkpt>
      <trkpt lat="44.392714" lon="8.353800"><ele>615.3</ele><time>2026-05-23T08:45:34Z</time></trkpt>
      <trkpt lat="44.395072" lon="8.353800"><ele>594.2</ele><time>2026-05-23T08:46:36Z</time></trkpt>
      <trkpt lat="44.397430" lon="8.353800"><ele>573.1</ele><time>2026-05-23T08:47:38Z</time></trkpt>
      <trkpt lat="44.399788" lon="8.353800"><ele>552.0</ele><time>2026-05-23T08:48:39Z</time></trkpt>
      <trkpt lat="44.402146" lon="8.353800"><ele>530.9</ele><time>2026-05-23T08:49:41Z</time></trkpt>
      <trkpt lat="44.404505" lon="8.353800"><ele>509.8</ele><time>2026-05-23T08:50:43Z</time></trkpt>
      <trkpt lat="44.406863" lon="8.353800"><ele>488.7</ele><time>2026-05-23T08:51:45Z</time></trkpt>
      <trkpt lat="44.409221" lon="8.353800"><ele>467.7</ele><time>2026-05-23T08:52:47Z</time></trkpt>
      <trkpt lat="44.411579" lon="8.353800"><ele>446.6</ele><time>2026-05-23T08:53:49Z</time></trkpt>
      <trkpt lat="44.413937" lon="8.353800"><ele>425.5</ele><time>2026-05-23T08:54:51Z</time></trkpt>
      <trkpt lat="44.416295" lon="8.353800"><ele>404.4</ele><time>2026-05-23T08:55:52Z</time></trkpt>
      <trkpt lat="44.418653" lon="8.353800"><ele>383.3</ele><time>2026-05-23T08:56:54Z</time></trkpt>
      <trkpt lat="44.421011" lon="8.353800"><ele>362.2</ele><time>2026-05-23T08:57:56Z</time></trkpt>
      <trkpt lat="44.423369" lon="8.353800"><ele>341.1</ele><time>2026-05-23T08:58:58Z</time></trkpt>
      <trkpt lat="44.425727" lon="8.353800"><ele>320.0</ele><time>2026-05-23T09:00:00Z</time></trkpt>
    </trkseg>
  </trk>
</gpx>
