<?xml version="1.0" encoding="UTF-8"?>
<gpx version="1.1" creator="bike_setup_tracker sample generator"
     xmlns="http://www.topografix.com/GPX/1/1"
     xmlns:xsi="http://www.w3.org/2001/XMLSchema-instance"
     xsi:schemaLocation="http://www.topografix.com/GPX/1/1 http://www.topografix.com/GPX/1/1/gpx.xsd">
  <metadata>
    <name>Hometrails - Season Opener</name>
    <time>2026-05-01T13:00:00Z</time>
  </metadata>
  <trk>
    <name>Hometrails - Season Opener</name>
    <trkseg>
      <trkpt lat="48.775800" lon="9.182900"><ele>320.0</ele><time>2026-05-01T13:00:00Z</time></trkpt>
      <trkpt lat="48.778125" lon="9.182900"><ele>332.9</ele><time>2026-05-01T13:01:01Z</time></trkpt>
      <trkpt lat="48.780450" lon="9.182900"><ele>345.9</ele><time>2026-05-01T13:02:03Z</time></trkpt>
      <trkpt lat="48.782775" lon="9.182900"><ele>358.8</ele><time>2026-05-01T13:03:04Z</time></trkpt>
      <trkpt lat="48.785100" lon="9.182900"><ele>371.8</ele><time>2026-05-01T13:04:06Z</time></trkpt>
      <trkpt lat="48.787425" lon="9.182900"><ele>384.7</ele><time>2026-05-01T13:05:07Z</time></trkpt>
      <trkpt lat="48.789750" lon="9.182900"><ele>397.6</ele><time>2026-05-01T13:06:09Z</time></trkpt>
      <trkpt lat="48.792075" lon="9.182900"><ele>410.6</ele><time>2026-05-01T13:07:10Z</time></trkpt>
      <trkpt lat="48.794400" lon="9.182900"><ele>423.5</ele><time>2026-05-01T13:08:12Z</time></trkpt>
      <trkpt lat="48.796725" lon="9.182900"><ele>436.5</ele><time>2026-05-01T13:09:13Z</time></trkpt>
      <trkpt lat="48.799050" lon="9.182900"><ele>449.4</ele><time>2026-05-01T13:10:15Z</time></trkpt>
      <trkpt lat="48.801375" lon="9.182900"><ele>462.4</ele><time>2026-05-01T13:11:16Z</time></trkpt>
      <trkpt lat="48.803700" lon="9.182900"><ele>475.3</ele><time>2026-05-01T13:12:18Z</time></trkpt>
      <trkpt lat="48.806026" lon="9.182900"><ele>488.2</ele><time>2026-05-01T13:13:19Z</time></trkpt>
      <trkpt lat="48.808351" lon="9.182900"><ele>501.2</ele><time>2026-05-01T13:14:21Z</time></trkpt>
      <trkpt lat="48.810676" lon="9.182900"><ele>514.1</ele><time>2026-05-01T13:15:22Z</time></trkpt>
      <trkpt lat="48.813001" lon="9.182900"><ele>527.1</ele><time>2026-05-01T13:16:24Z</time></trkpt>
      <trkpt lat="48.815326" lon="9.182900"><ele>540.0</ele><time>2026-05-01T13:17:25Z</time></trkpt>
      <trkpt lat="48.817651" lon="9.182900"><ele>552.9</ele><time>2026-05-01T13:18:26Z</time></trkpt>
      <trkpt lat="48.819976" lon="9.182900"><ele>565.9</ele><time>2026-05-01T13:19:28Z</time></trkpt>
      <trkpt lat="48.822301" lon="9.182900"><ele>578.8</ele><time>2026-05-01T13:20:29Z</time></trkpt>
      <trkpt lat="48.824626" lon="9.182900"><ele>591.8</ele><time>2026-05-01T13:21:31Z</time></trkpt>
      <trkpt lat="48.826951" lon="9.182900"><ele>604.7</ele><time>2026-05-01T13:22:32Z</time></trkpt>
      <trkpt lat="48.829276" lon="9.182900"><ele>617.6</ele><time>2026-05-01T13:23:34Z</time></trkpt>
      <trkpt lat="48.831601" lon="9.182900"><ele>630.6</ele><time>2026-05-01T13:24:35Z</time></trkpt>
      <trkpt lat="48.833926" lon="9.182900"><ele>643.5</ele><time>2026-05-01T13:25:37Z</time></trkpt>
      <trkpt lat="48.836251" lon="9.182900"><ele>656.5</ele><time>2026-05-01T13:26:38Z</time></trkpt>
      <trkpt lat="48.838576" lon="9.182900"><ele>669.4</ele><time>2026-05-01T13:27:40Z</time></trkpt>
      <trkpt lat="48.840901" lon="9.182900"><ele>682.4</ele><time>2026-05-01T13:28:41Z</time></trkpt>
      <trkpt lat="48.843226" lon="9.182900"><ele>695.3</ele><time>2026-05-01T13:29:43Z</time></trkpt>
      <trkpt lat="48.845551" lon="9.182900"><ele>708.2</ele><time>2026-05-01T13:30:44Z</time></trkpt>
      <trkpt lat="48.847876" lon="9.182900"><ele>721.2</ele><time>2026-05-01T13:31:46Z</time></trkpt>
      <trkpt lat="48.850201" lon="9.182900"><ele>734.1</ele><time>2026-05-01T13:32:47Z</time></trkpt>
      <trkpt lat="48.852526" lon="9.182900"><ele>747.1</ele><time>2026-05-01T13:33:49Z</time></trkpt>
      <trkpt lat="48.854851" lon="9.182900"><ele>760.0</ele><time>2026-05-01T13:34:50Z</time></trkpt>
      <trkpt lat="48.857176" lon="9.182900"><ele>772.9</ele><time>2026-05-01T13:35:51Z</time></trkpt>
      <trkpt lat="48.859501" lon="9.182900"><ele>785.9</ele><time>2026-05-01T13:36:53Z</time></trkpt>
      <trkpt lat="48.861827" lon="9.182900"><ele>798.8</ele><time>2026-05-01T13:37:54Z</time></trkpt>
      <trkpt lat="48.864152" lon="9.182900"><ele>811.8</ele><time>2026-05-01T13:38:56Z</time></trkpt>
      <trkpt lat="48.866477" lon="9.182900"><ele>824.7</ele><time>2026-05-01T13:39:57Z</time></trkpt>
      <trkpt lat="48.868802" lon="9.182900"><ele>837.6</ele><time>2026-05-01T13:40:59Z</time></trkpt>
      <trkpt lat="48.871127" lon="9.182900"><ele>850.6</ele><time>2026-05-01T13:42:00Z</time></trkpt>
      <trkpt lat="48.873452" lon="9.182900"><ele>863.5</ele><time>2026-05-01T13:43:02Z</time></trkpt>
      <trkpt lat="48.875777" lon="9.182900"><ele>876.5</ele><time>2026-05-01T13:44:03Z</time></trkpt>
      <trkpt lat="48.878102" lon="9.182900"><ele>889.4</ele><time>2026-05-01T13:45:05Z</time></trkpt>
      <trkpt lat="48.880427" lon="9.182900"><ele>902.4</ele><time>2026-05-01T13:46:06Z</time></trkpt>
      <trkpt lat="48.882752" lon="9.182900"><ele>915.3</ele><time>2026-05-01T13:47:08Z</time></trkpt>
      <trkpt lat="48.885077" lon="9.182900"><ele>928.2</ele><time>2026-05-01T13:48:09Z</time></trkpt>
      <trkpt lat="48.887402" lon="9.182900"><ele>941.2</ele><time>2026-05-01T13:49:11Z</time></trkpt>
      <trkpt lat="48.889727" lon="9.182900"><ele>954.1</ele><time>2026-05-01T13:50:12Z</time></trkpt>
      <trkpt lat="48.892052" lon="9.182900"><ele>967.1</ele><time>2026-05-01T13:51:14Z</time></trkpt>
      <trkpt lat="48.894377" lon="9.182900"><ele>980.0</ele><time>2026-05-01T13:52:15Z</time></trkpt>
      <trkpt lat="48.894377" lon="9.182900"><ele>980.0</ele><time>2026-05-01T13:54:17Z</time></trkpt>
      <trkpt lat="48.894377" lon="9.182900"><ele>980.0</ele><time>2026-05-01T13:56:19Z</time></trkpt>
      <trkpt lat="48.894377" lon="9.182900"><ele>980.0</ele><time>2026-05-01T13:58:22Z</time></trkpt>
      <trkpt lat="48.894377" lon="9.182900"><ele>980.0</ele><time>2026-05-01T14:00:24Z</time></trkpt>
      <trkpt lat="48.894377" lon="9.182900"><ele>980.0</ele><time>2026-05-01T14:02:26Z</time></trkpt>
      <trkpt lat="48.894377" lon="9.182900"><ele>980.0</ele><time>2026-05-01T14:04:28Z</time></trkpt>
      <trkpt lat="48.894377" lon="9.182900"><ele>980.0</ele><time>2026-05-01T14:06:31Z</time></trkpt>
      <trkpt lat="48.894377" lon="9.182900"><ele>980.0</ele><time>2026-05-01T14:08:33Z</time></trkpt>
      <trkpt lat="48.894377" lon="9.182900"><ele>980.0</ele><time>2026-05-01T14:10:35Z</time></trkpt>
      <trkpt lat="48.894377" lon="9.182900"><ele>980.0</ele><time>2026-05-01T14:12:37Z</time></trkpt>
      <trkpt lat="48.894377" lon="9.182900"><ele>980.0</ele><time>2026-05-01T14:14:39Z</time></trkpt>
      <trkpt lat="48.894377" lon="9.182900"><ele>980.0</ele><time>2026-05-01T14:16:42Z</time></trkpt>
      <trkpt lat="48.894377" lon="9.182900"><ele>980.0</ele><time>2026-05-01T14:18:44Z</time></trkpt>
      <trkpt lat="48.894377" lon="9.182900"><ele>980.0</ele><time>2026-05-01T14:20:46Z</time></trkpt>
      <trkpt lat="48.894377" lon="9.182900"><ele>980.0</ele><time>2026-05-01T14:22:48Z</time></trkpt>
      <trkpt lat="48.894377" lon="9.182900"><ele>980.0</ele><time>2026-05-01T14:24:51Z</time></trkpt>
      <trkpt lat="48.894377" lon="9.182900"><ele>980.0</ele><time>2026-05-01T14:26:53Z</time></trkpt>
      <trkpt lat="48.894377" lon="9.182900"><ele>980.0</ele><time>2026-05-01T14:28:55Z</time></trkpt>
      <trkpt lat="48.894377" lon="9.182900"><ele>980.0</ele><time>2026-05-01T14:30:57Z</time></trkpt>
      <trkpt lat="48.894377" lon="9.182900"><ele>980.0</ele><time>2026-05-01T14:32:59Z</time></trkpt>
      <trkpt lat="48.894377" lon="9.182900"><ele>980.0</ele><time>2026-05-01T14:35:02Z</time></trkpt>
      <trkpt lat="48.894377" lon="9.182900"><ele>980.0</ele><time>2026-05-01T14:37:04Z</time></trkpt>
      <trkpt lat="48.894377" lon="9.182900"><ele>980.0</ele><time>2026-05-01T14:39:06Z</time></trkpt>
      <trkpt lat="48.894377" lon="9.182900"><ele>980.0</ele><time>2026-05-01T14:41:08Z</time></trkpt>
      <trkpt lat="48.894377" lon="9.182900"><ele>980.0</ele><time>2026-05-01T14:43:11Z</time></trkpt>
      <trkpt lat="48.894377" lon="9.182900"><ele>980.0</ele><time>2026-05-01T14:45:13Z</time></trkpt>
      <trkpt lat="48.894377" lon="9.182900"><ele>980.0</ele><time>2026-05-01T14:47:15Z</time></trkpt>
      <trkpt lat="48.896687" lon="9.182900"><ele>992.9</ele><time>2026-05-01T14:48:16Z</time></trkpt>
      <trkpt lat="48.898997" lon="9.182900"><ele>1005.7</ele><time>2026-05-01T14:49:17Z</time></trkpt>
      <trkpt lat="48.901307" lon="9.182900"><ele>1018.6</ele><time>2026-05-01T14:50:18Z</time></trkpt>
      <trkpt lat="48.903617" lon="9.182900"><ele>1031.4</ele><time>2026-05-01T14:51:19Z</time></trkpt>
      <trkpt lat="48.905927" lon="9.182900"><ele>1033.6</ele><time>2026-05-01T14:52:20Z</time></trkpt>
      <trkpt lat="48.908237" lon="9.182900"><ele>1014.3</ele><time>2026-05-01T14:53:21Z</time></trkpt>
      <trkpt lat="48.910547" lon="9.182900"><ele>995.0</ele><time>2026-05-01T14:54:22Z</time></trkpt>
      <trkpt lat="48.912857" lon="9.182900"><ele>975.7</ele><time>2026-05-01T14:55:24Z</time></trkpt>
      <trkpt lat="48.915167" lon="9.182900"><ele>956.4</ele><time>2026-05-01T14:56:25Z</time></trkpt>
      <trkpt lat="48.917477" lon="9.182900"><ele>937.1</ele><time>2026-05-01T14:57:26Z</time></trkpt>
      <trkpt lat="48.919786" lon="9.182900"><ele>917.9</ele><time>2026-05-01T14:58:27Z</time></trkpt>
      <trkpt lat="48.922096" lon="9.182900"><ele>898.6</ele><time>2026-05-01T14:59:28Z</time></trkpt>
      <trkpt lat="48.924406" lon="9.182900"><ele>879.3</ele><time>2026-05-01T15:00:29Z</time></trkpt>
      <trkpt lat="48.926716" lon="9.182900"><ele>860.0</ele><time>2026-05-01T15:01:30Z</time></trkpt>
      <trkpt lat="48.929026" lon="9.182900"><ele>840.7</ele><time>2026-05-01T15:02:31Z</time></trkpt>
      <trkpt lat="48.931336" lon="9.182900"><ele>821.4</ele><time>2026-05-01T15:03:32Z</time></trkpt>
      <trkpt lat="48.933646" lon="9.182900"><ele>802.1</ele><time>2026-05-01T15:04:33Z</time></trkpt>
      <trkpt lat="48.935956" lon="9.182900"><ele>782.9</ele><time>2026-05-01T15:05:34Z</time></trkpt>
      <trkpt lat="48.938266" lon="9.182900"><ele>763.6</ele><time>2026-05-01T15:06:35Z</time></trkpt>
      <trkpt lat="48.940576" lon="9.182900"><ele>744.3</ele><time>2026-05-01T15:07:36Z</time></trkpt>
      <trkpt lat="48.942886" lon="9.182900"><ele>725.0</ele><time>2026-05-01T15:08:38Z</time></trkpt>
      <trkpt lat="48.945196" lon="9.182900"><ele>705.7</ele><time>2026-05-01T15:09:39Z</time></trkpt>
      <trkpt lat="48.947506" lon="9.182900"><ele>686.4</ele><time>2026-05-01T15:10:40Z</time></trkpt>
      <trkpt lat="48.949816" lon="9.182900"><ele>667.1</ele><time>2026-05-01T15:11:41Z</time></trkpt>
      <trkpt lat="48.952126" lon="9.182900"><ele>647.9</ele><time>2026-05-01T15:12:42Z</time></trkpt>
      <trkpt lat="48.954436" lon="9.182900"><ele>628.6</ele><time>2026-05-01T15:13:43Z</time></trkpt>
      <trkpt lat="48.956746" lon="9.182900"><ele>609.3</ele><time>2026-05-01T15:14:44Z</time></trkpt>
      <trkpt lat="48.959055" lon="9.182900"><ele>590.0</ele><time>2026-05-01T15:15:45Z</time></trkpt>
      <trkpt lat="48.961365" lon="9.182900"><ele>570.7</ele><time>2026-05-01T15:16:46Z</time></trkpt>
      <trkpt lat="48.963675" lon="9.182900"><ele>551.4</ele><time>2026-05-01T15:17:47Z</time></trkpt>
      <trkpt lat="48.965985" lon="9.182900"><ele>532.1</ele><time>2026-05-01T15:18:48Z</time></trkpt>
      <trkpt lat="48.968295" lon="9.182900"><ele>512.9</ele><time>2026-05-01T15:19:49Z</time></trkpt>
      <trkpt lat="48.970605" lon="9.182900"><ele>493.6</ele><time>2026-05-01T15:20:50Z</time></trkpt>
      <trkpt lat="48.972915" lon="9.182900"><ele>474.3</ele><time>2026-05-01T15:21:51Z</time></trkpt>
      <trkpt lat="48.975225" lon="9.182900"><ele>455.0</ele><time>2026-05-01T15:22:52Z</time></trkpt>
      <trkpt lat="48.977535" lon="9.182900"><ele>435.7</ele><time>2026-05-01T15:23:54Z</time></trkpt>
      <trkpt lat="48.979845" lon="9.182900"><ele>416.4</ele><time>2026-05-01T15:24:55Z</time></trkpt>
      <trkpt lat="48.982155" lon="9.182900"><ele>397.1</ele><time>2026-05-01T15:25:56Z</time></trkpt>
      <trkpt lat="48.984465" lon="9.182900"><ele>377.9</ele><time>2026-05-01T15:26:57Z</time></trkpt>
      <trkpt lat="48.986775" lon="9.182900"><ele>358.6</ele><time>2026-05-01T15:27:58Z</time></trkpt>
      <trkpt lat="48.989085" lon="9.182900"><ele>339.3</ele><time>2026-05-01T15:28:59Z</time></trkpt>
      <trkpt lat="48.991395" lon="9.182900"><ele>320.0</ele><time>2026-05-01T15:30:00Z</time></trkpt>
    </trkseg>
  </trk>
</gpx>
